Company Name,ISO Country Code,Country,City,Address,NACE Rev. 2 Code principal,"NACE Principal Rev. 2, description",Sector,Main activity,Description in English,Website,"Operating result [=EBIT] mEUR 2021","Operating result [=EBIT] mEUR 2020","Operating result [=EBIT] mEUR 2019","Turnover mEUR 2021","Turnover mEUR 2020","Turnover mEUR 2019",Availability of financial data,2 years of consecutive losses,Average loss over 3 years
ITX HELLAS SINGLE MEMBER S.A.,GR,Grèce,ATHENS,,4771,Commerce de détail d'habillement en magasin spécialisé,Engaged in the retail of fashion clothing,Retail,"Exclusive imports and trade of garments, shoes, accessories, leather goods, perfumes, cosmetics, white linen, decoratives, tableware and small furniture (also via internet)","www.zara.com",31.0,17.0,22.0,459,352,300,YES,NO,NO
ZEEMAN TEXTIELSUPERS,FR,France,PARIS,,4771,Commerce de détail d'habillement en magasin spécialisé,Engaged in the retail sale of clothing and outerwear as well as fashion apparels and accessories,Retail,Engaged in the retail sale of clothing and outerwear as well as fashion apparels and accessories [source: Bureau van Dijk],www.zeeman.com,4.0,3.0,4.0,164,137,147,YES,NO,NO
ANSWEAR.COM S.A.,PL,Pologne,KRAKOW,,4771,Commerce de détail d'habillement en magasin spécialisé,"Digital platform for the sale of branded clothing, footwear and accessories in the CEE region",Wholesale; Retail; Services,The main activities of the Company are Electronic Shopping and Mail-Order Houses.,www.answear.com,8.0,5.0,1.0,149,90,73,YES,NO,NO
REGENT GOLD,RU,Fédération de Russie,"AGALATOVSKOE SELSKOE POSELENIE, D. SKOTNOE","UL. SAVUSHKINA D. 126, LIT. A, POMESHCH. 133-N",4777,Commerce de détail d'articles d'horlogerie et de bijouterie en magasin spécialisé,Operates as other miscellaneous store retailer,Retail,Operates as other miscellaneous store retailer [source: Bureau van Dijk],www.zolotoy.ru,22.0,16.0,5.0,141,103,117,YES,NO,NO
NILSON GROUP AB FILIAL NORGE,NO,Norvège,OSLO,,4772,Commerce de détail de chaussures et d'articles en cuir en magasin spécialisé,Engaged in the operation of a chain of shoe stores; Involved in the retail trade of footwear,Retail,Engaged in the operation of a chain of shoe stores; Involved in the retail trade of footwear [source: Bureau van Dijk],No Website,-2.0,-20.0,-6.0,120,125,191,YES,YES,
SAKURA LLC,RU,Fédération de Russie,VELIKII NOVGOROD,,4772,Commerce de détail de chaussures et d'articles en cuir en magasin spécialisé,Engaged in the retail sale of footwear,Retail,Engaged in the retail sale of footwear [source: Bureau van Dijk],"xn--23-6kca3cvbes.xn--p1ai",0.0,4.0,5.0,94,69,131,YES,NO,NO
LIMITED LIABILITY COMPANY HUGO BOSS RUS,RU,Fédération de Russie,MOSCOW,"PROEZD 1-I KRASNOGVARDEISKII D. 22, STR. 1, FLOOR/POMESHCH./KOM. 26/A26/7",4771,Commerce de détail d'habillement en magasin spécialisé,"Engaged in the retail sale of clothing, perfume, and accessories",Retail,"Trade with clothes, footwear, accessories.","www.hugoboss.com/ru",7.0,3.0,6.0,90,49,66,YES,NO,NO
MNG-MANGO U.K. LIMITED,GB,Royaume-Uni,LONDON,,4771,Commerce de détail d'habillement en magasin spécialisé,Engaged in the production and retail distribution of clothing and accessories for women and men,Manufacturing; Retail,Retail of clothes and accessories.,www.shop.mango.com,4.0,-5.0,-2.0,89,65,80,YES,YES,
SEZONNAYA KOLLEKTSIYA,RU,Fédération de Russie,MOSCOW,,4772,Commerce de détail de chaussures et d'articles en cuir en magasin spécialisé,Engaged in the operation of shoe stores,Retail,Engaged in the operation of shoe stores [source: Bureau van Dijk],zenden.ru,1.0,0.0,-2.0,78,60,128,YES,NO,YES
GRUPPO PRITELLI S.R.L.,IT,Italie,CATTOLICA,VIA RESPIGHI 54 INT.4,4771,Commerce de détail d'habillement en magasin spécialisé,Engaged in the management and operation of clothing stores,Retail,Engaged in the management and operation of clothing stores [source: Bureau van Dijk],"www.gruppopritelli.it",2.0,0.0,1.0,74,67,63,YES,NO,NO
WISE S.R.L.,IT,Italie,CREMONA,CORSO GIUSEPPE MAZZINI 71,4771,Commerce de détail d'habillement en magasin spécialisé,Engaged in the operation of a chain of family clothing stores,Retail,Engaged in the operation of a chain of family clothing stores [source: Bureau van Dijk],"www.wiseboutique.com",2.0,1.0,1.0,69,65,70,YES,NO,NO
ARENA,RU,Fédération de Russie,MOSCOW,,4772,Commerce de détail de chaussures et d'articles en cuir en magasin spécialisé,Retail sale of leather goods,Retail,sale of footwear and accessories,"www.noone.ru",6.0,3.0,1.0,64,48,69,YES,NO,NO
"TORRES JOALHEIROS, S.A.",PT,Portugal,LISBOA,,4777,Commerce de détail d'articles d'horlogerie et de bijouterie en magasin spécialisé,Engaged in the retail sale of watches and jewelry,Retail,Engaged in the retail sale of watches and jewelry [source: Bureau van Dijk],"www.torres.pt",15.0,8.0,12.0,64,46,68,YES,NO,NO
C & A MODE KERESKEDELMI KORLATOLT FELELOSSEGU TARSASAG,HU,Hongrie,BUDAPEST,,4771,Commerce de détail d'habillement en magasin spécialisé,Engaged in the retail sale of clothing apparels and footwear for men and women,Retail,Engaged in the retail sale of clothing apparels and footwear for men and women [source: Bureau van Dijk],"www.c-and-a.com/hu",2.0,-5.0,3.0,64,52,79,YES,NO,NO
"JOINT STOCK COMPANY STOLESHNIKOV,12 JSC STOLESHNIKOV,12",RU,Fédération de Russie,MOSCOW,"PER. NIZHNII KISELNYI D. 4, ET 5 POM.I KOM 15",4771,Commerce de détail d'habillement en magasin spécialisé,Retail distribution of knitted and crocheted apparel,Retail,Retail distribution of knitted and crocheted apparel [source: Bureau van Dijk],hermes.com,16.0,8.0,7.0,62,37,38,YES,NO,NO
AXEL KAUFMANN APS,DK,Danemark,AARHUS C,,4771,Commerce de détail d'habillement en magasin spécialisé,Engaged in the retail sale of clothing principally in Denmark,Retail,Engaged in the retail sale of clothing principally in Denmark [source: Bureau van Dijk],www.kaufmann.dk,1.0,0.0,1.0,57,62,70,YES,NO,NO
OCHNIK S.A.,PL,Pologne,GARWOLIN,,4771,Commerce de détail d'habillement en magasin spécialisé,Primarily engaged in the retail sale of clothing and accessories in Poland,Retail,Primarily engaged in the retail sale of clothing and accessories in Poland [source: Bureau van Dijk],www.ochnik.com,9.0,4.0,6.0,58,44,55,YES,NO,NO
ME AND EM LIMITED,GB,Royaume-Uni,LONDON,,4771,Commerce de détail d'habillement en magasin spécialisé,Engaged in the retail distribution of clothing,Retail,Design and retail contemporary clothing and accessories.,www.meandem.com,12.0,2.0,0.0,57,26,20,YES,NO,NO
CARRY SP. Z O.O.,PL,Pologne,POZNAN,,4771,Commerce de détail d'habillement en magasin spécialisé,Engaged in the retail sale of clothing,Retail,Trade: outwear,www.carry.pl,9.0,2.0,6.0,56,50,79,YES,NO,NO
PANCLUB JSC,RU,Fédération de Russie,MOSCOW,,4777,Commerce de détail d'articles d'horlogerie et de bijouterie en magasin spécialisé,Engaged in selling jewelry and other related personal adornment,Retail,Engaged in selling jewelry and other related personal adornment [source: Bureau van Dijk],"pandora.net",4.0,1.0,13.0,55,41,77,YES,NO,NO
PLANETA SPORT D.O.O. BEOGRAD,RS,Serbie,BEOGRAD-VRACAR,,4771,Commerce de détail d'habillement en magasin spécialisé,"Engaged in the retail of sports equipment, accessories, and clothing products",Retail,Retail sale of clothing in specialised stores,"www.planetasport.rs",9.0,7.0,7.0,54,44,42,YES,NO,NO
VENEZIA OGANOWSKA NACHILO SP.J.,PL,Pologne,WARSZAWA,,4772,Commerce de détail de chaussures et d'articles en cuir en magasin spécialisé,Primarily engaged in the retail sale of footwear and leather goods,Retail,"Trade: footwear, leather accessories","www.venezia.pl",0.0,-6.0,3.0,53,45,65,YES,NO,YES
MYUNTS GRUPP,RU,Fédération de Russie,MOSCOW,,4772,Commerce de détail de chaussures et d'articles en cuir en magasin spécialisé,"Engaged in the operation of a chain of shoe stores; Involved in the retail trade of footwear for men, women and children",Retail,"Engaged in the operation of a chain of shoe stores; Involved in the retail trade of footwear for men, women and children [source: Bureau van Dijk]",thomas-muenz.ru,8.0,4.0,3.0,53,29,47,YES,NO,NO
VAN GRAAF GMBH SP.K.,PL,Pologne,WROCLAW,,4771,Commerce de détail d'habillement en magasin spécialisé,Engaged in the retail sale of outerwear,Retail,Trade: outwear,"www.vangraaf.pl",-1.0,-6.0,2.0,48,37,59,YES,YES,
NEW YORKER FINLAND OY,FI,Finlande,HELSINKI,,4771,Commerce de détail d'habillement en magasin spécialisé,Engaged in the retail trade of clothing apparels and accessories,Retail,"Bolagets verksamhetsomrade ar detaljforsaljning, grosshandel och tillverkning av textilier, accessoarer och skor och allt annat som ar forknippat med de. Bolaget kann aga fastigheter, vardepapper och aktier.","www.newyorker.de",9.0,5.0,4.0,48,39,37,YES,NO,NO
IRIDE METALLI SPA,IT,Italie,MILANO,VIALE CERTOSA 95,4777,Commerce de détail d'articles d'horlogerie et de bijouterie en magasin spécialisé,Engaged in the retail sale of watches and jewelry products,Retail,Engaged in the retail sale of watches and jewelry products [source: Bureau van Dijk],www.iridemetalli.com,0.0,0.0,0.0,46,48,52,YES,NO,NO
RETAIL DISTRIBUTION CONCEPTS,BE,Belgique,BRUXELLES,MARGUERITE BERVOETSSTRAAT 94,4772,Commerce de détail de chaussures et d'articles en cuir en magasin spécialisé,Engaged in the retail sale of footwear,Retail,Engaged in the retail sale of footwear [source: Bureau van Dijk],"www.retail-distribution.info",-3.0,-5.0,-1.0,45,35,50,YES,YES,
SZINGA-SPORT KERESKEDELMI KORLATOLT FELELOSSEGU TARSASAG,HU,Hongrie,BUDAPEST,,4771,Commerce de détail d'habillement en magasin spécialisé,Engaged in the retail sale of clothing and footwear products,Retail,Engaged in the retail sale of clothing and footwear products [source: Bureau van Dijk],"www.playersroom.hu",1.0,0.0,3.0,45,36,53,YES,NO,NO
KOTON TEXTILE LLC,RU,Fédération de Russie,MOSCOW,"NAB. NOVODANILOVSKAYA D. 6, K. 1, POM.XXIX KOM. 4",4771,Commerce de détail d'habillement en magasin spécialisé,Retail sale of clothing,Retail,Retail trade with clothing in Koton retail chain,textile.ru,-1.0,-3.0,-1.0,45,33,66,YES,YES,
VERTIKALNOE INTEGRIROVANIE,RU,Fédération de Russie,MOSCOW,,4772,Commerce de détail de chaussures et d'articles en cuir en magasin spécialisé,Engaged in the retail sale of footwear,Retail,Engaged in the retail sale of footwear [source: Bureau van Dijk],www.tervolina.ru,1.0,2.0,3.0,39,35,72,YES,NO,NO
CROCKID LIMITED TRADE DEVELOPMENT,RU,Fédération de Russie,PERM,"UL. YAKHTENNAYA D. 24, K. 2 LIT. A, POMESHCH. 54-N, POMESHCH. 1",4771,Commerce de détail d'habillement en magasin spécialisé,Engaged in the retail sale of clothing in specialised stores,Retail,children's wear.,crockid.ru,7.0,3.0,3.0,36,19,19,YES,NO,NO
"DEICHMANN TRGOVINA OBUCOM, D.O.O.",HR,Croatie,ZAGREB,,4772,Commerce de détail de chaussures et d'articles en cuir en magasin spécialisé,Engaged in the retail sale of footwear for men and women,Retail,"buying and selling goods;mediation on foreign and domestic market;Brands: Elefanten, AM Shoes, Gallus","www.deichmann.hr",5.0,2.0,5.0,35,29,37,YES,NO,NO
OFFPRAIS,RU,Fédération de Russie,MOSCOW,,4771,Commerce de détail d'habillement en magasin spécialisé,Engaged in the operation and management of clothing stores,Retail,Sale of clothes,www.offprice.eu,4.0,2.0,4.0,34,23,33,YES,NO,NO
VALTER FRANCO RICCI SOCIETA' PER AZIONI SIGLABILE IN VALTER FRANCO RICCI S.P.A.,IT,Italie,ALESSANDRIA,CORSO ROMA 144,4777,Commerce de détail d'articles d'horlogerie et de bijouterie en magasin spécialisé,Engaged in the retail sale of jewelry products,Retail,Engaged in the retail sale of jewelry products [source: Bureau van Dijk],www.astrua.com,3.0,2.0,2.0,33,26,30,YES,NO,NO
UAB ARMITANA,LT,Lituanie,VILNIAUS M.,,4772,Commerce de détail de chaussures et d'articles en cuir en magasin spécialisé,Engaged in the retail sale of clothing apparels and footwear for men and women,Retail,Engaged in the retail sale of clothing apparels and footwear for men and women [source: Bureau van Dijk],www.armitana.lt,3.0,1.0,1.0,32,23,27,YES,NO,NO
DIANITA STRUMICA DOOEL,MK,Macédoine du Nord,STRUMICA,,4771,Commerce de détail d'habillement en magasin spécialisé,Engaged in the operation and management of clothing stores,Retail,Engaged in the operation and management of clothing stores [source: Bureau van Dijk],No Website,2.0,1.0,1.0,32,61,8,YES,NO,NO
LAGRANGE 12 S.R.L.,IT,Italie,BRESCIA,VIA CODIGNOLE 45,4771,Commerce de détail d'habillement en magasin spécialisé,"Engaged in the retail sale of clothing, shoes and accessories",Retail,"Engaged in the retail sale of clothing, shoes and accessories [source: Bureau van Dijk]",www.lagrange12.it,1.0,0.0,0.0,32,28,27,YES,NO,NO
"GAP RETAIL, A LIMITED LIABILITY COMPANY",RU,Fédération de Russie,MOSCOW,"PL. PAVELETSKAYA D. 2, STR. 2, POMESHCH. I KOMN 40-41 ET 1",4771,Commerce de détail d'habillement en magasin spécialisé,Operates as a clothing and apparel store,Retail,Operates as a clothing and apparel store [source: Bureau van Dijk],marks-and-spencer.ru,6.0,1.0,2.0,32,21,31,YES,NO,NO
MASS SHOES D.O.O.,HR,Croatie,KLANJEC,,4772,Commerce de détail de chaussures et d'articles en cuir en magasin spécialisé,"Primarily engaged in the retail distribution of footwear and leather goods for men, women and children",Retail,"Trgovina obucom;Note COVID-19:;The company's business operations are directly / indirectly affected by the consequences of official measures and recommendations to reduce the risk of corona infections. The Croatian Government proposed a set of measures to mitigate the effects of the special circumstances caused by the coronavirus epidemic. Employment protection measures:;-Croatian Employment Fund (CEF) is providing grants to support job preservation in COVID 19 affected sectors;Tax measures:;-Employers utilizing the grant provided by CEF to support job preservation are exempted from paying contributions on supported net salaries ;-Possibility to defer payment of VAT until issued invoices are settled. -Taxpayers whose business activities are during special circumstances banned, disabled or significantly impeded by decisions of the competent authority may be fully or partially exempted from paying their tax obligations ;The subject has received: ;- HRK 541.125,00 for 167 employees as support for salaries in March 2020;- HRK 666.000,00 for 167 employees as support for salaries in April 2020;- HRK 666.000,00 for 167 employees as support for salaries in May 2020;from Croatian Employment Fund (CEF). Further development remains to be seen.",www.mass-shoes.com,3.0,1.0,3.0,32,25,33,YES,NO,NO
OOO JEWELLERY HOUSE KRISTALL (LIMITED LIABILITY COMPANY),RU,Fédération de Russie,LIPETSK,,4777,Commerce de détail d'articles d'horlogerie et de bijouterie en magasin spécialisé,"Engaged in the design, manufacture, and retail marketing of jewelry and related fashion accessories",Manufacturing; Retail,"Engaged in the design, manufacture, and retail marketing of jewelry and related fashion accessories [source: Bureau van Dijk]","kristall-shop.ru",4.0,4.0,3.0,32,26,38,YES,NO,NO
SALVADORI S.P.A.,IT,Italie,VENEZIA,SESTIERE SAN MARCO 67,4777,Commerce de détail d'articles d'horlogerie et de bijouterie en magasin spécialisé,"Engaged in the retail sale of jewelry, watches, precious stones, and precious metals",Retail,"Engaged in the retail sale of jewelry, watches, precious stones, and precious metals [source: Bureau van Dijk]","salvadori-venezia.com",5.0,3.0,4.0,30,22,28,YES,NO,NO
INTRAFASHION GROUP S.A.,GR,Grèce,KRINIDES,,4771,Commerce de détail d'habillement en magasin spécialisé,Primarily engaged in the retail sale of clothing,Retail,"Imports, mfg (in third party facilities) and trade of women's wear, shoes, accessories, jewellery and cosmetics (also via internet). Franchising",www.pinkwoman-fashion.com,4.0,0.0,-5.0,30,20,27,YES,YES,
5 KARMANOV-A,RU,Fédération de Russie,DOLGOPRUDNYI,"PR-D LIKHACHEVSKII D. 4, STR. 2, KABINET 203",4771,Commerce de détail d'habillement en magasin spécialisé,Engaged in the management and operation of department stores,Retail,Trade in clothes,"5karmanov.ru",1.0,1.0,-1.0,29,22,38,YES,NO,NO
ZOLOTOI KVADRAT,RU,Fédération de Russie,MOSCOW,,4771,Commerce de détail d'habillement en magasin spécialisé,Engaged in the operation and management of clothing stores,Retail,Engaged in the operation and management of clothing stores [source: Bureau van Dijk],No Website,2.0,1.0,1.0,29,20,34,YES,NO,NO
ALINA S.R.L.,IT,Italie,VILLARICCA,VIA ANIELLO PALUMBO 57,4771,Commerce de détail d'habillement en magasin spécialisé,Engaged in the operation of a chain of family clothing stores,Retail,Engaged in the operation of a chain of family clothing stores [source: Bureau van Dijk],"www.danielloboutique.it",1.0,0.0,0.0,28,20,17,YES,NO,NO
MYRTO,BE,Belgique,BRUXELLES,ISIDORE GERARDLAAN 29,4777,Commerce de détail d'articles d'horlogerie et de bijouterie en magasin spécialisé,Engaged in the retail distribution of jewellery,Retail,Engaged in the retail distribution of jewellery [source: Bureau van Dijk],myrto.okinawa,6.0,3.0,2.0,28,18,23,YES,NO,NO
CALZEDONIA CROATIA D.O.O.,HR,Croatie,JALZABET,,4771,Commerce de détail d'habillement en magasin spécialisé,Primarily engaged in the retail sale of clothing and related accessories,Retail,Primarily engaged in the retail sale of clothing and related accessories [source: Bureau van Dijk],www.calzedonia.com,4.0,2.0,3.0,26,20,26,YES,NO,NO
DOMANI S.R.L.,IT,Italie,TREVIGLIO,VIA ROMA 8,4772,Commerce de détail de chaussures et d'articles en cuir en magasin spécialisé,Engaged in the management and operation of shoe stores,Retail; Services,Engaged in the management and operation of shoe stores [source: Bureau van Dijk],"www.pozzilei.it",2.0,2.0,1.0,26,23,25,YES,NO,NO
GIOIELLERIA B. S.R.L.,IT,Italie,ROMA,VIA DELLA CROCE 13,4777,Commerce de détail d'articles d'horlogerie et de bijouterie en magasin spécialisé,Operates as a retailer of miscellaneous shopping goods,Retail,Operates as a retailer of miscellaneous shopping goods [source: Bureau van Dijk],www.gioielleriabonanno.it,1.0,1.0,0.0,26,16,12,YES,NO,NO
"FACIT - MERCATO DELLA CONFEZIONE S.P.A. O, IN FORMA ABBREVIATA FACIT S.P.A.",IT,Italie,TORINO,VIA CERVINO 23,4771,Commerce de détail d'habillement en magasin spécialisé,Operates as retailer of furniture and home furnishing,Retail,Operates as retailer of furniture and home furnishing [source: Bureau van Dijk],"www.facitmoda.com",1.0,-3.0,0.0,26,18,30,YES,NO,YES
BENVENUTI SRL,RO,Roumanie,ORADEA,,4772,Commerce de détail de chaussures et d'articles en cuir en magasin spécialisé,Engaged in the operation of a chain of shoe stores; Involved in the retail trade of footwear,Retail,Engaged in the operation of a chain of shoe stores; Involved in the retail trade of footwear [source: Bureau van Dijk],www.benvenuti.ro,1.0,-1.0,1.0,25,20,28,YES,NO,NO
KEKALE OY,FI,Finlande,JOENSUU,,4771,Commerce de détail d'habillement en magasin spécialisé,Engaged in the retail sale of clothing,Retail,"Toimiala: Yhtion toimialana on naisten, miesten ja lasten pukimien, musiikkiaanitteiden, kemikalien seka pukeutumiseen liittyvien tarvikkeiden myynti ja vaatteiden valmistus. Yhtiolla on oikeus toimintaansa varten omistaa ja hallita kiinteistoja ja osakkeita.",www.kekale.fi,-1.0,-2.0,-1.0,24,22,27,YES,YES,
SPORT VISION SKOPJE DOOEL,MK,Macédoine du Nord,SKOPJE,,4772,Commerce de détail de chaussures et d'articles en cuir en magasin spécialisé,"Operates a shoe store specializing in selling men's, women's and children's footwear",Retail,"Operates a shoe store specializing in selling men's, women's and children's footwear [source: Bureau van Dijk]",sportvision.mk,2.0,2.0,2.0,24,18,18,YES,NO,NO
YUVELIRNAYA SET EPL DAIMOND,RU,Fédération de Russie,MOSCOW,PER. 1-I SHCHIPKOVSKII D. 20,4777,Commerce de détail d'articles d'horlogerie et de bijouterie en magasin spécialisé,Engaged in the retail distribution of jewelry,Retail,Sale of jewellery.,epldiamond.com,1.0,0.0,2.0,23,16,23,YES,NO,NO
BASSETTI (DEUTSCHLAND) GMBH  ZWEIGNIEDERLASSUNG OESTERREICH,AT,Autriche,WALS-HIMMELREICH,,4771,Commerce de détail d'habillement en magasin spécialisé,Engaged in the retail sale of home textiles,Retail,Engaged in the retail sale of home textiles [source: Bureau van Dijk],www.zucchibassetti.com,6.0,5.0,5.0,22,20,19,YES,NO,NO
FANTASIA S.R.L.,IT,Italie,GINOSA,VIA PITAGORA 56,4771,Commerce de détail d'habillement en magasin spécialisé,"Engaged in the retail distribution of a general line of new clothing for men, women, and children",Retail,"Engaged in the retail distribution of a general line of new clothing for men, women, and children [source: Bureau van Dijk]",www.fantasiacalzature.it,0.0,0.0,1.0,22,22,23,YES,NO,NO
LAURAMAR,FR,France,LYON,,4777,Commerce de détail d'articles d'horlogerie et de bijouterie en magasin spécialisé,Engaged in the rental and sale of real estate properties,Retail; Services,Engaged in the rental and sale of real estate properties [source: Bureau van Dijk],"www.maier.fr",3.0,2.0,2.0,22,15,16,YES,NO,NO
MANBOW,FR,France,PARIS,,4772,Commerce de détail de chaussures et d'articles en cuir en magasin spécialisé,Engaged in the retail sale footwear,Retail,Engaged in the retail sale footwear [source: Bureau van Dijk],www.manfield.fr,0.0,-3.0,-2.0,21,17,30,YES,YES,
VALENTI & C. S.R.L.,IT,Italie,PISA,BORGO STRETTO 28,4772,Commerce de détail de chaussures et d'articles en cuir en magasin spécialisé,Engaged in the retail sale of footwear products in Italy,Retail,Engaged in the retail sale of footwear products in Italy [source: Bureau van Dijk],www.valentipisa.it,0.0,0.0,0.0,21,19,22,YES,NO,NO
PILAR PRIETO GUMIEL SL,ES,Espagne,ALCORCON,,4771,Commerce de détail d'habillement en magasin spécialisé,Engaged in the production and retail distribution of clothing and accessories,Manufacturing; Retail,Engaged in the production and retail distribution of clothing and accessories [source: Bureau van Dijk],www.pilarprieto.es,2.0,0.0,2.0,20,15,24,YES,NO,NO
NIELSENS A/S,DK,Danemark,ODENSE SV,,4771,Commerce de détail d'habillement en magasin spécialisé,"Engaged in the retail sale of specialized lines of men's, women's, and children's clothing",Retail,"Engaged in the retail sale of specialized lines of men's, women's, and children's clothing [source: Bureau van Dijk]","www.nielsens.dk",4.0,-1.0,3.0,20,30,37,YES,NO,NO
VIGORA,RU,Fédération de Russie,MOSCOW,"PROEZD 2-I KAPOTNINSKII D. 1, STR. 3, POMESHCH. 2",4771,Commerce de détail d'habillement en magasin spécialisé,Engaged in the retail trade of clothing and footwear products,Retail,Engaged in the retail trade of clothing and footwear products [source: Bureau van Dijk],www.vigorasildenafil.com,1.0,1.0,2.0,20,8,15,YES,NO,NO
STADIO SPORT SOCIEDAD LIMITADA,ES,Espagne,ARUCAS,,4771,Commerce de détail d'habillement en magasin spécialisé,Engaged in the operation of sporting goods store,Retail,Engaged in the operation of sporting goods store [source: Bureau van Dijk],www.estadiosport.net,3.0,1.0,2.0,20,18,23,YES,NO,NO
LOYTOTEX OY,FI,Finlande,KANGASALA,,4771,Commerce de détail d'habillement en magasin spécialisé,Engaged in the operation of a chain of family clothing store,Retail,"Yhtion toimialana on tekstiilien, paperi- ja muovituotteiden, kemikaalien ym. kodin tarvikkeiden ja elintarvikkeiden tukku- ja vahittaiskauppa seka ulkomaankauppa. Lisaksi yhtion toimialana on tekstiilituotteiden valmistus. Lisaksi yhtio voi omistaa ja hallita kiinteistoja ja arvopapereita seka kayda niilla kauppaa.",www.loytotex.fi,-1.0,-1.0,-1.0,20,21,23,YES,YES,
DESPI ASTIGI S.L.,ES,Espagne,CORNELLA DE LLOBREGAT,,4777,Commerce de détail d'articles d'horlogerie et de bijouterie en magasin spécialisé,Engaged in the operation of a jewelry store,Retail,Engaged in the operation of a jewelry store [source: Bureau van Dijk],No Website,0.0,0.0,0.0,19,24,9,YES,NO,NO
TOMASINI FRANCIA SRL,IT,Italie,SPOLETO,CORSO GIUSEPPE GARIBALDI 50,4777,Commerce de détail d'articles d'horlogerie et de bijouterie en magasin spécialisé,Engaged in the retail trade of luxury watch and jewelry,Retail,Engaged in the retail trade of luxury watch and jewelry [source: Bureau van Dijk],"www.tomasinifrancia.it",2.0,1.0,0.0,19,16,18,YES,NO,NO
DESNUDOS SOCIEDAD LIMITADA,ES,Espagne,LAS PALMAS DE GRAN CANARIA,,4771,Commerce de détail d'habillement en magasin spécialisé,Engaged in the retail sale and marketing of clothing and apparel products,Retail,Engaged in the retail sale and marketing of clothing and apparel products [source: Bureau van Dijk],www.desnudos.es,3.0,1.0,2.0,19,18,23,YES,NO,NO
IRINIK SRL,RO,Roumanie,BOTOSANI,,4777,Commerce de détail d'articles d'horlogerie et de bijouterie en magasin spécialisé,"Engaged in the retail sale of jewelry, luggage and leather goods",Retail,"Engaged in the retail sale of jewelry, luggage and leather goods [source: Bureau van Dijk]",www.sabrini.ro,1.0,1.0,1.0,19,12,14,YES,NO,NO
"VISAO DO TEMPO II - DISTRIBUICAO, S.A.",PT,Portugal,CARNAXIDE,,4777,Commerce de détail d'articles d'horlogerie et de bijouterie en magasin spécialisé,"Engaged in the retail sale of jewelry, watches, precious stones, and precious metals",Retail,"Engaged in the retail sale of jewelry, watches, precious stones, and precious metals [source: Bureau van Dijk]","www.pandoraonline.pt/acerca-visao-do-tempo",2.0,1.0,2.0,19,18,28,YES,NO,NO
"EQUACAO DO TEMPO - RELOJOARIA, LDA",PT,Portugal,PORTO,,4777,Commerce de détail d'articles d'horlogerie et de bijouterie en magasin spécialisé,Engaged in the retail sale of watches,Retail,Engaged in the retail sale of watches [source: Bureau van Dijk],www.marcolino.pt,4.0,5.0,9.0,19,20,35,YES,NO,NO
"ARCO PAWEL NAGLY, JACEK DUDAK SP.J.",PL,Pologne,KATOWICE,,4771,Commerce de détail d'habillement en magasin spécialisé,"Engaged in the wholesale and retail distribution of a general line of new clothing and accessories for men, women, and children",Wholesale; Retail,"Engaged in the wholesale and retail distribution of a general line of new clothing and accessories for men, women, and children [source: Bureau van Dijk]",www.sportjam.pl,3.0,0.0,1.0,19,14,20,YES,NO,NO
SERGIO CAPONE S.R.L.,IT,Italie,PISA,BORGO STRETTO 6,4777,Commerce de détail d'articles d'horlogerie et de bijouterie en magasin spécialisé,Operates as a retailer of jewelry goods and watches,Retail,Operates as a retailer of jewelry goods and watches [source: Bureau van Dijk],"www.sergiocapone.it",2.0,1.0,2.0,18,13,16,YES,NO,NO
CHECK POINT S.P.A.,IT,Italie,ASOLA,VIA PARMA 66,4771,Commerce de détail d'habillement en magasin spécialisé,Engaged in the retail distribution of a wide range of clothing and fashion accessories in Italy,Retail,Engaged in the retail distribution of a wide range of clothing and fashion accessories in Italy [source: Bureau van Dijk],"brixiagym.check-point.it",0.0,-1.0,0.0,18,20,19,YES,NO,YES
SPORTROOM SP. Z O.O. SP.K.,PL,Pologne,LODZ,,4771,Commerce de détail d'habillement en magasin spécialisé,Engaged in the retail distribution of footwear,Retail,Engaged in the retail distribution of footwear [source: Bureau van Dijk],www.wbsport.pl,1.0,1.0,0.0,18,14,13,YES,NO,NO
VAN GRAAF RUHAZATI ES KERESKEDELMI BETETI TARSASAG,HU,Hongrie,BUDAPEST,,4771,Commerce de détail d'habillement en magasin spécialisé,Engaged in the retail sale of fashion clothing and accessories,Retail,Engaged in the retail sale of fashion clothing and accessories [source: Bureau van Dijk],"www.vangraaf.com/hu",1.0,-1.0,2.0,18,14,21,YES,NO,NO
LANCERTO S.A.,PL,Pologne,LANCUT,,4771,Commerce de détail d'habillement en magasin spécialisé,"Engaged in the retail sale of clothing, particularly for men",Retail,"Engaged in the retail sale of clothing, particularly for men [source: Bureau van Dijk]",www.lancerto.com,3.0,0.0,1.0,18,11,16,YES,NO,NO
NEWMAX NOWAK I WSPOLNICY SP.K.,PL,Pologne,RZESZOW,,4772,Commerce de détail de chaussures et d'articles en cuir en magasin spécialisé,Engaged in the wholesale and retail trade of New Balance sports shoes,Wholesale; Retail,Trade: footwear,"www.nbsklep.pl",1.0,2.0,14.0,17,17,75,YES,NO,NO
EVOLUTION S.R.L.,IT,Italie,POLIGNANO A MARE,STRADA COMUNALE QUINTAVALLE,4772,Commerce de détail de chaussures et d'articles en cuir en magasin spécialisé,Engaged in the retail sale of footwear,Retail,Engaged in the retail sale of footwear [source: Bureau van Dijk],"www.evolutionboutique.it",0.0,0.0,1.0,17,12,15,YES,NO,NO
MAGAZZINI BERTON S.R.L.,IT,Italie,BOLZANO VICENTINO,VIA ZUCCOLA 24/C,4771,Commerce de détail d'habillement en magasin spécialisé,"Engaged in the retail distribution of clothing, footwear and accessories",Retail,"Engaged in the retail distribution of clothing, footwear and accessories [source: Bureau van Dijk]",www.bertonmagazzini.it,1.0,0.0,0.0,16,13,15,YES,NO,NO
"GOFAS, G., & CO P.C. ""GOFAS JEWELRY""",GR,Grèce,ATHENS,,4777,Commerce de détail d'articles d'horlogerie et de bijouterie en magasin spécialisé,Engaged in the operation of jewelry stores,Retail,"Imports and trade of jewellery, watches, garments, shoes, accessories and costume jewellery",www.gofas.gr,1.0,0.0,1.0,16,8,16,YES,NO,NO
TWA RETAIL SP. Z O.O. SP.K.,PL,Pologne,KRAKOW,,4771,Commerce de détail d'habillement en magasin spécialisé,Engaged in the retail trade of clothing apparels,Retail,Engaged in the retail trade of clothing apparels [source: Bureau van Dijk],www.reporteryoung.pl,1.0,0.0,1.0,16,13,15,YES,NO,NO
"NIVEL PRECIOSO, LDA",PT,Portugal,VIZELA,,4777,Commerce de détail d'articles d'horlogerie et de bijouterie en magasin spécialisé,Engaged in the retail trade of a wide range of merchandise,Retail,Engaged in the retail trade of a wide range of merchandise [source: Bureau van Dijk],No Website,0.0,0.0,0.0,16,20,12,YES,NO,NO
MEGAFORT OU,EE,Estonie,TALLINN,,4777,Commerce de détail d'articles d'horlogerie et de bijouterie en magasin spécialisé,Engaged in the retail trade of watches and jewelry,Retail,Retail sale of watches and jewellery in specialised stores,www.goldtime.ee,3.0,2.0,0.0,16,13,13,YES,NO,NO
HUGO BOSS INTERNATIONAL MARKETS AG S.A. ODDZIAL W POLSCE,PL,Pologne,WARSZAWA,,4771,Commerce de détail d'habillement en magasin spécialisé,Engaged in the retail of luxury fashion items,Retail,Engaged in the retail of luxury fashion items [source: Bureau van Dijk],"www.hugoboss.pl",0.0,-3.0,-1.0,16,11,14,YES,YES,
ADRENALINE.PL SP. Z O.O. SP.K.,PL,Pologne,OLSZTYN,,4771,Commerce de détail d'habillement en magasin spécialisé,Engaged in the retail of sportswear,Retail,Engaged in the retail of sportswear [source: Bureau van Dijk],adrenaline.pl,2.0,1.0,2.0,16,13,18,YES,NO,NO
SA TURRI ET FILS,FR,France,PARAY LE MONIAL,,4772,Commerce de détail de chaussures et d'articles en cuir en magasin spécialisé,Engaged in the operation and management of a shoe store,Retail,Engaged in the operation and management of a shoe store [source: Bureau van Dijk],www.chaussures.turri.fr,0.0,0.0,0.0,16,13,17,YES,NO,NO
NEW YORKER ESTONIA OU,EE,Estonie,TALLINN,,4771,Commerce de détail d'habillement en magasin spécialisé,Operates as a clothing store,Retail,Retail sale of clothing in specialised stores,"www.newyorker.de",4.0,2.0,2.0,15,14,16,YES,NO,NO
STELLA SITI RITEIL,RU,Fédération de Russie,MOSCOW,,4771,Commerce de détail d'habillement en magasin spécialisé,Engaged in the retail sale of fashion clothing and accessories for women,Retail,Engaged in the retail sale of fashion clothing and accessories for women [source: Bureau van Dijk],world.marella.com,2.0,0.0,2.0,15,10,18,YES,NO,NO
HYLTON,FR,France,AIX EN PROVENCE,,4772,Commerce de détail de chaussures et d'articles en cuir en magasin spécialisé,Engaged in offering shoes of all styles for men and women,Retail,Engaged in offering shoes of all styles for men and women [source: Bureau van Dijk],www.hylton.fr,1.0,1.0,1.0,15,12,11,YES,NO,NO
ROBERT GATWARD JEWELLERS LIMITED,GB,Royaume-Uni,HUNGERFORD,,4777,Commerce de détail d'articles d'horlogerie et de bijouterie en magasin spécialisé,Engaged in the wholesale and retail of jewelry and related services,Wholesale; Retail; Services,Jewellery retailers.,www.robertgatwardjewellers.co.uk,3.0,2.0,2.0,15,11,14,YES,NO,NO
GLOBAL BRANDS DISTRIBUTION OOD,BG,Bulgarie,SOFIA,"KV. ZHILISHTNA GRUPA YUZHEN PARK, UL. KOZYAK 12, BL. 122, VH. A, ET. 1, AP. 1",4771,Commerce de détail d'habillement en magasin spécialisé,Engaged in the retail sale of branded apparel and footwear in specialised stores,Retail,Engaged in the retail sale of branded apparel and footwear in specialised stores [source: Bureau van Dijk],www.globalbrands.bg,1.0,1.0,1.0,15,12,13,YES,NO,NO
MANZONI SRL,IT,Italie,BELLUNO,VIA ROMA 19,4772,Commerce de détail de chaussures et d'articles en cuir en magasin spécialisé,Engaged in the retail sale of footwear products,Retail,Engaged in the retail sale of footwear products [source: Bureau van Dijk],"www.manzonisrl.it",1.0,1.0,1.0,15,15,18,YES,NO,NO
SICAR,FR,France,NICE,,4771,Commerce de détail d'habillement en magasin spécialisé,Engaged in the retail sale of clothing principally in France,Retail,Engaged in the retail sale of clothing principally in France [source: Bureau van Dijk],www.hermes.com,4.0,1.0,3.0,15,10,14,YES,NO,NO
S. D. KELLS LIMITED,GB,Royaume-Uni,ENNISKILLEN,,4771,Commerce de détail d'habillement en magasin spécialisé,"Engaged in the retail sale of apparel, accessories and other textile products",Retail,"Ladies, gents and childrens outfitters, together with the sale of household goods.",www.sdkells.co.uk,2.0,1.0,1.0,15,11,15,YES,NO,NO
RETAIL SHOES LLC,RU,Fédération de Russie,MOSCOW,,4772,Commerce de détail de chaussures et d'articles en cuir en magasin spécialisé,Engaged in the retail trade of footwear and other related products,Retail,Engaged in the retail trade of footwear and other related products [source: Bureau van Dijk],respect-shoes.ru,2.0,1.0,1.0,15,11,15,YES,NO,NO
PAPINI S.R.L.,IT,Italie,CATANIA,CORSO ITALIA 171,4771,Commerce de détail d'habillement en magasin spécialisé,Operates as the exclusive fashion store of luxury brands with a wide selection of haute-couture clothings of international designers,Retail,Operates as the exclusive fashion store of luxury brands with a wide selection of haute-couture clothings of international designers [source: Bureau van Dijk],www.papinistore.com,0.0,0.0,0.0,15,14,15,YES,NO,NO
DAVID-ANDERSEN AS,NO,Norvège,OSLO,POSTBOKS 773  SENTRUM,4777,Commerce de détail d'articles d'horlogerie et de bijouterie en magasin spécialisé,Engaged in the retail sale and marketing of gold and silver wares and related fashion accessories as well as in redesigning fashionable items,Retail,Engaged in the retail sale and marketing of gold and silver wares and related fashion accessories as well as in redesigning fashionable items [source: Bureau van Dijk],www.david-andersen.no,1.0,1.0,0.0,15,13,12,YES,NO,NO
COLELLA GROUP S.R.L.,IT,Italie,NAPOLI,VIA VINCENZO RUIZ ARANGIO 42,4771,Commerce de détail d'habillement en magasin spécialisé,Engaged in the retail sale of clothing in specialised stores,Retail,Engaged in the retail sale of clothing in specialised stores [source: Bureau van Dijk],"lnx.spadaroma.com",1.0,1.0,1.0,15,12,19,YES,NO,NO
ROBERTO JOYERO VIGO SL,ES,Espagne,VIGO,,4777,Commerce de détail d'articles d'horlogerie et de bijouterie en magasin spécialisé,"Primarily engaged in the wholesale and retail sale of jewelry, watches, precious stones, and precious metals",Wholesale; Retail,"Primarily engaged in the wholesale and retail sale of jewelry, watches, precious stones, and precious metals [source: Bureau van Dijk]",www.robertojoyero.com,5.0,3.0,3.0,15,9,11,YES,NO,NO
GARIBALDINA S.R.L.,IT,Italie,RHO,CORSO GIUSEPPE GARIBALDI 23,4772,Commerce de détail de chaussures et d'articles en cuir en magasin spécialisé,Engaged in the retail trade of footwear and other related leather products,Retail,Engaged in the retail trade of footwear and other related leather products [source: Bureau van Dijk],www.garibaldinacalzature.it,2.0,0.0,1.0,14,11,14,YES,NO,NO
MGCGROUP MEGACALZADO IBERICA SL,ES,Espagne,ORKOIEN,,4772,Commerce de détail de chaussures et d'articles en cuir en magasin spécialisé,Engaged in the retail distribution of footwear and related products,Retail,Engaged in the retail distribution of footwear and related products [source: Bureau van Dijk],www.megacalzado.com,1.0,1.0,0.0,14,13,16,YES,NO,NO
CUMINI TRE S.R.L.,IT,Italie,GEMONA DEL FRIULI,VIA SAN DANIELE 3,4771,Commerce de détail d'habillement en magasin spécialisé,Engaged in the sale of clothing and accessories,Retail,Engaged in the sale of clothing and accessories [source: Bureau van Dijk],"www.cumini.it",0.0,1.0,0.0,14,13,15,YES,NO,NO
ELEGANTKA,RU,Fédération de Russie,MOSCOW,,4771,Commerce de détail d'habillement en magasin spécialisé,Engaged in the retail sale of clothing in specialised stores,Retail,"Sale of clothes, footware and accessories",www.fursk.ru,-1.0,0.0,-1.0,14,12,21,YES,YES,
BIG BRAND SOLE SHAREHOLDER CO. LTD,GR,Grèce,RETHYMNO,,4771,Commerce de détail d'habillement en magasin spécialisé,Operates as an online clothing store that caters to all those who love athletic and casual outfits,Retail,"Trade of sportswear, sports shoes and sports goods (also sales via internet)",www.heavenofbrands.com,1.0,0.0,-1.0,14,12,12,YES,NO,NO
BRENTA,RU,Fédération de Russie,MOSCOW,,4771,Commerce de détail d'habillement en magasin spécialisé,Engaged in the marketing and sale of furniture and home furnishings,Wholesale; Retail,Engaged in the marketing and sale of furniture and home furnishings [source: Bureau van Dijk],No Website,1.0,0.0,1.0,14,8,11,YES,NO,NO
ADAMAKOS BROS S.A.,GR,Grèce,PERISTERI,,4771,Commerce de détail d'habillement en magasin spécialisé,Engaged in the wholesale and retail marketing of men's fashion and clothing items,Wholesale; Retail,"Imports and trade of men's wear, shoes and accessories (also via internet). Real Estate lessors",www.adamakos.gr,3.0,1.0,1.0,14,9,15,YES,NO,NO
GLEN,RU,Fédération de Russie,MOSCOW,"UL. KASATKINA D. 3, ET 4 POM4",4771,Commerce de détail d'habillement en magasin spécialisé,Engaged in the operation of a chain of family clothing store,Retail,"Retail sale of clothing (brands Glenfield, Flo&Jo, Braccialini)","www.flo-jo.ru",1.0,1.0,0.0,14,10,21,YES,NO,NO
PROGETTO MODA S.R.L.,IT,Italie,ALTAMURA,PIAZZA ZANARDELLI N. 11,4771,Commerce de détail d'habillement en magasin spécialisé,Engaged in the retail distribution of clothing and accessories,Retail,Engaged in the retail distribution of clothing and accessories [source: Bureau van Dijk],"www.anteprimaextra.com",1.0,1.0,0.0,14,11,11,YES,NO,NO
"UNIFATO - CONFECCOES DO CENTRO, LDA",PT,Portugal,REGUENGO DO FETAL,,4771,Commerce de détail d'habillement en magasin spécialisé,Engaged in the retail sale of clothing,Retail,Engaged in the retail sale of clothing [source: Bureau van Dijk],www.unifato.pt,1.0,0.0,1.0,13,16,28,YES,NO,NO
MARC TENSEN,BE,Belgique,ANTWERPEN,,4777,Commerce de détail d'articles d'horlogerie et de bijouterie en magasin spécialisé,Engaged in the operation of jewelry and watch stores,Retail,Engaged in the operation of jewelry and watch stores [source: Bureau van Dijk],www.tensen.be,2.0,0.0,0.0,13,9,11,YES,NO,NO
LOSCHI SRL,IT,Italie,TREVISO,VIA MARTIRI DELLA LIBERTA' 10,4771,Commerce de détail d'habillement en magasin spécialisé,Operates as a clothing store,Retail,Operates as a clothing store [source: Bureau van Dijk],"loschiboutique.com",1.0,0.0,0.0,13,12,12,YES,NO,NO
YAR,RU,Fédération de Russie,KRASNOYARSK,,4771,Commerce de détail d'habillement en magasin spécialisé,Engaged in the retail sale of clothing in specialised stores,Retail,Engaged in the retail sale of clothing in specialised stores [source: Bureau van Dijk],No Website,2.0,0.0,1.0,13,8,13,YES,NO,NO
GLOBUS CONFEZIONI S.P.A.,IT,Italie,BOLZANO,PIAZZA DEL MUNICIPIO 4/A,4771,Commerce de détail d'habillement en magasin spécialisé,Engaged in the retail trade of clothing and related accessories,Retail,Engaged in the retail trade of clothing and related accessories [source: Bureau van Dijk],"www.globus-mode.it",0.0,-1.0,0.0,13,9,15,YES,NO,YES
LAATUKORU OY,FI,Finlande,HYVINKAA,,4777,Commerce de détail d'articles d'horlogerie et de bijouterie en magasin spécialisé,Engaged in the retail sale of jewelry products and other valuable goods in Finland,Retail,"Yhtion toimialana on kello- ja kultasepanalan kauppa ja valmistustoiminta seka kaikki niihin liittyva toiminta. Yhtio voi harjoittaa kaytettyjen tavaroiden osto-, myynti- ja valitysliiketoimintaa. Yhtio voi myos omistaa ja hallita kiinteistoja seka vuokrata niissa sijaitsevia huoneistoja ulkopuolisille. Lisaksi yhtio voi kayda arvopaperikauppaa ja harjoittaa sijoitustoimintaa. Yhtio voi antaa vakuuksia ja takauksia muiden yhtioiden ja henkiloiden veloista ja vastuista.",www.laatukoru.fi,0.0,0.0,0.0,12,10,9,YES,NO,NO
BIKBOK OY,FI,Finlande,HELSINKI,,4771,Commerce de détail d'habillement en magasin spécialisé,Primarily engaged in the retail sale of clothing and fashion items,Retail,Bolaget ska driva handelsrorelse inom konfektion jamte annan darmed forenlig verksamhet.,www.bikbok.com,-1.0,-3.0,-3.0,13,11,14,YES,YES,
FERNER JACOBSEN AKTIESELSKAP,NO,Norvège,OSLO,,4771,Commerce de détail d'habillement en magasin spécialisé,Engaged in the retail trade of clothing apparels,Retail,Engaged in the retail trade of clothing apparels [source: Bureau van Dijk],No Website,1.0,0.0,1.0,12,10,11,YES,NO,NO
JS GROUP,RU,Fédération de Russie,MOSCOW,"PR-KT VOLGOGRADSKII D. 42, K. 23",4771,Commerce de détail d'habillement en magasin spécialisé,Engaged in selling pantyhose and underwear,Retail,Engaged in selling pantyhose and underwear [source: Bureau van Dijk],"js-company.ru",1.0,1.0,2.0,12,12,19,YES,NO,NO
SARL MAILLOCHON,FR,France,LIMOGES,,4771,Commerce de détail d'habillement en magasin spécialisé,Engaged in the retail of clothing,Retail,Engaged in the retail of clothing [source: Bureau van Dijk],www.imajeans.fr,1.0,0.0,0.0,12,9,11,YES,NO,NO
MANGO HAUSSMANN,FR,France,PARIS,,4771,Commerce de détail d'habillement en magasin spécialisé,"Engaged in the wholesale and retail trade of apparel, accessories and other textile products",Wholesale; Retail,"Engaged in the wholesale and retail trade of apparel, accessories and other textile products [source: Bureau van Dijk]",www.mango.com,1.0,-2.0,1.0,12,9,17,YES,NO,YES
SMART RETAIL EOOD,BG,Bulgarie,SOFIA,,4771,Commerce de détail d'habillement en magasin spécialisé,Engaged in the operation and management of clothing stores,Retail,Engaged in the operation and management of clothing stores [source: Bureau van Dijk],"www.orsay-fashion.bg",0.0,1.0,2.0,12,11,14,YES,NO,NO
RETAIL 2000 S.R.L.,IT,Italie,RHO,VIA ACHILLE GRANDI 2,4771,Commerce de détail d'habillement en magasin spécialisé,Engaged in the operation of a chain of family clothing stores,Retail,Engaged in the operation of a chain of family clothing stores [source: Bureau van Dijk],www.matiasfashionoutlet.com,3.0,3.0,3.0,12,12,16,YES,NO,NO
ROCALE' SRL,IT,Italie,MILANO,VIA BENEDETTO CROCE 9,4772,Commerce de détail de chaussures et d'articles en cuir en magasin spécialisé,Operates as a shoe store,Retail,Operates as a shoe store [source: Bureau van Dijk],www.rocalecalzature.it,0.0,0.0,0.0,12,9,12,YES,NO,NO
ARGO RETAIL SOCIETA' A RESPONSABILITA' LIMITATA,IT,Italie,FIRENZE,VIA ALFONSO LAMARMORA 39,4771,Commerce de détail d'habillement en magasin spécialisé,Engaged in the operation and management of clothing stores,Retail,Engaged in the operation and management of clothing stores [source: Bureau van Dijk],No Website,0.0,-1.0,-2.0,12,5,11,YES,YES,
RONCHI - OREFICERIA OROLOGERIA S.R.L.,IT,Italie,MILANO,VIA MAURIZIO GONZAGA 0005,4777,Commerce de détail d'articles d'horlogerie et de bijouterie en magasin spécialisé,Engaged in the retail distribution of a wide range of watches,Retail,Engaged in the retail distribution of a wide range of watches [source: Bureau van Dijk],www.ronchigioielli.com,2.0,2.0,2.0,12,9,13,YES,NO,NO
"VIEIRA & FRANK - IMPORTACAO E REPRESENTACAO DE CALCADO E CONFECCAO, LDA",PT,Portugal,LISBOA,,4772,Commerce de détail de chaussures et d'articles en cuir en magasin spécialisé,Engaged in the retail sale of clothing products and accessories in Portugal,Retail,Engaged in the retail sale of clothing products and accessories in Portugal [source: Bureau van Dijk],"www.stivali.pt",1.0,1.0,1.0,11,9,12,YES,NO,NO
"MUNDO DOS FATOS - COMERCIO DE VESTUARIO, LDA",PT,Portugal,SANTA MARTA,,4771,Commerce de détail d'habillement en magasin spécialisé,Engaged in the retail trade of clothing apparels,Retail,Engaged in the retail trade of clothing apparels [source: Bureau van Dijk],"www.mundodosfatos.com",1.0,0.0,1.0,11,5,11,YES,NO,NO
GROENHAUG RETAIL AS,NO,Norvège,BERGEN,,4771,Commerce de détail d'habillement en magasin spécialisé,Engaged in the retail sale of family clothing,Retail,Engaged in the retail sale of family clothing [source: Bureau van Dijk],No Website,1.0,0.0,0.0,11,9,12,YES,NO,NO
ABATE & C. S.R.L.,IT,Italie,SANREMO,CORSO IMPERATRICE 3,4777,Commerce de détail d'articles d'horlogerie et de bijouterie en magasin spécialisé,Engaged in the operation of jewelry stores,Wholesale; Retail,Engaged in the operation of jewelry stores [source: Bureau van Dijk],"www.abategioielli.it",2.0,2.0,1.0,11,9,12,YES,NO,NO
DENIS SHOES SRL,RO,Roumanie,SUCEAVA,,4772,Commerce de détail de chaussures et d'articles en cuir en magasin spécialisé,Operates as a shoe store engaged in the retail distribution of shoes,Retail,Operates as a shoe store engaged in the retail distribution of shoes [source: Bureau van Dijk],www.denisshoes.com,1.0,0.0,0.0,11,8,11,YES,NO,NO
RAZZIA SL,ES,Espagne,ARAFO,,4771,Commerce de détail d'habillement en magasin spécialisé,Engaged in the retail sale of apparel,Retail,Engaged in the retail sale of apparel [source: Bureau van Dijk],razzia.es,2.0,0.0,1.0,11,7,13,YES,NO,NO
KUBENZ BERNACIAK SP.K.,PL,Pologne,ELK,,4771,Commerce de détail d'habillement en magasin spécialisé,Operates as a clothing store,Retail,Operates as a clothing store [source: Bureau van Dijk],kubenz.pl,1.0,0.0,3.0,11,9,17,YES,NO,NO
"MODARTE, LDA",PT,Portugal,BRAGA,,4772,Commerce de détail de chaussures et d'articles en cuir en magasin spécialisé,Engaged in the wholesale and retail distribution of travel products in Portugal,Wholesale; Retail,Engaged in the wholesale and retail distribution of travel products in Portugal [source: Bureau van Dijk],www.modarte.pt,0.0,-1.0,1.0,11,9,18,YES,NO,NO
TORELLI SRL,IT,Italie,TREVIGLIO,VIA ROMA 2/4,4777,Commerce de détail d'articles d'horlogerie et de bijouterie en magasin spécialisé,"Involved in the retail distribution of a range of jewelry and other related products; and provision of engraving, personalization, and customization services, as well as jewelry repair services",Retail,"Involved in the retail distribution of a range of jewelry and other related products; and provision of engraving, personalization, and customization services, as well as jewelry repair services [source: Bureau van Dijk]",www.gioiellerietorelli.com,0.0,0.0,0.0,11,8,11,YES,NO,NO
ANNUNZIATA GROUP S.R.L.,IT,Italie,GIOIA TAURO,VIA NAZIONALE 111 294,4771,Commerce de détail d'habillement en magasin spécialisé,Engaged in the retail distribution of clothing and other related products,Retail,Engaged in the retail distribution of clothing and other related products [source: Bureau van Dijk],www.annunziatastore.it,0.0,-1.0,0.0,10,8,11,YES,YES,
CUSI MONTENAPOLEONE S.R.L.,IT,Italie,MILANO,VIA MONTE NAPOLEONE 21/A,4777,Commerce de détail d'articles d'horlogerie et de bijouterie en magasin spécialisé,Engaged in the sale of jewelries,Retail,Engaged in the sale of jewelries [source: Bureau van Dijk],www.cusimontenapoleone.com,1.0,0.0,1.0,10,6,10,YES,NO,NO
NITTIS OU,EE,Estonie,"PEETRI ALEVIK, RAE VALD",,4772,Commerce de détail de chaussures et d'articles en cuir en magasin spécialisé,Engaged in the retail trade of footwear and other related products,Retail,Retail sale of footwear and leather goods in specialised stores,ee.nsking.eu,1.0,-3.0,0.0,10,11,14,YES,NO,YES
DOCKYARD ISLANDS KERESKEDELMI ES SZOLGALTATO KORLATOLT FELELOSSEGU TARSASAG,HU,Hongrie,BUDAPEST,,4771,Commerce de détail d'habillement en magasin spécialisé,"Engaged in the retail sale of apparel, accessories and other textile products",Retail,"Engaged in the retail sale of apparel, accessories and other textile products [source: Bureau van Dijk]","www.dcy.hu",0.0,1.0,0.0,10,9,10,YES,NO,NO
CENTURIOR S.R.L.,IT,Italie,MILANO,CORSO VENEZIA 17,4771,Commerce de détail d'habillement en magasin spécialisé,Engaged in the retail distribution of general merchandise,Retail,Engaged in the retail distribution of general merchandise [source: Bureau van Dijk],www.farfetch.com,0.0,-5.0,0.0,10,8,13,YES,NO,YES
"SANTOS & JUNIORES, S.A.",PT,Portugal,LISBOA,,4772,Commerce de détail de chaussures et d'articles en cuir en magasin spécialisé,Engaged in the retail sale of footwear and leather goods,Retail,Engaged in the retail sale of footwear and leather goods [source: Bureau van Dijk],"www.profonlinestore.com",1.0,0.0,1.0,10,8,10,YES,NO,NO
LINEA S.A.,GR,Grèce,ATHENS,,4771,Commerce de détail d'habillement en magasin spécialisé,Engaged in the retail sale of women's clothing and accessories in Greece,Retail,Exclusive imports and trade of women's wear and accessories,www.lineapiu.gr,4.0,0.0,3.0,10,6,12,YES,NO,NO
MENICHINI MARIO E RENATO - S.P.A.,IT,Italie,ROMA,PIAZZA DI SPAGNA 1,4777,Commerce de détail d'articles d'horlogerie et de bijouterie en magasin spécialisé,Engaged in the retail distribution of jewellery,Retail,Engaged in the retail distribution of jewellery [source: Bureau van Dijk],www.menichinigioiellieri.it,1.0,1.0,0.0,10,9,6,YES,NO,NO
TEODOR OOD,BG,Bulgarie,SOFIA,"ZH.K. STORGOZIA, DO BL. 15",4771,Commerce de détail d'habillement en magasin spécialisé,Engaged in the retail distribution of men's clothing and accessories,Retail,Engaged in the retail distribution of men's clothing and accessories [source: Bureau van Dijk],www.teodor.bg,2.0,0.0,1.0,10,7,9,YES,NO,NO
MORETTO ABBIGLIAMENTO DI MORETTO GRAZIANO - S.R.L.,IT,Italie,CESSALTO,VIA MAGGIORE 193,4771,Commerce de détail d'habillement en magasin spécialisé,Engaged in the retail trade of clothing apparels,Retail,Engaged in the retail trade of clothing apparels [source: Bureau van Dijk],"www.morettoabbigliamento.com",0.0,0.0,0.0,10,8,10,YES,NO,NO
MDL EOOD,BG,Bulgarie,SOFIA,,4771,Commerce de détail d'habillement en magasin spécialisé,Engaged in the retail sale and marketing of clothing and fashion apparel items,Retail,Engaged in the retail sale and marketing of clothing and fashion apparel items [source: Bureau van Dijk],www.mdl.bg,0.0,0.0,0.0,10,8,12,YES,NO,NO
JACOBER,FR,France,LYON,,4777,Commerce de détail d'articles d'horlogerie et de bijouterie en magasin spécialisé,"Engaged in the retail sale of jewelry, watches, precious stones, and precious metals",Retail,"Engaged in the retail sale of jewelry, watches, precious stones, and precious metals [source: Bureau van Dijk]",www.silvana-jacober.ch,1.0,2.0,1.0,10,9,8,YES,NO,NO
BEKLEIDUNGSFABRIK BESSMANN BREITENWORBIS GMBH & CO.KG,DE,Allemagne,BREITENWORBIS,,4771,Commerce de détail d'habillement en magasin spécialisé,Industrial company engaged in the operation and management of a chain of family clothing and accessories stores principally in Germany,Retail,Industrial company engaged in the operation and management of a chain of family clothing and accessories stores principally in Germany [source: Bureau van Dijk],www.bessmann.de,,,,9,11,14,NO,NO,#DIV/0!
VENDRAMINI ABBIGLIAMENTO S.R.L.,IT,Italie,CASTELFRANCO VENETO,GALLERIA EUROPA 25,4771,Commerce de détail d'habillement en magasin spécialisé,Engaged in the retail sale of men's and boys ready-to-wear clothing and accessories,Retail,Engaged in the retail sale of men's and boys ready-to-wear clothing and accessories [source: Bureau van Dijk],"vendraminiabbigliamento.it",2.0,1.0,2.0,10,8,11,YES,NO,NO
PICK & CHOOSE AKTIEBOLAG,SE,Suède,MOLNDAL,,4771,Commerce de détail d'habillement en magasin spécialisé,Engaged in the retail sale of clothing and accessories,Retail,"Bolaget skall bedriva handel med och konsultuppdrg i konfektion,skor och textilier och darmed forenlig verksamhet.",www.pickchoose.se,0.0,0.0,0.0,10,8,8,YES,YES,
"SPORTINO, LDA",PT,Portugal,BOMBARRAL,,4772,Commerce de détail de chaussures et d'articles en cuir en magasin spécialisé,Engaged in the retail of shoes,Retail,Engaged in the retail of shoes [source: Bureau van Dijk],www.sportino.pt,1.0,0.0,1.0,10,9,11,YES,NO,NO
LUISA,BE,Belgique,BRUXELLES,LOUIZALAAN 75,4771,Commerce de détail d'habillement en magasin spécialisé,Engaged in the retail trade of fashion accessories and related products,Retail,Engaged in the retail trade of fashion accessories and related products [source: Bureau van Dijk],www.luisa.be,0.0,0.0,0.0,10,8,11,YES,YES,
ROSSINI 1882 S.P.A.,IT,Italie,ROMA,VIA DI VILLA EMILIANI 48,4777,Commerce de détail d'articles d'horlogerie et de bijouterie en magasin spécialisé,"Engaged in the retail sale of jewelry, watches, precious stones, and precious metals",Retail,"Engaged in the retail sale of jewelry, watches, precious stones, and precious metals [source: Bureau van Dijk]",www.rossini-spa.it,1.0,0.0,1.0,10,7,8,YES,NO,NO
ROMA SERVICES,BE,Belgique,GRACE-BERLEUR,,4772,Commerce de détail de chaussures et d'articles en cuir en magasin spécialisé,Engaged in the retail trade of footwear and other related products,Retail,Engaged in the retail trade of footwear and other related products [source: Bureau van Dijk],"www.romatransport.net.au",0.0,0.0,0.0,10,8,10,YES,YES,
NITTIS SIA,LV,Lettonie,ROPAZU NOV.,BRIVIBAS GATVE 372,4772,Commerce de détail de chaussures et d'articles en cuir en magasin spécialisé,Engaged in the retail distribution of footwear,Retail,Retail trade of footwear.,lv.nsking.eu,1.0,0.0,0.0,9,8,9,YES,NO,NO
J F JOHANSSON SKOR AKTIEBOLAG,SE,Suède,VASTRA FROLUNDA,,4772,Commerce de détail de chaussures et d'articles en cuir en magasin spécialisé,Engaged in the retail sale and marketing of footwear products and leather goods,Retail,Bolaget ska driva skohandelsrorelse jamte darmed forenligverksamhet.,"johanssons.se",0.0,-1.0,0.0,9,8,11,YES,YES,
MATRANGA S.R.L.,IT,Italie,PALERMO,VIA RUGGIERO SETTIMO 56/56 A,4777,Commerce de détail d'articles d'horlogerie et de bijouterie en magasin spécialisé,"Engaged in the retail sale of jewelry, watches, precious stones, and precious metals",Retail,"Engaged in the retail sale of jewelry, watches, precious stones, and precious metals [source: Bureau van Dijk]",www.matranga.it,1.0,1.0,0.0,9,9,9,YES,NO,NO
VERONESI GIULIO S.R.L.,IT,Italie,BOLOGNA,PIAZZA ENZO RE 1/H,4777,Commerce de détail d'articles d'horlogerie et de bijouterie en magasin spécialisé,Engaged in the manufacture and retail distribution of jewelry,Manufacturing; Retail,Engaged in the manufacture and retail distribution of jewelry [source: Bureau van Dijk],www.giulioveronesi.it,1.0,0.0,1.0,9,7,8,YES,NO,NO
FERDINANDO VERONESI & FIGLI - S.R.L.,IT,Italie,BOLOGNA,PIAZZA MAGGIORE 4/A,4777,Commerce de détail d'articles d'horlogerie et de bijouterie en magasin spécialisé,Engaged in the retail distribution of jewellery,Retail,Engaged in the retail distribution of jewellery [source: Bureau van Dijk],"ferdinandoveronesi.com",2.0,1.0,2.0,9,6,7,YES,NO,NO
PALLAGROSI SHOES S.R.L.,IT,Italie,ROMA,VIA FONTANA DELL'OSTE 78/C,4772,Commerce de détail de chaussures et d'articles en cuir en magasin spécialisé,"Engaged in the retail of high quality, fashionable footwear for men, women and kids",Retail,"Engaged in the retail of high quality, fashionable footwear for men, women and kids [source: Bureau van Dijk]",www.gullivermoda.com,1.0,0.0,1.0,9,7,9,YES,NO,NO
LO SCRIGNO S.R.L.,IT,Italie,OSTUNI,VIALE POLA 32,4777,Commerce de détail d'articles d'horlogerie et de bijouterie en magasin spécialisé,Engaged in the management and operation of jewelry stores,Retail,Engaged in the management and operation of jewelry stores [source: Bureau van Dijk],"www.gioiellerialoscrigno.it",1.0,1.0,1.0,9,8,9,YES,NO,NO
DELIBERTI G.2 S.R.L.,IT,Italie,NAPOLI,VIA JOHN FITZGERALD KENNEDY 5,4772,Commerce de détail de chaussures et d'articles en cuir en magasin spécialisé,Engaged in the retail trade and marketing of shoes and footwear products as well as leather items,Retail,Engaged in the retail trade and marketing of shoes and footwear products as well as leather items [source: Bureau van Dijk],"www.deliberti.it",0.0,0.0,0.0,9,6,7,YES,NO,NO
GALERIAS WEHBE SL,ES,Espagne,SAN CRISTOBAL DE LA LAGUNA,,4771,Commerce de détail d'habillement en magasin spécialisé,"Operates as a clothing store engaged in the retail distribution of a general line of new clothing for men, women, and children",Retail,"Operates as a clothing store engaged in the retail distribution of a general line of new clothing for men, women, and children [source: Bureau van Dijk]",www.wehbeonline.com,-1.0,-3.0,-3.0,9,8,16,YES,YES,
BRANDO KIDS AS,NO,Norvège,TRONDHEIM,POSTBOKS 4074 BAKKLANDET,4771,Commerce de détail d'habillement en magasin spécialisé,"Engaged in the retail distribution of knitted and crocheted apparel for men, women, and children",Retail,"Engaged in the retail distribution of knitted and crocheted apparel for men, women, and children [source: Bureau van Dijk]",brandokids.com.au,0.0,0.0,0.0,9,8,10,YES,NO,NO
BENICOM S.R.L.,IT,Italie,ERBA,VIALE PREALPI 20,4772,Commerce de détail de chaussures et d'articles en cuir en magasin spécialisé,Engaged in the retail sale of apparel products,Retail,Engaged in the retail sale of apparel products [source: Bureau van Dijk],www.taurussport.com,2.0,1.0,0.0,9,6,8,YES,NO,NO
GUCAMASI SA,ES,Espagne,PONTEVEDRA,,4771,Commerce de détail d'habillement en magasin spécialisé,"Operates as a clothing store engaged in the retail distribution of a general line of new clothing and a range of accessories for men, women, and children",Retail,"Operates as a clothing store engaged in the retail distribution of a general line of new clothing and a range of accessories for men, women, and children [source: Bureau van Dijk]",No Website,1.0,0.0,1.0,9,8,13,YES,NO,NO
VEGAS S.R.L.,IT,Italie,TERRICCIOLA,VIA SALAIOLA 35/37,4771,Commerce de détail d'habillement en magasin spécialisé,Engaged in the retail distribution of knitted and crocheted apparel,Retail,Engaged in the retail distribution of knitted and crocheted apparel [source: Bureau van Dijk],"www.manginimagazzini.it",0.0,0.0,0.0,9,6,7,YES,NO,NO
LE NOIR S.R.L.,IT,Italie,CONEGLIANO,VIA CAMILLO BENSO CONTE DI CAVOUR 4/C,4771,Commerce de détail d'habillement en magasin spécialisé,Engaged in the retail distribution of knitted and crocheted apparel,Retail,Engaged in the retail distribution of knitted and crocheted apparel [source: Bureau van Dijk],www.lenoirboutique.it,0.0,0.0,0.0,8,7,8,YES,NO,YES
ERRANI S.R.L.,IT,Italie,FAENZA,VIA EVANGELISTA TORRICELLI 25,4777,Commerce de détail d'articles d'horlogerie et de bijouterie en magasin spécialisé,Engaged in the retail distribution of watches and jewelry,Retail,Engaged in the retail distribution of watches and jewelry [source: Bureau van Dijk],"www.gioielleriaerrani.it",3.0,1.0,0.0,8,7,4,YES,NO,NO
MANGANARO RAFFAELE & C. - S.R.L.,IT,Italie,CATANIA,VIALE VITTORIO VENETO 287,4771,Commerce de détail d'habillement en magasin spécialisé,Engaged in the sale of motorcycle and motorcycle parts and supplies,Retail; Services,Engaged in the sale of motorcycle and motorcycle parts and supplies [source: Bureau van Dijk],www.manganaro.it,0.0,0.0,0.0,8,5,6,YES,NO,NO
GONZATO S.R.L.,IT,Italie,COLOGNOLA AI COLLI,VIA STRA' 166,4772,Commerce de détail de chaussures et d'articles en cuir en magasin spécialisé,Engaged in the retail sale and marketing of footwear and clothing,Retail,Engaged in the retail sale and marketing of footwear and clothing [source: Bureau van Dijk],"www.gonzatostyle.it",1.0,0.0,1.0,8,7,8,YES,NO,NO
EMPORIO COM SRL,RO,Roumanie,CONSTANTA,,4771,Commerce de détail d'habillement en magasin spécialisé,Engaged in the retail sale of clothing products,Retail,Engaged in the retail sale of clothing products [source: Bureau van Dijk],No Website,0.0,0.0,0.0,8,7,16,YES,NO,NO
JARL SANDIN & SONER GULD OCH SILVER AKTIEBOLAG,SE,Suède,GOTEBORG,,4777,Commerce de détail d'articles d'horlogerie et de bijouterie en magasin spécialisé,Engaged in the retail sale of jewelry and related articles,Retail,Bolaget skall bedriva detaljhandel med adelmetaller och darmedforenlig verksamhet.,www.jarlsandin.se,0.0,0.0,0.0,8,6,7,YES,NO,NO
MINIPRIX SRL,RO,Roumanie,ORAS OTOPENI,,4771,Commerce de détail d'habillement en magasin spécialisé,Engaged in the retail distribution of ready-made clothing,Retail,Engaged in the retail distribution of ready-made clothing [source: Bureau van Dijk],www.miniprix.ro,1.0,0.0,0.0,8,7,12,YES,NO,NO
"BOM CALCADO, S.A.",PT,Portugal,LEIRIA,,4772,Commerce de détail de chaussures et d'articles en cuir en magasin spécialisé,Engaged in the retail sale of footwear,Retail,Engaged in the retail sale of footwear [source: Bureau van Dijk],"www.stara.pt",0.0,-1.0,-1.0,8,8,12,YES,YES,
MAP PRESTIGIACOMO MODE - S.R.L.,IT,Italie,TRAPANI,VIA ANTONINO TURRETTA 3,4771,Commerce de détail d'habillement en magasin spécialisé,Engaged in the retail of clothing products and accessories,Retail,Engaged in the retail of clothing products and accessories [source: Bureau van Dijk],"www.idressmap.com",0.0,-4.0,0.0,8,7,10,YES,NO,YES
GIOIELLI DI MENICHELLI FRANCO & C. SRL,IT,Italie,VITERBO,PIAZZA GIUSEPPE VERDI 22,4777,Commerce de détail d'articles d'horlogerie et de bijouterie en magasin spécialisé,Engaged in the sale of jewelry or precious stones,Retail,Engaged in the sale of jewelry or precious stones [source: Bureau van Dijk],www.menichelli1912.it,1.0,1.0,1.0,8,6,7,YES,NO,NO
E-SPACE S.R.L.,IT,Italie,UDINE,VIALE TRICESIMO 187,4771,Commerce de détail d'habillement en magasin spécialisé,Engaged in the retail sale of clothing in specialised stores,Retail,Engaged in the retail sale of clothing in specialised stores [source: Bureau van Dijk],"www.e-space.it",1.0,-1.0,0.0,8,5,8,YES,NO,NO
WUNDERWEAR A/S,DK,Danemark,KGSLYNGBY,,4771,Commerce de détail d'habillement en magasin spécialisé,Engaged in the retail sale of clothing in specialized stores,Retail,Engaged in the retail sale of clothing in specialized stores [source: Bureau van Dijk],www.wunderwear.dk,1.0,0.0,0.0,8,6,9,YES,NO,NO
"PASSO, A.S.",SK,Slovaquie,BRATISLAVA,,4777,Commerce de détail d'articles d'horlogerie et de bijouterie en magasin spécialisé,"Retail sale of jewelry, watches, precious stones, and precious metals",Retail,"Retail sale of jewelry, watches, precious stones, and precious metals [source: Bureau van Dijk]",www.sheron.sk,2.0,1.0,1.0,8,7,7,YES,NO,NO
SCOPAGIOIELLI S.R.L.,IT,Italie,ROVIGO,PIAZZA VITTORIO EMANUELE II 19,4777,Commerce de détail d'articles d'horlogerie et de bijouterie en magasin spécialisé,"Engaged in the retail distribution of a range of jewelry and other related products; and provision of engraving, personalization, and customization services, as well as jewelry repair services",Retail; Services,"Engaged in the retail distribution of a range of jewelry and other related products; and provision of engraving, personalization, and customization services, as well as jewelry repair services [source: Bureau van Dijk]","www.scopagioielli.com",1.0,0.0,0.0,8,5,5,YES,NO,NO
OLD ENGLAND S.R.L.,IT,Italie,MIRANO,VIA GUGLIELMO MARCONI 21,4771,Commerce de détail d'habillement en magasin spécialisé,Engaged in the retail sale of apparel,Retail,Engaged in the retail sale of apparel [source: Bureau van Dijk],www.xetraitalia.it,0.0,0.0,0.0,8,6,11,YES,NO,YES
MAT - STAR BG EOOD,BG,Bulgarie,MIROVYANE,,4772,Commerce de détail de chaussures et d'articles en cuir en magasin spécialisé,Engaged in the retail sale of footwear,Retail,Engaged in the retail sale of footwear [source: Bureau van Dijk],www.matstar.bg,2.0,1.0,1.0,7,6,8,YES,NO,NO
PASS COMPANY S.R.L. (CON SIGLA: PASS S.R.L. ),IT,Italie,MONTAGNANA,VIA DELL'INDUSTRIA 1/2,4771,Commerce de détail d'habillement en magasin spécialisé,Engaged in the operation and management of a family clothing store,Retail,Engaged in the operation and management of a family clothing store [source: Bureau van Dijk],www.galantemontagnana.it,0.0,0.0,0.0,7,6,7,YES,NO,YES
UNO-NK,ME,Monténégro,NIKSIC,,4772,Commerce de détail de chaussures et d'articles en cuir en magasin spécialisé,"Engaged in the operation of a chain of shoe stores; Involved in the retail trade of footwear for men, women and children",Retail,Retail sale of footwear and leather goods in specialised stores,No Website,1.0,0.0,0.0,7,7,9,YES,NO,NO
OTTODISANPIETRO SA,ES,Espagne,A CORUNA,,4771,Commerce de détail d'habillement en magasin spécialisé,Engaged in the retail sale of clothing and accessories in Spain,Retail,Engaged in the retail sale of clothing and accessories in Spain [source: Bureau van Dijk],www.ottodisanpietro.com,1.0,1.0,0.0,7,7,7,YES,NO,NO
GULBA TEKSTIL INSAAT MADEN TURIZM GIDA REKLAM SANAYI VE TICARET ANONIM SIRKETI,TR,Turquie,MERKEZ,,4771,Commerce de détail d'habillement en magasin spécialisé,Engaged in the retail sale of outerwear and other related products,Retail,Subject is involved in retail trade of outerwear.,www.kasaba.com.tr,0.0,0.0,0.0,7,8,14,YES,NO,NO
SOCIETE NANTAISE DE BIJOUTERIE,FR,France,NANTES,BP 1231,4777,Commerce de détail d'articles d'horlogerie et de bijouterie en magasin spécialisé,"Primarily engaged in the retail sale of jewelry, watches, precious stones, and precious metals",Retail,"Primarily engaged in the retail sale of jewelry, watches, precious stones, and precious metals [source: Bureau van Dijk]",No Website,1.0,0.0,0.0,7,6,6,YES,NO,NO
MOVEM & CO,RS,Serbie,BEOGRAD (NOVI BEOGRAD),,4771,Commerce de détail d'habillement en magasin spécialisé,Engaged in the retail distribution of clothing for men and women,Retail,Retail sale of clothing in specialised stores,www.movem.rs,1.0,0.0,0.0,7,5,5,YES,NO,NO
S.C.A.R.ING.I. S.R.L.,IT,Italie,MISTERBIANCO,VIA CARLO MARX 174,4771,Commerce de détail d'habillement en magasin spécialisé,Engaged in the operation and management of clothing stores,Retail,Engaged in the operation and management of clothing stores [source: Bureau van Dijk],www.scaringi.it,0.0,0.0,0.0,7,6,9,YES,NO,NO
VIKTORIYA,RU,Fédération de Russie,MOSCOW,"PROEZD KHLEBOZAVODSKII D. 7, STR. 9, E/POM/K/OF 8/XV/10A/10",4771,Commerce de détail d'habillement en magasin spécialisé,"Engaged in the retail of clothing products and accessories, specialising in fur products",Retail,"Engaged in the retail of clothing products and accessories, specialising in fur products [source: Bureau van Dijk]",alefmex.ru,0.0,0.0,0.0,7,6,13,YES,NO,NO
ASKELAND AS,NO,Norvège,STAVANGER,,4777,Commerce de détail d'articles d'horlogerie et de bijouterie en magasin spécialisé,Engaged in the manufacture and sale of watches,Manufacturing; Retail; Services,Engaged in the manufacture and sale of watches [source: Bureau van Dijk],www.askeland.no,1.0,0.0,0.0,7,6,6,YES,NO,NO
KL MOBERG SKOTOEYFORRETNING AS,NO,Norvège,PARADIS,POSTBOKS 6083,4772,Commerce de détail de chaussures et d'articles en cuir en magasin spécialisé,"Engaged in the operation of a chain of shoe stores; Involved in the retail trade of footwear for men, women and children",Retail,"Engaged in the operation of a chain of shoe stores; Involved in the retail trade of footwear for men, women and children [source: Bureau van Dijk]",No Website,1.0,0.0,0.0,7,5,7,YES,NO,NO
NAHKAPAIKKA OY TOIVONEN,FI,Finlande,TUURI,,4772,Commerce de détail de chaussures et d'articles en cuir en magasin spécialisé,Engaged in the retail distribution of footwear and leather goods,Retail,"Yhtion toimialana on nahka-alan tuotteiden ja tarvikkeiden, laukkujen ja kenkien, seka pukeutumisen vahittais- ja tukkukauppa, seka maahantuonti. Yhtio voi omistaa arvopapereita, osakkeita ja kiinteistoja, seka kayda niilla kauppaa.",www.nahkapaikka.fi,1.0,1.0,1.0,7,7,9,YES,NO,NO
SAJLILA KUNDLANI SL,ES,Espagne,SAN BARTOLOME DE TIRAJANA,,4771,Commerce de détail d'habillement en magasin spécialisé,"Engaged in the retail sale of apparel, accessories and other textile products",Retail,"Engaged in the retail sale of apparel, accessories and other textile products [source: Bureau van Dijk]",www.mosfashion.es,1.0,0.0,1.0,7,4,9,YES,NO,NO
AKCAN TOPTAN VE PERAKENDE EV TEKSTILI TUHAFIYE YUN IPLIK ITHALAT IHRACAT SANAYI VE TICARET,TR,Turquie,MAMAK,,4771,Commerce de détail d'habillement en magasin spécialisé,Engaged in the retail trade of clothing apparels,Retail,"Subject is involved in wholesale and retail trade of home textile and haberdashery products such as wool & yarn, duvet cover sets, blankets, sleeping sets, quilts, pillow, socks, underwear, bathrobes, pyjamas, buttons, etc.",www.akcan.com.tr,1.0,1.0,1.0,7,8,11,YES,NO,NO
EMPORIO GIGLIO CALZATURE ED ABBIGLIAMENTO SOCIETA' A RESPONSABIL TA' LIMITATA S.R.L. IN SIGLA EMPORIO GIGLIO S.R.L.,IT,Italie,COSENZA,PIAZZA PRIMO MAGGIO 11/12,4772,Commerce de détail de chaussures et d'articles en cuir en magasin spécialisé,Engaged in the operation and management of shoe stores,Retail,Engaged in the operation and management of shoe stores [source: Bureau van Dijk],www.giglioluxury.com,0.0,0.0,0.0,7,6,7,YES,NO,NO
PUNTO SCARPE S.R.L.,IT,Italie,SONA,VIA DEL COMMERCIO 1,4772,Commerce de détail de chaussures et d'articles en cuir en magasin spécialisé,Engaged in the retail distribution of footwear products and accessories,Retail,Engaged in the retail distribution of footwear products and accessories [source: Bureau van Dijk],www.puntoscarperovato.com,1.0,1.0,1.0,7,5,6,YES,NO,NO
VENDRELL JOYERO SL,ES,Espagne,BARCELONA,,4777,Commerce de détail d'articles d'horlogerie et de bijouterie en magasin spécialisé,"Engaged in the buying, selling and distribution of all kinds of jewelry and watches",Retail,"Engaged in the buying, selling and distribution of all kinds of jewelry and watches [source: Bureau van Dijk]",www.unionsuiza.com,1.0,0.0,0.0,7,6,7,YES,NO,NO
VESTIRE RAMONDA S.R.L.,IT,Italie,SAN DONA DI PIAVE,VIA EZIO VANONI 8,4771,Commerce de détail d'habillement en magasin spécialisé,Industrial company engaged in the operation and management of a chain of family clothing and accessories stores principally in Italy,Retail,Industrial company engaged in the operation and management of a chain of family clothing and accessories stores principally in Italy [source: Bureau van Dijk],www.sorelleramonda.com,0.0,0.0,0.0,7,5,7,YES,NO,YES
META SP. Z O.O. SP.K.,PL,Pologne,OLSZANY,,4772,Commerce de détail de chaussures et d'articles en cuir en magasin spécialisé,Engaged in the retail sale of footwear and leather goods,Retail,Engaged in the retail sale of footwear and leather goods [source: Bureau van Dijk],www.meta.com.pl,0.0,0.0,0.0,6,6,8,YES,NO,NO
MICHAEL SANDSTROM AKTIEBOLAG,SE,Suède,VIMMERBY,STORA TORGET 4,4771,Commerce de détail d'habillement en magasin spécialisé,Engaged in the retail trade of clothing apparels,Retail,Bolaget skall bedriva herr- och damkonfektionsrorelse jamtedarmed forenlig verksamhet.,www.michaelsandstrom.se,0.0,0.0,0.0,6,7,10,YES,NO,NO
FATTORI EUR SRL,IT,Italie,ROMA,VIALE EUROPA 83,4777,Commerce de détail d'articles d'horlogerie et de bijouterie en magasin spécialisé,"Engaged in the retail distribution of a range of jewelry and other related products; and provision of engraving, personalization, and customization services, as well as jewelry repair services",Retail; Services,"Engaged in the retail distribution of a range of jewelry and other related products; and provision of engraving, personalization, and customization services, as well as jewelry repair services [source: Bureau van Dijk]",www.fattorieur.it,0.0,0.0,0.0,6,5,9,YES,NO,NO
L.A. RETAIL SOCIETA' A RESPONSABILITA' LIMITATA,IT,Italie,VIAREGGIO,VIA ANTONIO FRATTI 250,4771,Commerce de détail d'habillement en magasin spécialisé,Engaged in the retail sale of a range of clothing and footwear products,Retail,Engaged in the retail sale of a range of clothing and footwear products [source: Bureau van Dijk],"mail.talamoni.net",0.0,0.0,0.0,6,5,7,YES,NO,NO
BIDON S.R.L.,IT,Italie,FOSSALTA DI PORTOGRUARO,VIA ENRICO FERMI,4772,Commerce de détail de chaussures et d'articles en cuir en magasin spécialisé,"Engaged in the retail of all types of footwear, accessories and leather goods",Retail,"Engaged in the retail of all types of footwear, accessories and leather goods [source: Bureau van Dijk]","eng.bidon1938.com",0.0,-1.0,0.0,6,6,8,YES,YES,
TRITON,RU,Fédération de Russie,YAKUTSK,UL. LERMONTOVA D. 25,4777,Commerce de détail d'articles d'horlogerie et de bijouterie en magasin spécialisé,Operates as other miscellaneous store retailer,Retail,Operates as other miscellaneous store retailer [source: Bureau van Dijk],www.triton.ru,1.0,1.0,1.0,6,6,8,YES,NO,NO
VALENTI MULTISTORE S.R.L.,IT,Italie,ROGNO,VIA SANTA RITA DA CASCIA 5,4771,Commerce de détail d'habillement en magasin spécialisé,"Engaged in the wholesale and retail distribution of a general line of new clothing for men, women, and children",Wholesale; Retail,"Engaged in the wholesale and retail distribution of a general line of new clothing for men, women, and children [source: Bureau van Dijk]",www.tankfashion.com,1.0,0.0,0.0,6,4,6,YES,NO,NO
TEBRO SRL,IT,Italie,ROMA,VIA DEI PREFETTI 46,4771,Commerce de détail d'habillement en magasin spécialisé,Engaged in retail trade of articles of knitwear for men and women and household linen,Retail,Engaged in retail trade of articles of knitwear for men and women and household linen [source: Bureau van Dijk],"www.tebro.it",0.0,0.0,0.0,6,5,6,YES,NO,NO
MULLBECK AB,SE,Suède,GOTEBORG,,4771,Commerce de détail d'habillement en magasin spécialisé,Engaged in the retail distribution of knitted and crocheted apparel,Retail,"Bolaget skall bedriva forsaljning av klader, vaskor och stovlaravensom idka darmed forenlig verksamhet.",www.mullbeck.se,0.0,-1.0,0.0,6,7,8,YES,YES,
UNION MAGAZZINI MODA - S.R.L.,IT,Italie,TERRANUOVA BRACCIOLINI,VIA POGGILUPI 420,4771,Commerce de détail d'habillement en magasin spécialisé,Engaged in the operation of a chain of family clothing stores,Retail,Engaged in the operation of a chain of family clothing stores [source: Bureau van Dijk],www.porcellottimoda.com,0.0,0.0,0.0,6,4,7,YES,NO,NO
OESTFOLD MOTE AS,NO,Norvège,TOENSBERG,SJOEVEIEN 6,4771,Commerce de détail d'habillement en magasin spécialisé,Operates as a clothing and apparel store,Retail,Operates as a clothing and apparel store [source: Bureau van Dijk],No Website,1.0,1.0,1.0,6,5,5,YES,NO,NO
ANTINASU & RATSULA OY,FI,Finlande,PORI,,4771,Commerce de détail d'habillement en magasin spécialisé,"Operates as a clothing store engaged in the retail distribution of a general line of new clothing for men, women, and children",Retail,"Yhtion toimialana on tekstiili- ja nahkatuotteiden, kosmetiikan ja jalkineiden seka lahja- ja sisutustavaroiden tukku- ja vahittaiskauppa, tuonti ja vienti, alan kauppapalvelut, kahvilatoiminta seka kiinteistojen, asunto- ja liikehuoneistojen seka toimialaan liittyvan irtaimen omaisuuden seka erilaisen kuljetuskaluston kauppa ja vuokraustoiminta seka arvopaperikauppa.",www.ratsula.fi,0.0,0.0,-1.0,6,6,8,YES,NO,YES
TIMMERMANS,BE,Belgique,BELSELE,,4772,Commerce de détail de chaussures et d'articles en cuir en magasin spécialisé,Engaged in the retail sale of footwear and leather goods,Retail,Engaged in the retail sale of footwear and leather goods [source: Bureau van Dijk],www.timmermans.be,0.0,-1.0,-1.0,6,5,7,YES,YES,
POLARIS - S.R.L.,IT,Italie,PORTO SAN GIORGIO,VIA ENRICO MEDI 6,4772,Commerce de détail de chaussures et d'articles en cuir en magasin spécialisé,"Engaged in the retail trade of shoes, clothes and jewelry",Retail,"Engaged in the retail trade of shoes, clothes and jewelry [source: Bureau van Dijk]",No Website,0.0,-1.0,0.0,6,5,8,YES,NO,YES
CHARGET S.R.L.,IT,Italie,SAN GIULIANO TERME,VIA GIOSUE' CARDUCCI 64/A,4771,Commerce de détail d'habillement en magasin spécialisé,Engaged in the operation and management of clothing stores,Retail,Engaged in the operation and management of clothing stores [source: Bureau van Dijk],www.charget.it,0.0,0.0,0.0,6,6,12,YES,NO,NO
LA VESTI BENE S.R.L.,IT,Italie,SOLESINO,VIA NAZIONALE 1269 INT.2,4771,Commerce de détail d'habillement en magasin spécialisé,"Engaged in the retail distribution of a general line of new clothing for men, women, and children",Retail,"Engaged in the retail distribution of a general line of new clothing for men, women, and children [source: Bureau van Dijk]",www.lavestibene.it,0.0,0.0,0.0,6,4,7,YES,NO,NO
SQUALO S.R.L.,IT,Italie,MILANO,VIA ALFREDO CAPPELLINI 23,4771,Commerce de détail d'habillement en magasin spécialisé,Engaged in the retail distribution of men's and women's clothing and furnishings,Retail,Engaged in the retail distribution of men's and women's clothing and furnishings [source: Bureau van Dijk],www.furla.com,0.0,0.0,1.0,6,5,6,YES,NO,NO
VM S.R.L.,IT,Italie,FOSSALTA DI PORTOGRUARO,VIA IPPOLITO NIEVO 24,4771,Commerce de détail d'habillement en magasin spécialisé,"Operates as a clothing store engaged in the retail distribution of a general line of new clothing for men, women, and children",Retail,"Operates as a clothing store engaged in the retail distribution of a general line of new clothing for men, women, and children [source: Bureau van Dijk]","www.magazzinivoltolina.com",0.0,0.0,1.0,6,5,7,YES,NO,NO
FRISCO INTERNATIONAL CLOTHING SA,ES,Espagne,MALAGA,,4771,Commerce de détail d'habillement en magasin spécialisé,Engaged in the retail sale of clothing products in Spain,Retail,Engaged in the retail sale of clothing products in Spain [source: Bureau van Dijk],"www.fcandcompany.com",0.0,-1.0,0.0,6,4,7,YES,YES,
"CASA DAS PELES - CONFECCOES, S.A.",PT,Portugal,LISBOA,,4771,Commerce de détail d'habillement en magasin spécialisé,Engaged in the management and operation of family clothing stores,Retail,Engaged in the management and operation of family clothing stores [source: Bureau van Dijk],www.casadaspeles.pt,0.0,0.0,2.0,6,5,10,YES,NO,NO
LAHDEN KELLOKESKUS OY,FI,Finlande,LAHTI,PL 222,4777,Commerce de détail d'articles d'horlogerie et de bijouterie en magasin spécialisé,"Engaged in the retail sale of jewelry, watches, precious stones, and precious metals",Retail,"Yhtion toimialana on kello- ja kulta-alaan kuuluvien tuotteiden tukku- ja vahittaiskauppa seka alan huolto- ja korjaustoiminta. Edelleen yhtion toimialana on koti- ja ulkomaisten kiinteistojen, asunto-, kiinteisto-, loma- ja arvopaperiosakkeiden, osuuksien ja oikeuksien omistaminen, hallinnointi, osto, myynti ja vuokraus.","www.timanttiset.fi",0.0,0.0,0.0,6,5,4,YES,NO,NO
PROIEZIONE SRL,IT,Italie,MILANO,VIA ALESSANDRO MANZONI 44,4771,Commerce de détail d'habillement en magasin spécialisé,Engaged in the retail sale of specialized lines of apparel and accessories,Retail,Engaged in the retail sale of specialized lines of apparel and accessories [source: Bureau van Dijk],"www.dmagazine.it",0.0,0.0,0.0,6,4,8,YES,NO,NO
NITTA GIOIELLI S.R.L.,IT,Italie,UDINE,VIA RIALTO 19,4777,Commerce de détail d'articles d'horlogerie et de bijouterie en magasin spécialisé,Engaged in the operation of department stores,Retail,Engaged in the operation of department stores [source: Bureau van Dijk],"nittagioielli.com",0.0,0.0,0.0,6,4,5,YES,NO,NO
F.G. FECAROTTA GIOIELLI S.R.L.,IT,Italie,PALERMO,VIA RUGGIERO SETTIMO 68,4777,Commerce de détail d'articles d'horlogerie et de bijouterie en magasin spécialisé,Engaged in the retail trade of colored gemstones and studded jewelry,Retail,Engaged in the retail trade of colored gemstones and studded jewelry [source: Bureau van Dijk],"www.fecarotta.com",1.0,0.0,0.0,6,5,5,YES,NO,NO
MININ S.R.L.,IT,Italie,PORPETTO,VIA UDINE 107,4771,Commerce de détail d'habillement en magasin spécialisé,Engaged in the retail of clothing and accessories and other related products,Retail,Engaged in the retail of clothing and accessories and other related products [source: Bureau van Dijk],www.minin.it,0.0,0.0,0.0,5,4,6,YES,NO,YES
TORREGROSSA SOCIETA' A RESPONSABILITA' LIMITATA,IT,Italie,PALERMO,VIA DELLA LIBERTA' 3/5,4771,Commerce de détail d'habillement en magasin spécialisé,Engaged in the management and operation of clothing stores,Retail,Engaged in the management and operation of clothing stores [source: Bureau van Dijk],"www.torregrossaboutique.com",1.0,0.0,0.0,5,5,5,YES,NO,NO
SANDVIK SKO AS,NO,Norvège,GAUPNE,,4772,Commerce de détail de chaussures et d'articles en cuir en magasin spécialisé,Engaged in the management and operation of shoe stores,Retail,Engaged in the management and operation of shoe stores [source: Bureau van Dijk],No Website,0.0,0.0,0.0,5,4,5,YES,NO,NO
KARI AUKIA OY,FI,Finlande,VAASA,,4771,Commerce de détail d'habillement en magasin spécialisé,Engaged in the retail sale of clothing,Retail,"Yhtion toimialana on vaatteiden ja tekstiilien vahittaiskauppa. Yhtio voi myos ostaa, myyda, vuokrata ja hallita kiinteistoja ja osakehuoneistoja seka harjoittaa arvopaperikauppaa.",www.aukia.fi,0.0,0.0,0.0,6,5,8,YES,NO,YES
"FATIMA MENDES, S.A.",PT,Portugal,GUIMARAES,,4771,Commerce de détail d'habillement en magasin spécialisé,Operates as a family clothing store,Retail,Operates as a family clothing store [source: Bureau van Dijk],www.fatimamendes.com,0.0,0.0,0.0,5,5,5,YES,NO,NO
BRAVI S.P.A.,IT,Italie,CONEGLIANO,VIA ALESSANDRO VOLTA 16,4771,Commerce de détail d'habillement en magasin spécialisé,Engaged in the retail trade of garments for adults in Italy,Retail,Engaged in the retail trade of garments for adults in Italy [source: Bureau van Dijk],"www.bravispa.it",0.0,0.0,0.0,5,4,6,YES,NO,NO
FALETTI MULTISTORE S.R.L.,IT,Italie,DARFO BOARIO TERME,CORSO ROBERTO ENEA LEPETIT 15,4771,Commerce de détail d'habillement en magasin spécialisé,Engaged in the retail trade of clothing apparels,Retail,Engaged in the retail trade of clothing apparels [source: Bureau van Dijk],www.falettimultistore.it,0.0,0.0,0.0,5,4,5,YES,NO,YES
MAZZUCCHELLI CALZATURE SRL,IT,Italie,BESNATE,VIA TOMASETTO 2,4772,Commerce de détail de chaussures et d'articles en cuir en magasin spécialisé,Engaged in the retail sale of footwear products,Retail,Engaged in the retail sale of footwear products [source: Bureau van Dijk],www.mazzucchellicalzature.it,0.0,0.0,0.0,5,5,7,YES,YES,
WHITEHORSE HANDELSGMBH,AT,Autriche,ST. AEGIDI,,4771,Commerce de détail d'habillement en magasin spécialisé,Engaged in the retail sale of Jack Wolfskin clothing and footwear,Retail,Engaged in the retail sale of Jack Wolfskin clothing and footwear [source: Bureau van Dijk],www.jack-wolfskin.at,,,,5,7,8,NO,NO,#DIV/0!
QUATTRO STAGIONI - SOCIETA' A RESPONSABILITA' LIMITATA,IT,Italie,CESENA,VIA LUCIANO LAMA 51,4771,Commerce de détail d'habillement en magasin spécialisé,"Retail trade of personal linen, knitwear and hosiery",Retail,"Retail trade of personal linen, knitwear and hosiery [source: Bureau van Dijk]",www.quattrostagioniabbigliamento.it,0.0,0.0,0.0,5,5,5,YES,NO,NO
MEGACALZADO PAMPLONA SL,ES,Espagne,ORKOIEN,,4772,Commerce de détail de chaussures et d'articles en cuir en magasin spécialisé,Engaged in the wholesale and retail distribution of footwear for all ages,Wholesale; Retail,Engaged in the wholesale and retail distribution of footwear for all ages [source: Bureau van Dijk],www.megacalzado.com,0.0,0.0,0.0,5,4,6,YES,NO,NO
HIJOS DE FRANCISCO LOPEZ SANTA CRUZ SA,ES,Espagne,LAS PALMAS DE GRAN CANARIA,,4772,Commerce de détail de chaussures et d'articles en cuir en magasin spécialisé,"Engaged in the operation of a chain of shoe stores; Involved in the retail trade of footwear for men, women and children",Retail,"Engaged in the operation of a chain of shoe stores; Involved in the retail trade of footwear for men, women and children [source: Bureau van Dijk]","www.buylopez.es",0.0,-1.0,0.0,5,5,10,YES,NO,YES
OSMOTEX OY,FI,Finlande,PIEKSAMAKI,,4771,Commerce de détail d'habillement en magasin spécialisé,Engaged in the retail distribution of knitted and crocheted apparel,Retail,"Yhtion toimialana on tekstiili- ja vaatetavaroiden, jalkineiden, elektroniikka-, lahja-, urheilu- ja tavaratalotuotteiden valmistus, vahittais- ja tukkukauppa seka tuonti- ja vientiagentuurien hoitaminen, arvopapereiden, kiinteistojen, taide-esineiden ostaminen, omistaminen, myyminen ja valittaminen seka yritysten, autojen ja tyokoneiden ja niihin kuuluvien laitteiden osto, saneeraus, omistaminen, myynti ja vuokraus seka muu laillinen liiketoiminta.","www.osmotex.com",0.0,0.0,0.0,5,5,5,YES,YES,
JORDANS EOOD,BG,Bulgarie,PLOVDIV,,4772,Commerce de détail de chaussures et d'articles en cuir en magasin spécialisé,Engaged in the retail distribution of footwear,Retail,Engaged in the retail distribution of footwear [source: Bureau van Dijk],www.paolobotticelli.com,0.0,0.0,0.0,5,4,7,YES,NO,NO
"MACHADO - JOALHEIRO, S.A.",PT,Portugal,PORTO,,4777,Commerce de détail d'articles d'horlogerie et de bijouterie en magasin spécialisé,"Engaged in the retail sale of jewelry, watches, precious stones, and precious metals",Retail,"Engaged in the retail sale of jewelry, watches, precious stones, and precious metals [source: Bureau van Dijk]",www.machadojoalheiro.com,0.0,0.0,0.0,5,5,8,YES,NO,NO
MODA'S SRL,IT,Italie,POSSAGNO,VIA SCHIAVONESCA MAROSTICANA 14,4772,Commerce de détail de chaussures et d'articles en cuir en magasin spécialisé,Engaged in the sale of apparel for men and women,Retail,Engaged in the sale of apparel for men and women [source: Bureau van Dijk],www.modasboutique.com,0.0,0.0,0.0,5,5,4,YES,NO,NO
"M.J.J.S. - COMERCIO DE VESTUARIO, S.A.",PT,Portugal,PEREIRA,,4771,Commerce de détail d'habillement en magasin spécialisé,Engaged in the retail distribution of a wide range of clothing for women,Retail,Engaged in the retail distribution of a wide range of clothing for women [source: Bureau van Dijk],"www.flordamoda.pt",-1.0,-1.0,-1.0,5,4,8,YES,YES,
LEDER & SCHUH D.O.O.,HR,Croatie,ZAGREB,,4772,Commerce de détail de chaussures et d'articles en cuir en magasin spécialisé,Engaged in the retail sale of footwear and leather goods,Retail,buying and goods;performance of commercial mediation in domestic and international market purchases and sales of goods;Brands:;Corti;Dominici;Humanic;Jello;Shoe 4 you;The commercial activity started in 2009.,www.lsag.com,0.0,-1.0,0.0,5,5,6,YES,YES,
AKSIOM,RU,Fédération de Russie,NOVOSIBIRSK,"PR-KT DIMITROVA D. 1, OFFICE 5",4777,Commerce de détail d'articles d'horlogerie et de bijouterie en magasin spécialisé,Engaged in the retail trade of grocery products,Retail,Engaged in the retail trade of grocery products [source: Bureau van Dijk],www.avsu.ru,1.0,1.0,1.0,5,5,5,YES,NO,NO
30GRADI S.R.L.,IT,Italie,ROMA,VIA DEI MONTI DELLA FARNESINA 79,4771,Commerce de détail d'habillement en magasin spécialisé,Operates as a clothing store,Retail,Operates as a clothing store [source: Bureau van Dijk],"www.museumtheoriginal.com",0.0,0.0,1.0,5,7,6,YES,NO,NO
INCATASCIATO GROUP S.R.L.,IT,Italie,MISTERBIANCO,,4771,Commerce de détail d'habillement en magasin spécialisé,Engaged in the operation of a chain of family clothing stores,Retail,Engaged in the operation of a chain of family clothing stores [source: Bureau van Dijk],No Website,0.0,0.0,0.0,5,4,8,YES,YES,
RISCHIO S.R.L.,IT,Italie,LATISANA,VIA LOVADINA 49,4771,Commerce de détail d'habillement en magasin spécialisé,Engaged in the retail distribution of ready-made clothing,Retail,Engaged in the retail distribution of ready-made clothing [source: Bureau van Dijk],www.risskio.it,0.0,-1.0,0.0,4,4,11,YES,YES,
MARMON SPORTS,FR,France,AUBERVILLIERS,,4771,Commerce de détail d'habillement en magasin spécialisé,Engaged in the retail trade of sporting goods and equipment,Retail,Engaged in the retail trade of sporting goods and equipment [source: Bureau van Dijk],marmonsports.com,0.0,0.0,0.0,4,5,6,YES,NO,NO
MODA CENTER S.R.L.,IT,Italie,TREVIGNANO,VIA TREVISO 71,4771,Commerce de détail d'habillement en magasin spécialisé,Engaged in the retail trade of wearing apparel and accessories,Retail,Engaged in the retail trade of wearing apparel and accessories [source: Bureau van Dijk],"www.puntoettore.it",-2.0,-5.0,0.0,4,5,8,YES,YES,
BIJOUX BOUTIQUE,FR,France,STRASBOURG,,4777,Commerce de détail d'articles d'horlogerie et de bijouterie en magasin spécialisé,Operates as a retailer of miscellaneous shopping goods,Retail,Operates as a retailer of miscellaneous shopping goods [source: Bureau van Dijk],www.boutiquesobijoux.com,1.0,1.0,0.0,4,5,5,YES,NO,NO
ZETEK SRL,IT,Italie,CERVIA,VIALE ROMAGNA 69/71,4771,Commerce de détail d'habillement en magasin spécialisé,Engaged in the manufacture and retail sale of clothing products in Italy,Manufacturing; Retail,Engaged in the manufacture and retail sale of clothing products in Italy [source: Bureau van Dijk],"www.tezuk.com",0.0,0.0,0.0,4,4,5,YES,NO,NO
WADEL S.R.L.,IT,Italie,CAGLIARI,VIA DEL RISORGIMENTO 5,4772,Commerce de détail de chaussures et d'articles en cuir en magasin spécialisé,Primarily engaged in the retail sale of footwear products,Retail,Primarily engaged in the retail sale of footwear products [source: Bureau van Dijk],www.cralregionesardegna.it/?p=2693,0.0,0.0,1.0,4,6,10,YES,NO,NO
