,Company Name,ISO Country Code,Country,City,Address,NACE Rev. 2 Code principal,"NACE Principal Rev. 2, description ",Sector,Main activity,Description in Original language,Description in English,Website,"Operating result [=EBIT]
mEUR 2021","Operating result [=EBIT]
mEUR 2020","Operating result [=EBIT]
mEUR 2019","Turnover
mEUR 2021","Turnover
mEUR 2020","Turnover
mEUR 2019",Availability of financial data,2 years of consecutive losses,Average loss over 3 years
1,ITX HELLAS SINGLE MEMBER S.A.,GR,Grèce,ATHENS,,4771,Commerce de détail d'habillement en magasin spécialisé,Engaged in the retail of fashion clothing,Retail,,"Exclusive imports and trade of garments, shoes, accessories, leather goods, perfumes, cosmetics, white linen, decoratives, tableware and small furniture (also via internet)","www.zara.com
www.fashionwear1.gr",31,17,22,459,352,300,YES,NO,NO
2,RANDEVU,RU,Fédération de Russie,MOSCOW,"UL. SKAKOVAYA D. 17, STR. 2, KOM. 2",4772,Commerce de détail de chaussures et d'articles en cuir en magasin spécialisé,"Engaged in the wholesale trade and marketing of clothing, including underwear and footwear",Wholesale,?????????? ????? ? ???????????,"Engaged in the wholesale trade and marketing of clothing, including underwear and footwear [source: Bureau van Dijk]","www.rendez-vous.ru
www.rest-randevu.ru",15,14,1,306,230,337,YES,NO,NO
3,ZEEMAN TEXTIELSUPERS,FR,France,PARIS,,4771,Commerce de détail d'habillement en magasin spécialisé,Engaged in the retail sale of clothing and outerwear as well as fashion apparels and accessories,Retail,"Négoce au détail ou en gros de vêtements, accessoires, articles destinés à l'habitation.",Engaged in the retail sale of clothing and outerwear as well as fashion apparels and accessories [source: Bureau van Dijk],www.zeeman.com,4,3,4,164,137,147,YES,NO,NO
4,ANSWEAR.COM S.A.,PL,Pologne,KRAKOW,,4771,Commerce de détail d'habillement en magasin spécialisé,"Digital platform for the sale of branded clothing, footwear and accessories in the CEE region",Wholesale; Retail; Services,,The main activities of the Company are Electronic Shopping and Mail-Order Houses.,www.answear.com,8,5,1,149,90,73,YES,NO,NO
5,REGENT GOLD,RU,Fédération de Russie,"AGALATOVSKOE SELSKOE POSELENIE, D. SKOTNOE","UL. SAVUSHKINA D. 126, LIT. A, POMESHCH. 133-N",4777,Commerce de détail d'articles d'horlogerie et de bijouterie en magasin spécialisé,Operates as other miscellaneous store retailer,Retail,???????? ?????????? ?????????,Operates as other miscellaneous store retailer [source: Bureau van Dijk],www.zolotoy.ru,22,16,5,141,103,117,YES,NO,NO
6,WOLW-POL SP. Z O.O.,PL,Pologne,WARSZAWA,,4771,Commerce de détail d'habillement en magasin spécialisé,Engaged in the wholesale distribution of clothing products,Wholesale,,Engaged in the wholesale distribution of clothing products [source: Bureau van Dijk],www.dieselshop.pl,11,6,1,135,105,99,YES,NO,NO
7,NILSON GROUP AB FILIAL NORGE,NO,Norvège,OSLO,,4772,Commerce de détail de chaussures et d'articles en cuir en magasin spécialisé,Engaged in the operation of a chain of shoe stores; Involved in the retail trade of footwear,Retail,SKODETALJHANDEL MED DERTIL NATURLIG HØRENDE VIRKSOMHET.,Engaged in the operation of a chain of shoe stores; Involved in the retail trade of footwear [source: Bureau van Dijk],,-2,-20,-6,120,125,191,YES,YES,
8,SAKURA LLC,RU,Fédération de Russie,VELIKII NOVGOROD,,4772,Commerce de détail de chaussures et d'articles en cuir en magasin spécialisé,Engaged in the retail sale of footwear,Retail,,Engaged in the retail sale of footwear [source: Bureau van Dijk],"xn--23-6kca3cvbes.xn--p1ai
ilovesakura.ru/spb",0,4,5,94,69,131,YES,NO,NO
9,LIMITED LIABILITY COMPANY HUGO BOSS RUS,RU,Fédération de Russie,MOSCOW,"PROEZD 1-I KRASNOGVARDEISKII D. 22, STR. 1, FLOOR/POMESHCH./KOM. 26/A26/7",4771,Commerce de détail d'habillement en magasin spécialisé,"Engaged in the retail sale of clothing, perfume, and accessories",Retail,"???????? ???????, ??????, ????????????.","Trade with clothes, footwear, accessories.","www.hugoboss.com/ru
www.emg.ru",7,3,6,90,49,66,YES,NO,NO
10,MNG-MANGO U.K. LIMITED,GB,Royaume-Uni,LONDON,,4771,Commerce de détail d'habillement en magasin spécialisé,Engaged in the production and retail distribution of clothing and accessories for women and men,Manufacturing; Retail,,Retail of clothes and accessories.,www.shop.mango.com,4,-5,-2,89,65,80,YES,YES,
11,B & B COLLECTION SRL,RO,Roumanie,BUCURESTI SECTORUL 3,,4777,Commerce de détail d'articles d'horlogerie et de bijouterie en magasin spécialisé,Engaged in the import and distribution of more than 100 international brands of watches and jewelry,Wholesale,,Engaged in the import and distribution of more than 100 international brands of watches and jewelry [source: Bureau van Dijk],www.bbcollection.ro,11,7,10,88,70,86,YES,NO,NO
12,SEZONNAYA KOLLEKTSIYA,RU,Fédération de Russie,MOSCOW,,4772,Commerce de détail de chaussures et d'articles en cuir en magasin spécialisé,Engaged in the operation of shoe stores,Retail,???????? ??????,Engaged in the operation of shoe stores [source: Bureau van Dijk],zenden.ru,1,0,-2,78,60,128,YES,NO,YES
13,GRUPPO PRITELLI S.R.L.,IT,Italie,CATTOLICA,VIA RESPIGHI 54 INT.4,4771,Commerce de détail d'habillement en magasin spécialisé,Engaged in the management and operation of clothing stores,Retail,COMMERCIO AL DETTAGLIO DI CONFEZIONI PER ADULTI,Engaged in the management and operation of clothing stores [source: Bureau van Dijk],"www.gruppopritelli.it
www.gpracingapparels.com",2,0,1,74,67,63,YES,NO,NO
14,SUGAR S.R.L.,IT,Italie,AREZZO,CORSO ITALIA 60,4771,Commerce de détail d'habillement en magasin spécialisé,,,COMMERCIO AL DETTAGLIO DI ARTICOLI DI ABBIGLIAMENTO,,"www.sugar.it
www.sugarmondialsrl.com",9,7,8,72,75,77,YES,NO,NO
15,TREID MANAGEMENT,RU,Fédération de Russie,MOSCOW,,4771,Commerce de détail d'habillement en magasin spécialisé,Engaged in the wholesale of clothing apparel,Wholesale,??????? ??????,Engaged in the wholesale of clothing apparel [source: Bureau van Dijk],lgcity.ru,8,6,11,70,62,93,YES,NO,NO
16,WISE S.R.L.,IT,Italie,CREMONA,CORSO GIUSEPPE MAZZINI 71,4771,Commerce de détail d'habillement en magasin spécialisé,Engaged in the operation of a chain of family clothing stores,Retail,COMMERCIO AL DETTAGLIO DI ARTICOLI DI ABBIGLIAMENTO,Engaged in the operation of a chain of family clothing stores [source: Bureau van Dijk],"www.wiseboutique.com
www.netwise.it",2,1,1,69,65,70,YES,NO,NO
17,ETERNA MODE GMBH ZWEIGNIEDERLASSUNG OESTERREICH,AT,Autriche,PARNDORF,,4771,Commerce de détail d'habillement en magasin spécialisé,,,,,,-4,2,11,67,79,108,YES,NO,NO
18,NEW YORKER HUNGARY KERESKEDELMI KORLATOLT FELELOSSEGU TARSASAG,HU,Hongrie,BUDAPEST,,4751,Commerce de détail de textiles en magasin spécialisé,Engaged in the retail trade of clothing apparels and footwear for men and women,Retail,,Engaged in the retail trade of clothing apparels and footwear for men and women [source: Bureau van Dijk],www.newyorker.de,22,13,17,67,55,67,YES,NO,NO
19,ARENA,RU,Fédération de Russie,MOSCOW,,4772,Commerce de détail de chaussures et d'articles en cuir en magasin spécialisé,Retail sale of leather goods,Retail,???????? ?????? ? ????????????,sale of footwear and accessories,"www.noone.ru
arena-city65.ru",6,3,1,64,48,69,YES,NO,NO
20,ENCUENTRO MODAS SLU,ES,Espagne,ARAFO,,4771,Commerce de détail d'habillement en magasin spécialisé,"Primarily engaged in the design, manufacture and retail sale of wearing apparel and accessories",Manufacturing,Comercio al por menor de prendas de vestir y complementos para señora.,"Primarily engaged in the design, manufacture and retail sale of wearing apparel and accessories [source: Bureau van Dijk]",www.encuentromoda.com,0,-5,3,64,54,74,YES,NO,YES
21,"TORRES JOALHEIROS, S.A.",PT,Portugal,LISBOA,,4777,Commerce de détail d'articles d'horlogerie et de bijouterie en magasin spécialisé,Engaged in the retail sale of watches and jewelry,Retail,"A sociedade tem por objeto social o comércio de ourivesaria, joalharia e relojoarias, bijuteria e artigos afins incluindo os produzidos ou comercializados pelas marcas representadas bem como o exercício destas atividades comerciais por correspondência ou via internet",Engaged in the retail sale of watches and jewelry [source: Bureau van Dijk],"www.torres.pt
torres.pt",15,8,12,64,46,68,YES,NO,NO
22,C & A MODE KERESKEDELMI KORLATOLT FELELOSSEGU TARSASAG,HU,Hongrie,BUDAPEST,,4771,Commerce de détail d'habillement en magasin spécialisé,Engaged in the retail sale of clothing apparels and footwear for men and women,Retail,,Engaged in the retail sale of clothing apparels and footwear for men and women [source: Bureau van Dijk],"www.c-and-a.com/hu
www.c-and-a.hu
www.c-and-a.com/eu/en/shop",2,-5,3,64,52,79,YES,NO,NO
23,"JOINT STOCK COMPANY STOLESHNIKOV,12 JSC STOLESHNIKOV,12",RU,Fédération de Russie,MOSCOW,"PER. NIZHNII KISELNYI D. 4, ET 5 POM.I KOM 15",4771,Commerce de détail d'habillement en magasin spécialisé,Retail distribution of knitted and crocheted apparel,Retail,,Retail distribution of knitted and crocheted apparel [source: Bureau van Dijk],hermes.com,16,8,7,62,37,38,YES,NO,NO
24,AXEL KAUFMANN APS,DK,Danemark,AARHUS C,,4771,Commerce de détail d'habillement en magasin spécialisé,Engaged in the retail sale of clothing principally in Denmark,Retail,,Engaged in the retail sale of clothing principally in Denmark [source: Bureau van Dijk],www.kaufmann.dk,1,0,1,57,62,70,YES,NO,NO
25,OCHNIK S.A.,PL,Pologne,GARWOLIN,,4771,Commerce de détail d'habillement en magasin spécialisé,Primarily engaged in the retail sale of clothing and accessories in Poland,Retail,,Primarily engaged in the retail sale of clothing and accessories in Poland [source: Bureau van Dijk],www.ochnik.com,9,4,6,58,44,55,YES,NO,NO
26,ME AND EM LIMITED,GB,Royaume-Uni,LONDON,,4771,Commerce de détail d'habillement en magasin spécialisé,Engaged in the retail distribution of clothing,Retail,,Design and retail contemporary clothing and accessories.,www.meandem.com,12,2,0,57,26,20,YES,NO,NO
27,CARRY SP. Z O.O.,PL,Pologne,POZNAN,,4771,Commerce de détail d'habillement en magasin spécialisé,Engaged in the retail sale of clothing,Retail,,Trade: outwear,www.carry.pl,9,2,6,56,50,79,YES,NO,NO
28,NEWFASHION LIMITED LIABILITY COMPANY,RU,Fédération de Russie,MOSCOW,,4751,Commerce de détail de textiles en magasin spécialisé,Engaged in the retail sale of textiles in specialised stores,Retail,???????? ??????? ???????? ????? FINN FLARE.,"Sale of clothing, trademark FINN FLARE.",www.finn-flare.ru,7,5,8,55,47,83,YES,NO,NO
29,PANCLUB JSC,RU,Fédération de Russie,MOSCOW,,4777,Commerce de détail d'articles d'horlogerie et de bijouterie en magasin spécialisé,Engaged in selling jewelry and other related personal adornment,Retail,???????? ?????????? ?????????,Engaged in selling jewelry and other related personal adornment [source: Bureau van Dijk],"pandora.net
pandorarussia.ru",4,1,13,55,41,77,YES,NO,NO
30,PLANETA SPORT D.O.O. BEOGRAD,RS,Serbie,BEOGRAD-VRACAR,,4771,Commerce de détail d'habillement en magasin spécialisé,"Engaged in the retail of sports equipment, accessories, and clothing products",Retail,,Retail sale of clothing in specialised stores,"www.planetasport.rs
www.planplus.rs",9,7,7,54,44,42,YES,NO,NO
31,VENEZIA OGANOWSKA NACHILO SP.J.,PL,Pologne,WARSZAWA,,4772,Commerce de détail de chaussures et d'articles en cuir en magasin spécialisé,Primarily engaged in the retail sale of footwear and leather goods,Retail,,"Trade: footwear, leather accessories","www.venezia.pl
venezia.pl",0,-6,3,53,45,65,YES,NO,YES
32,MYUNTS GRUPP,RU,Fédération de Russie,MOSCOW,,4772,Commerce de détail de chaussures et d'articles en cuir en magasin spécialisé,"Engaged in the operation of a chain of shoe stores; Involved in the retail trade of footwear for men, women and children",Retail,???????? ??????,"Engaged in the operation of a chain of shoe stores; Involved in the retail trade of footwear for men, women and children [source: Bureau van Dijk]",thomas-muenz.ru,8,4,3,53,29,47,YES,NO,NO
33,VAN GRAAF GMBH SP.K.,PL,Pologne,WROCLAW,,4771,Commerce de détail d'habillement en magasin spécialisé,Engaged in the retail sale of outerwear,Retail,,Trade: outwear,"www.vangraaf.pl
www.vangraaf.com",-1,-6,2,48,37,59,YES,YES,
34,NEW YORKER FINLAND OY,FI,Finlande,HELSINKI,,4771,Commerce de détail d'habillement en magasin spécialisé,Engaged in the retail trade of clothing apparels and accessories,Retail,"Bolagets verksamhetsområde är detaljförsäljning, grosshandel och tillverkning av textilier, accessoarer och skor och allt annat som är förknippat med de. Bolaget kann äga fastigheter, värdepapper och aktier.","Bolagets verksamhetsomrade ar detaljforsaljning, grosshandel och tillverkning av textilier, accessoarer och skor och allt annat som ar forknippat med de. Bolaget kann aga fastigheter, vardepapper och aktier.","www.newyorker.de
porinpuuvilla.fi",9,5,4,48,39,37,YES,NO,NO
35,IRIDE METALLI SPA,IT,Italie,MILANO,VIALE CERTOSA 95,4777,Commerce de détail d'articles d'horlogerie et de bijouterie en magasin spécialisé,Engaged in the retail sale of watches and jewelry products,Retail,COMMERCIO AL DETTAGLIO DI OROLOGI E ARTICOLI DI GIOIELLERIA E ARGE ERIA,Engaged in the retail sale of watches and jewelry products [source: Bureau van Dijk],www.iridemetalli.com,0,0,0,46,48,52,YES,NO,NO
36,RETAIL DISTRIBUTION CONCEPTS,BE,Belgique,BRUXELLES,MARGUERITE BERVOETSSTRAAT 94,4772,Commerce de détail de chaussures et d'articles en cuir en magasin spécialisé,Engaged in the retail sale of footwear,Retail,,Engaged in the retail sale of footwear [source: Bureau van Dijk],"www.retail-distribution.info
www.mano.be/fr/?doing_wp_cron=1626471572.3307049274444580078125",-3,-5,-1,45,35,50,YES,YES,
37,SZINGA-SPORT KERESKEDELMI KORLATOLT FELELOSSEGU TARSASAG,HU,Hongrie,BUDAPEST,,4771,Commerce de détail d'habillement en magasin spécialisé,Engaged in the retail sale of clothing and footwear products,Retail,,Engaged in the retail sale of clothing and footwear products [source: Bureau van Dijk],"www.playersroom.hu
sportfactory.hu",1,0,3,45,36,53,YES,NO,NO
38,KOTON TEXTILE LLC,RU,Fédération de Russie,MOSCOW,"NAB. NOVODANILOVSKAYA D. 6, K. 1, POM.XXIX KOM. 4",4771,Commerce de détail d'habillement en magasin spécialisé,Retail sale of clothing,Retail,????????? ???????? ??????? ? ???? ????????? Koton,Retail trade with clothing in Koton retail chain,textile.ru,-1,-3,-1,45,33,66,YES,YES,
39,VERTIKALNOE INTEGRIROVANIE,RU,Fédération de Russie,MOSCOW,,4772,Commerce de détail de chaussures et d'articles en cuir en magasin spécialisé,Engaged in the retail sale of footwear,Retail,???? ??????? ????? ? ??????????? TERVOLINA,Engaged in the retail sale of footwear [source: Bureau van Dijk],www.tervolina.ru,1,2,3,39,35,72,YES,NO,NO
40,LUX TRADE LIMITED LIABILITY COMPANY,RU,Fédération de Russie,MOSCOW,,4771,Commerce de détail d'habillement en magasin spécialisé,"Engaged in the wholesale distribution of clothing, footwear and other fashion accessories",Wholesale,"??????? ???????? ??????? ??????? ? ?????? ??? ???????? Gulliver, Gulliver Baby ? Button Blue.","Wholesale of kids apparel and shoes under trade marks Gulliver, Gulliver Baby and Button Blue.","gulliver-wear.com
wokster-light.ru
www.gulliver.ru/brands/gulliver",5,3,6,38,31,47,YES,NO,NO
41,CROCKID LIMITED TRADE DEVELOPMENT,RU,Fédération de Russie,PERM,"UL. YAKHTENNAYA D. 24, K. 2 LIT. A, POMESHCH. 54-N, POMESHCH. 1",4771,Commerce de détail d'habillement en magasin spécialisé,Engaged in the retail sale of clothing in specialised stores,Retail,??????? ??????,children's wear.,crockid.ru,7,3,3,36,19,19,YES,NO,NO
42,"DEICHMANN TRGOVINA OBUCOM, D.O.O.",HR,Croatie,ZAGREB,,4772,Commerce de détail de chaussures et d'articles en cuir en magasin spécialisé,Engaged in the retail sale of footwear for men and women,Retail,kupnja i prodaja robe;obavljanje trgova?kog posredovanja na doma?em i inozemnom tržištu;zastupanje stranih tvrtki,"buying and selling goods;mediation on foreign and domestic market;Brands: Elefanten, AM Shoes, Gallus","www.deichmann.hr
www.deichmann.com",5,2,5,35,29,37,YES,NO,NO
43,OFFPRAIS,RU,Fédération de Russie,MOSCOW,,4771,Commerce de détail d'habillement en magasin spécialisé,Engaged in the operation and management of clothing stores,Retail,???????? ???????,Sale of clothes,www.offprice.eu,4,2,4,34,23,33,YES,NO,NO
44,VALTER FRANCO RICCI SOCIETA' PER AZIONI SIGLABILE IN VALTER FRANCO RICCI S.P.A.,IT,Italie,ALESSANDRIA,CORSO ROMA 144,4777,Commerce de détail d'articles d'horlogerie et de bijouterie en magasin spécialisé,Engaged in the retail sale of jewelry products,Retail,COMMERCIO AL DETTAGLIO DI OROLOGI E ARTICOLI DI GIOIELLERIA E ARGE ERIA,Engaged in the retail sale of jewelry products [source: Bureau van Dijk],www.astrua.com,3,2,2,33,26,30,YES,NO,NO
45,OKAIDI BELGIUM,BE,Belgique,FROYENNES,,4641,Commerce de gros de textiles,Engaged in the retail sale of infant and children's wear,Retail,,Engaged in the retail sale of infant and children's wear [source: Bureau van Dijk],"nl.okaidi.be
fr.okaidi.be",1,-2,0,32,23,30,YES,NO,NO
46,UAB ARMITANA,LT,Lituanie,VILNIAUS M.,,4772,Commerce de détail de chaussures et d'articles en cuir en magasin spécialisé,Engaged in the retail sale of clothing apparels and footwear for men and women,Retail,,Engaged in the retail sale of clothing apparels and footwear for men and women [source: Bureau van Dijk],www.armitana.lt,3,1,1,32,23,27,YES,NO,NO
47,DIANITA STRUMICA DOOEL,MK,Macédoine du Nord,STRUMICA,,4771,Commerce de détail d'habillement en magasin spécialisé,Engaged in the operation and management of clothing stores,Retail,,Engaged in the operation and management of clothing stores [source: Bureau van Dijk],,2,1,1,32,61,8,YES,NO,NO
48,LAGRANGE 12 S.R.L.,IT,Italie,BRESCIA,VIA CODIGNOLE 45,4771,Commerce de détail d'habillement en magasin spécialisé,"Engaged in the retail sale of clothing, shoes and accessories",Retail,COMMERCIO AL DETTAGLIO DI CONFEZIONI PER ADULTI,"Engaged in the retail sale of clothing, shoes and accessories [source: Bureau van Dijk]",www.lagrange12.it,1,0,0,32,28,27,YES,NO,NO
49,"GAP RETAIL, A LIMITED LIABILITY COMPANY",RU,Fédération de Russie,MOSCOW,"PL. PAVELETSKAYA D. 2, STR. 2, POMESHCH. I KOMN 40-41 ET 1",4771,Commerce de détail d'habillement en magasin spécialisé,Operates as a clothing and apparel store,Retail,,Operates as a clothing and apparel store [source: Bureau van Dijk],marks-and-spencer.ru,6,1,2,32,21,31,YES,NO,NO
50,MASS SHOES D.O.O.,HR,Croatie,KLANJEC,,4772,Commerce de détail de chaussures et d'articles en cuir en magasin spécialisé,"Primarily engaged in the retail distribution of footwear and leather goods for men, women and children",Retail,"Trgovina obu?om;Note COVID-19:;The company's business operations are directly / indirectly affected by the consequences of official measures and recommendations to reduce the risk of corona infections. The Croatian Government proposed a set of measures to mitigate the effects of the special circumstances caused by the coronavirus epidemic. Employment protection measures:;-Croatian Employment Fund (CEF) is providing grants to support job preservation in COVID 19 affected sectors;Tax measures:;-Employers utilizing the grant provided by CEF to support job preservation are exempted from paying contributions on supported net salaries ;-Possibility to defer payment of VAT until issued invoices are settled. -Taxpayers whose business activities are during special circumstances banned, disabled or significantly impeded by decisions of the competent authority may be fully or partially exempted from paying their tax obligations ;The subject has received: ;- HRK 541.125,00 for 167 employees as support for salaries in March 2020;- HRK 666.000,00 for 167 employees as support for salaries in April 2020;- HRK 666.000,00 for 167 employees as support for salaries in May 2020;from Croatian Employment Fund (CEF). Further development remains to be seen.","Trgovina obucom;Note COVID-19:;The company's business operations are directly / indirectly affected by the consequences of official measures and recommendations to reduce the risk of corona infections. The Croatian Government proposed a set of measures to mitigate the effects of the special circumstances caused by the coronavirus epidemic. Employment protection measures:;-Croatian Employment Fund (CEF) is providing grants to support job preservation in COVID 19 affected sectors;Tax measures:;-Employers utilizing the grant provided by CEF to support job preservation are exempted from paying contributions on supported net salaries ;-Possibility to defer payment of VAT until issued invoices are settled. -Taxpayers whose business activities are during special circumstances banned, disabled or significantly impeded by decisions of the competent authority may be fully or partially exempted from paying their tax obligations ;The subject has received: ;- HRK 541.125,00 for 167 employees as support for salaries in March 2020;- HRK 666.000,00 for 167 employees as support for salaries in April 2020;- HRK 666.000,00 for 167 employees as support for salaries in May 2020;from Croatian Employment Fund (CEF). Further development remains to be seen.",www.mass-shoes.com,3,1,3,32,25,33,YES,NO,NO
51,OOO JEWELLERY HOUSE KRISTALL (LIMITED LIABILITY COMPANY),RU,Fédération de Russie,LIPETSK,,4777,Commerce de détail d'articles d'horlogerie et de bijouterie en magasin spécialisé,"Engaged in the design, manufacture, and retail marketing of jewelry and related fashion accessories",Manufacturing; Retail,,"Engaged in the design, manufacture, and retail marketing of jewelry and related fashion accessories [source: Bureau van Dijk]","kristall-shop.ru
www.kristall-shop.ru",4,4,3,32,26,38,YES,NO,NO
52,NEWPORT COLLECTION AB,SE,Suède,NORRKOPING,SODRA PROMENADEN 120,4771,Commerce de détail d'habillement en magasin spécialisé,"Marketing and trade of home textiles and furnishings, clothing and sportswear, as well as other general merchandise",Wholesale,"Bolaget skall bedriva försäljning av hemtextilier, heminredningoch sportkläder samt förvalta fast och lös egendom och därmedförenlig verksamhet.","Bolaget skall bedriva forsaljning av hemtextilier, heminredningoch sportklader samt forvalta fast och los egendom och darmedforenlig verksamhet.",www.newportcollection.se,3,1,1,30,22,13,YES,NO,NO
53,SALVADORI S.P.A.,IT,Italie,VENEZIA,SESTIERE SAN MARCO 67,4777,Commerce de détail d'articles d'horlogerie et de bijouterie en magasin spécialisé,"Engaged in the retail sale of jewelry, watches, precious stones, and precious metals",Retail,COMMERCIO AL DETTAGLIO DI OROLOGI E ARTICOLI DI GIOIELLERIA E ARGE ERIA,"Engaged in the retail sale of jewelry, watches, precious stones, and precious metals [source: Bureau van Dijk]","salvadori-venezia.com
www.salvadori-venezia.net
www.luigisalvadori.it",5,3,4,30,22,28,YES,NO,NO
54,PERE QUERA SA,ES,Espagne,GIRONA,,4777,Commerce de détail d'articles d'horlogerie et de bijouterie en magasin spécialisé,"Engaged in the wholesale distribution of jewelry, watches, precious stones, and precious metals",Wholesale,"FABRICACION REPARACION Y COMERCIO DE ARTICULOS DE JOYERIA, PIEDRAS PRECIOSAS Y RELOJERIA.","Engaged in the wholesale distribution of jewelry, watches, precious stones, and precious metals [source: Bureau van Dijk]",www.perequera.com,5,1,2,30,19,23,YES,NO,NO
55,INTRAFASHION GROUP S.A.,GR,Grèce,KRINIDES,,4771,Commerce de détail d'habillement en magasin spécialisé,Primarily engaged in the retail sale of clothing,Retail,,"Imports, mfg (in third party facilities) and trade of women's wear, shoes, accessories, jewellery and cosmetics (also via internet). Franchising",www.pinkwoman-fashion.com,4,0,-5,30,20,27,YES,YES,
56,5 KARMANOV-A,RU,Fédération de Russie,DOLGOPRUDNYI,"PR-D LIKHACHEVSKII D. 4, STR. 2, KABINET 203",4771,Commerce de détail d'habillement en magasin spécialisé,Engaged in the management and operation of department stores,Retail,???????? ??????.,Trade in clothes,"5karmanov.ru
www.iloveiphone.ru",1,1,-1,29,22,38,YES,NO,NO
57,ZOLOTOI KVADRAT,RU,Fédération de Russie,MOSCOW,,4771,Commerce de détail d'habillement en magasin spécialisé,Engaged in the operation and management of clothing stores,Retail,,Engaged in the operation and management of clothing stores [source: Bureau van Dijk],,2,1,1,29,20,34,YES,NO,NO
58,ALINA S.R.L.,IT,Italie,VILLARICCA,VIA ANIELLO PALUMBO 57,4771,Commerce de détail d'habillement en magasin spécialisé,Engaged in the operation of a chain of family clothing stores,Retail,COMMERCIO AL DETTAGLIO DI ARTICOLI DI ABBIGLIAMENTO,Engaged in the operation of a chain of family clothing stores [source: Bureau van Dijk],"www.danielloboutique.it
www.antoniodaniello.it",1,0,0,28,20,17,YES,NO,NO
59,MYRTO,BE,Belgique,BRUXELLES,ISIDORE GERARDLAAN 29,4777,Commerce de détail d'articles d'horlogerie et de bijouterie en magasin spécialisé,Engaged in the retail distribution of jewellery,Retail,,Engaged in the retail distribution of jewellery [source: Bureau van Dijk],myrto.okinawa,6,3,2,28,18,23,YES,NO,NO
60,ORN (INT) LIMITED,GB,Royaume-Uni,BUCKINGHAM,,4771,Commerce de détail d'habillement en magasin spécialisé,"Engaged in the supply of high quality, cost effective products for the corporate clothing, workwear and promotional clothing markets",Wholesale,,"Manufacture, design, import and distribution of workwear clothing.",www.ornclothing.com,2,2,1,27,20,23,YES,NO,NO
61,DIESEL DEUTSCHLAND GMBH ZWEIGNIEDERLASSUNG OESTERREICH,AT,Autriche,WIEN,,4771,Commerce de détail d'habillement en magasin spécialisé,Engaged in the provision of management services to its holding businesses,Services,,Engaged in the provision of management services to its holding businesses [source: Bureau van Dijk],,0,-1,4,26,29,62,YES,NO,NO
62,CALZEDONIA CROATIA D.O.O.,HR,Croatie,JALZABET,,4771,Commerce de détail d'habillement en magasin spécialisé,Primarily engaged in the retail sale of clothing and related accessories,Retail,,Primarily engaged in the retail sale of clothing and related accessories [source: Bureau van Dijk],www.calzedonia.com,4,2,3,26,20,26,YES,NO,NO
63,DOMANI S.R.L.,IT,Italie,TREVIGLIO,VIA ROMA 8,4772,Commerce de détail de chaussures et d'articles en cuir en magasin spécialisé,Engaged in the management and operation of shoe stores,Retail; Services,COMMERCIO AL DETTAGLIO DI CALZATURE E ACCESSORI,Engaged in the management and operation of shoe stores [source: Bureau van Dijk],"www.pozzilei.it
www.ufficiodomani.it",2,2,1,26,23,25,YES,NO,NO
64,GIOIELLERIA B. S.R.L.,IT,Italie,ROMA,VIA DELLA CROCE 13,4777,Commerce de détail d'articles d'horlogerie et de bijouterie en magasin spécialisé,Operates as a retailer of miscellaneous shopping goods,Retail,COMMERCIO AL DETTAGLIO DI OROLOGI E ARTICOLI DI GIOIELLERIA E ARGE ERIA,Operates as a retailer of miscellaneous shopping goods [source: Bureau van Dijk],www.gioielleriabonanno.it,1,1,0,26,16,12,YES,NO,NO
65,"FACIT - MERCATO DELLA CONFEZIONE S.P.A. O, IN FORMA ABBREVIATA FACIT S.P.A.",IT,Italie,TORINO,VIA CERVINO 23,4771,Commerce de détail d'habillement en magasin spécialisé,Operates as retailer of furniture and home furnishing,Retail,COMMERCIO AL DETTAGLIO DI CONFEZIONI PER ADULTI,Operates as retailer of furniture and home furnishing [source: Bureau van Dijk],"www.facitmoda.com
shop.facitmoda.com",1,-3,0,26,18,30,YES,NO,YES
66,V.Y.B.Y.,BE,Belgique,TIENEN,,4511,Commerce de voitures et de véhicules automobiles légers,"Engaged in the wholesale of motor vehicles, spare parts and accessories",Wholesale,,"Engaged in the wholesale of motor vehicles, spare parts and accessories [source: Bureau van Dijk]","www.australianhouse.net
www.automagna.eu/nl/1/automagna_partner_voor_de_professionele_autohandelaar.aspx",0,0,0,25,23,20,YES,NO,NO
67,BENVENUTI SRL,RO,Roumanie,ORADEA,,4772,Commerce de détail de chaussures et d'articles en cuir en magasin spécialisé,Engaged in the operation of a chain of shoe stores; Involved in the retail trade of footwear,Retail,,Engaged in the operation of a chain of shoe stores; Involved in the retail trade of footwear [source: Bureau van Dijk],www.benvenuti.ro,1,-1,1,25,20,28,YES,NO,NO
68,KEKALE OY,FI,Finlande,JOENSUU,,4771,Commerce de détail d'habillement en magasin spécialisé,Engaged in the retail sale of clothing,Retail,"Toimiala: Yhtiön toimialana on naisten, miesten ja lasten pukimien, musiikkiäänitteiden, kemikalien sekä pukeutumiseen liittyvien tarvikkeiden myynti ja vaatteiden valmistus. Yhtiöllä on oikeus toimintaansa varten omistaa ja hallita kiinteistöjä ja osakkeita.","Toimiala: Yhtion toimialana on naisten, miesten ja lasten pukimien, musiikkiaanitteiden, kemikalien seka pukeutumiseen liittyvien tarvikkeiden myynti ja vaatteiden valmistus. Yhtiolla on oikeus toimintaansa varten omistaa ja hallita kiinteistoja ja osakkeita.",www.kekale.fi,-1,-2,-1,24,22,27,YES,YES,
69,FABRIKA OBUVI,RU,Fédération de Russie,MOSCOW,,4772,Commerce de détail de chaussures et d'articles en cuir en magasin spécialisé,Engaged in the wholesale distribution of footwear,Wholesale,???????? ??????? ??????.,Engaged in the wholesale distribution of footwear [source: Bureau van Dijk],www.kapika.ru,1,0,0,24,16,20,YES,NO,NO
70,"M. NEVES & B. NEVES, LDA",PT,Portugal,LISBOA,,4772,Commerce de détail de chaussures et d'articles en cuir en magasin spécialisé,Engaged in the wholesale distribution of clothing and footwear,Wholesale,Comércio de calçado,Engaged in the wholesale distribution of clothing and footwear [source: Bureau van Dijk],www.calcadoguimaraes.pt,-1,-2,0,24,22,37,YES,YES,
71,MAX MARA S A S,FR,France,PARIS,,4771,Commerce de détail d'habillement en magasin spécialisé,Engaged in the wholesale distribution of a range of suits and overcoats for women and children,Wholesale,Commerce de vetements de pret-a-porter et prestation de services s'y afferents,Engaged in the wholesale distribution of a range of suits and overcoats for women and children [source: Bureau van Dijk],www.maxmara.com,2,1,2,24,19,40,YES,NO,NO
72,GOLD MOVING COMPANY S.R.L.,IT,Italie,ROMA,VIA SILICELLA 47,4777,Commerce de détail d'articles d'horlogerie et de bijouterie en magasin spécialisé,Engaged in the wholesale distribution of jewelry,Wholesale,COMMERCIO ALL'INGROSSO DI OROLOGI E DI GIOIELLERIA,Engaged in the wholesale distribution of jewelry [source: Bureau van Dijk],,0,0,0,24,6,4,YES,NO,NO
73,SPORT VISION SKOPJE DOOEL,MK,Macédoine du Nord,SKOPJE,,4772,Commerce de détail de chaussures et d'articles en cuir en magasin spécialisé,"Operates a shoe store specializing in selling men's, women's and children's footwear",Retail,,"Operates a shoe store specializing in selling men's, women's and children's footwear [source: Bureau van Dijk]",sportvision.mk,2,2,2,24,18,18,YES,NO,NO
74,BEO-SPORT SYSTEM DOO BEOGRAD,RS,Serbie,BEOGRAD (PALILULA),,4771,Commerce de détail d'habillement en magasin spécialisé,"Engaged in the wholesale distribution of fashion, casual and sportswear",Wholesale,,Retail sale of clothing in specialised stores,"www.beosport.com
rs.beosport.com",2,1,1,23,17,18,YES,NO,NO
75,EMMEPI S.R.L.,IT,Italie,RIPALIMOSANI,VIALE UNITA' D'ITALIA 18,4772,Commerce de détail de chaussures et d'articles en cuir en magasin spécialisé,Specialises in manufacturing mechanical parts for companies and clients on the national and international markets,Manufacturing,COMMERCIO AL DETTAGLIO DI CALZATURE E ACCESSORI,Specialises in manufacturing mechanical parts for companies and clients on the national and international markets [source: Bureau van Dijk],"mecapoce.com
www.meca.moda
www.emmepi-cb.com",2,1,1,23,19,23,YES,NO,NO
76,SCHOOLBLAZER LIMITED,GB,Royaume-Uni,PETERBOROUGH,,4771,Commerce de détail d'habillement en magasin spécialisé,Operates as the leading supplier of high quality uniforms to the UK's most prestigious schools,Wholesale,,Retail sale of clothing. Trading as 'Schoolblazer.com',www.schoolblazer.com,3,2,2,22,18,17,YES,NO,NO
77,YUVELIRNAYA SET EPL DAIMOND,RU,Fédération de Russie,MOSCOW,PER. 1-I SHCHIPKOVSKII D. 20,4777,Commerce de détail d'articles d'horlogerie et de bijouterie en magasin spécialisé,Engaged in the retail distribution of jewelry,Retail,???????? ?????????? ?????????.,Sale of jewellery.,epldiamond.com,1,0,2,23,16,23,YES,NO,NO
78,BASSETTI (DEUTSCHLAND) GMBH  ZWEIGNIEDERLASSUNG OESTERREICH,AT,Autriche,WALS-HIMMELREICH,,4771,Commerce de détail d'habillement en magasin spécialisé,Engaged in the retail sale of home textiles,Retail,,Engaged in the retail sale of home textiles [source: Bureau van Dijk],www.zucchibassetti.com,6,5,5,22,20,19,YES,NO,NO
79,FANTASIA S.R.L.,IT,Italie,GINOSA,VIA PITAGORA 56,4771,Commerce de détail d'habillement en magasin spécialisé,"Engaged in the retail distribution of a general line of new clothing for men, women, and children",Retail,COMMERCIO AL DETTAGLIO DI CONFEZIONI PER ADULTI,"Engaged in the retail distribution of a general line of new clothing for men, women, and children [source: Bureau van Dijk]",www.fantasiacalzature.it,0,0,1,22,22,23,YES,NO,NO
80,CUPCAKE CLOTHING LIMITED,GB,Royaume-Uni,LONDON,,4771,Commerce de détail d'habillement en magasin spécialisé,Engaged in the design and manufacture of clothing,Manufacturing,,The design and manufacture of clothing.,www.cupcakeclothing.co.uk,1,0,0,22,14,22,YES,NO,NO
81,LAURAMAR,FR,France,LYON,,4777,Commerce de détail d'articles d'horlogerie et de bijouterie en magasin spécialisé,Engaged in the rental and sale of real estate properties,Retail; Services,"Achat, vente en gros, en demi-gros ou au détail, import-export, courtage de tous produits de bijouterie, de joaillerie et d'horlogerie.",Engaged in the rental and sale of real estate properties [source: Bureau van Dijk],"www.maier.fr
www.lauramar.com.ar",3,2,2,22,15,16,YES,NO,NO
82,KATAPULT D.O.O.,HR,Croatie,ZAGREB,,4772,Commerce de détail de chaussures et d'articles en cuir en magasin spécialisé,Primarily engaged in the wholesale of footwear products,Wholesale,,Primarily engaged in the wholesale of footwear products [source: Bureau van Dijk],www.officeshoes.hr,0,0,1,22,25,27,YES,NO,NO
83,MANBOW,FR,France,PARIS,,4772,Commerce de détail de chaussures et d'articles en cuir en magasin spécialisé,Engaged in the retail sale footwear,Retail,Vente de chaussures et articles chaussants.,Engaged in the retail sale footwear [source: Bureau van Dijk],www.manfield.fr,0,-3,-2,21,17,30,YES,YES,
84,VALENTI & C. S.R.L.,IT,Italie,PISA,BORGO STRETTO 28,4772,Commerce de détail de chaussures et d'articles en cuir en magasin spécialisé,Engaged in the retail sale of footwear products in Italy,Retail,COMMERCIO AL DETTAGLIO DI ARTICOLI DI PELLETTERIA E DA VIAGGIO,Engaged in the retail sale of footwear products in Italy [source: Bureau van Dijk],www.valentipisa.it,0,0,0,21,19,22,YES,NO,NO
85,PILAR PRIETO GUMIEL SL,ES,Espagne,ALCORCON,,4771,Commerce de détail d'habillement en magasin spécialisé,Engaged in the production and retail distribution of clothing and accessories,Manufacturing; Retail,Venta al menor de moda femenina y sus complementos.,Engaged in the production and retail distribution of clothing and accessories [source: Bureau van Dijk],www.pilarprieto.es,2,0,2,20,15,24,YES,NO,NO
86,NIELSENS A/S,DK,Danemark,ODENSE SV,,4771,Commerce de détail d'habillement en magasin spécialisé,"Engaged in the retail sale of specialized lines of men's, women's, and children's clothing",Retail,,"Engaged in the retail sale of specialized lines of men's, women's, and children's clothing [source: Bureau van Dijk]","www.nielsens.dk
nielsens.dk",4,-1,3,20,30,37,YES,NO,NO
87,VIGORA,RU,Fédération de Russie,MOSCOW,"PROEZD 2-I KAPOTNINSKII D. 1, STR. 3, POMESHCH. 2",4771,Commerce de détail d'habillement en magasin spécialisé,Engaged in the retail trade of clothing and footwear products,Retail,"??????? ???????? ???????, ??????.",Engaged in the retail trade of clothing and footwear products [source: Bureau van Dijk],www.vigorasildenafil.com,1,1,2,20,8,15,YES,NO,NO
88,STADIO SPORT SOCIEDAD LIMITADA,ES,Espagne,ARUCAS,,4771,Commerce de détail d'habillement en magasin spécialisé,Engaged in the operation of sporting goods store,Retail,Comercio al por menor de artículos deportivos,Engaged in the operation of sporting goods store [source: Bureau van Dijk],www.estadiosport.net,3,1,2,20,18,23,YES,NO,NO
89,LOYTOTEX OY,FI,Finlande,KANGASALA,,4771,Commerce de détail d'habillement en magasin spécialisé,Engaged in the operation of a chain of family clothing store,Retail,"Yhtiön toimialana on tekstiilien, paperi- ja muovituotteiden, kemikaalien ym. kodin tarvikkeiden ja elintarvikkeiden tukku- ja vähittäiskauppa sekä ulkomaankauppa. Lisäksi yhtiön toimialana on tekstiilituotteiden valmistus. Lisäksi yhtiö voi omistaa ja hallita kiinteistöjä ja arvopapereita sekä käydä niillä kauppaa.","Yhtion toimialana on tekstiilien, paperi- ja muovituotteiden, kemikaalien ym. kodin tarvikkeiden ja elintarvikkeiden tukku- ja vahittaiskauppa seka ulkomaankauppa. Lisaksi yhtion toimialana on tekstiilituotteiden valmistus. Lisaksi yhtio voi omistaa ja hallita kiinteistoja ja arvopapereita seka kayda niilla kauppaa.",www.loytotex.fi,-1,-1,-1,20,21,23,YES,YES,
90,N PEAL (RETAIL) LIMITED,IE,Irlande,KILDARE,,4771,Commerce de détail d'habillement en magasin spécialisé,,,,Design and sale of luxury cashmere clothing. Accounts data converted from Sterling.,,2,0,2,19,12,18,YES,NO,NO
91,DESPI ASTIGI S.L.,ES,Espagne,CORNELLA DE LLOBREGAT,,4777,Commerce de détail d'articles d'horlogerie et de bijouterie en magasin spécialisé,Engaged in the operation of a jewelry store,Retail,Explotación joyeria,Engaged in the operation of a jewelry store [source: Bureau van Dijk],,0,0,0,19,24,9,YES,NO,NO
92,DONATOR,ME,Monténégro,TUZI,,4771,Commerce de détail d'habillement en magasin spécialisé,Primarily engaged in the wholesale of non-durable goods,Wholesale,,Retail sale of clothing in specialised stores,www.donator.co.me,2,1,2,19,17,23,YES,NO,NO
93,TOMASINI FRANCIA SRL,IT,Italie,SPOLETO,CORSO GIUSEPPE GARIBALDI 50,4777,Commerce de détail d'articles d'horlogerie et de bijouterie en magasin spécialisé,Engaged in the retail trade of luxury watch and jewelry,Retail,COMMERCIO AL DETTAGLIO DI OROLOGI E ARTICOLI DI GIOIELLERIA E ARGE ERIA,Engaged in the retail trade of luxury watch and jewelry [source: Bureau van Dijk],"www.tomasinifrancia.it
tomasinifrancia.it",2,1,0,19,16,18,YES,NO,NO
94,DESNUDOS SOCIEDAD LIMITADA,ES,Espagne,LAS PALMAS DE GRAN CANARIA,,4771,Commerce de détail d'habillement en magasin spécialisé,Engaged in the retail sale and marketing of clothing and apparel products,Retail,Venta al menor de prendas de vestir y complementos.,Engaged in the retail sale and marketing of clothing and apparel products [source: Bureau van Dijk],www.desnudos.es,3,1,2,19,18,23,YES,NO,NO
95,IRINIK SRL,RO,Roumanie,BOTOSANI,,4777,Commerce de détail d'articles d'horlogerie et de bijouterie en magasin spécialisé,"Engaged in the retail sale of jewelry, luggage and leather goods",Retail,,"Engaged in the retail sale of jewelry, luggage and leather goods [source: Bureau van Dijk]",www.sabrini.ro,1,1,1,19,12,14,YES,NO,NO
96,"VISAO DO TEMPO II - DISTRIBUICAO, S.A.",PT,Portugal,CARNAXIDE,,4777,Commerce de détail d'articles d'horlogerie et de bijouterie en magasin spécialisé,"Engaged in the retail sale of jewelry, watches, precious stones, and precious metals",Retail,"Distribuição e comércio de acessórios de moda, nomeadamente vestuário, ouro, prata, malas, cintos, carteiras, calçado, relógios e bijutaria","Engaged in the retail sale of jewelry, watches, precious stones, and precious metals [source: Bureau van Dijk]","www.pandoraonline.pt/acerca-visao-do-tempo
pandoraonline.pt",2,1,2,19,18,28,YES,NO,NO
97,"EQUACAO DO TEMPO - RELOJOARIA, LDA",PT,Portugal,PORTO,,4777,Commerce de détail d'articles d'horlogerie et de bijouterie en magasin spécialisé,Engaged in the retail sale of watches,Retail,"Importação, exportação, distribuição, representação e comercialização de artigos de relojoaria, ourivesaria e joalharia. Prestação de serviços de consultoria e de apoio à gestão de empresas, formação e assistência técnica. Comércio a retalho via Internet",Engaged in the retail sale of watches [source: Bureau van Dijk],www.marcolino.pt,4,5,9,19,20,35,YES,NO,NO
98,LE SAC S.R.L.,IT,Italie,MILANO,VIA BERNARDO DAVANZATI 28,4772,Commerce de détail de chaussures et d'articles en cuir en magasin spécialisé,,,COMMERCIO AL DETTAGLIO DI ARTICOLI DI PELLETTERIA E DA VIAGGIO,,"www.lesacoutlet.it
lesacsrl.it",3,0,0,19,13,11,YES,NO,NO
99,"ARCO PAWEL NAGLY, JACEK DUDAK SP.J.",PL,Pologne,KATOWICE,,4771,Commerce de détail d'habillement en magasin spécialisé,"Engaged in the wholesale and retail distribution of a general line of new clothing and accessories for men, women, and children",Wholesale; Retail,,"Engaged in the wholesale and retail distribution of a general line of new clothing and accessories for men, women, and children [source: Bureau van Dijk]",www.sportjam.pl,3,0,1,19,14,20,YES,NO,NO
100,SERGIO CAPONE S.R.L.,IT,Italie,PISA,BORGO STRETTO 6,4777,Commerce de détail d'articles d'horlogerie et de bijouterie en magasin spécialisé,Operates as a retailer of jewelry goods and watches,Retail,COMMERCIO AL DETTAGLIO DI OROLOGI E ARTICOLI DI GIOIELLERIA E ARGE ERIA,Operates as a retailer of jewelry goods and watches [source: Bureau van Dijk],"www.sergiocapone.it
www.sergiocapone.com",2,1,2,18,13,16,YES,NO,NO
101,CHECK POINT S.P.A.,IT,Italie,ASOLA,VIA PARMA 66,4771,Commerce de détail d'habillement en magasin spécialisé,Engaged in the retail distribution of a wide range of clothing and fashion accessories in Italy,Retail,COMMERCIO AL DETTAGLIO DI ARTICOLI DI ABBIGLIAMENTO,Engaged in the retail distribution of a wide range of clothing and fashion accessories in Italy [source: Bureau van Dijk],"brixiagym.check-point.it
check-point.it
www.check-point.it",0,-1,0,18,20,19,YES,NO,YES
102,SPORTROOM SP. Z O.O. SP.K.,PL,Pologne,LODZ,,4771,Commerce de détail d'habillement en magasin spécialisé,Engaged in the retail distribution of footwear,Retail,,Engaged in the retail distribution of footwear [source: Bureau van Dijk],www.wbsport.pl,1,1,0,18,14,13,YES,NO,NO
103,VAN GRAAF RUHAZATI ES KERESKEDELMI BETETI TARSASAG,HU,Hongrie,BUDAPEST,,4771,Commerce de détail d'habillement en magasin spécialisé,Engaged in the retail sale of fashion clothing and accessories,Retail,,Engaged in the retail sale of fashion clothing and accessories [source: Bureau van Dijk],"www.vangraaf.com/hu
company.vangraaf.com/en",1,-1,2,18,14,21,YES,NO,NO
104,AZEL D.O.O. SARAJEVO,BA,Bosnie-Herzégovine,ILIDZA,,4772,Commerce de détail de chaussures et d'articles en cuir en magasin spécialisé,Engaged in the provision of general construction and civil engineering services,Services,,Engaged in the provision of general construction and civil engineering services [source: Bureau van Dijk],www.azel.ba,3,1,3,18,15,20,YES,NO,NO
105,LANCERTO S.A.,PL,Pologne,LANCUT,,4771,Commerce de détail d'habillement en magasin spécialisé,"Engaged in the retail sale of clothing, particularly for men",Retail,,"Engaged in the retail sale of clothing, particularly for men [source: Bureau van Dijk]",www.lancerto.com,3,0,1,18,11,16,YES,NO,NO
106,DUNNES STORES ANDALUCIA SA,ES,Espagne,MIJAS,,4751,Commerce de détail de textiles en magasin spécialisé,"Engaged in the management and operation of food, textiles, and homewares stores",Services,Comercio al por menor de textiles para el hogar-señora-caballero y niño.,"Engaged in the management and operation of food, textiles, and homewares stores [source: Bureau van Dijk]",www.dunnesstores.com,-1,-2,1,17,13,20,YES,YES,
107,NEWMAX NOWAK I WSPOLNICY SP.K.,PL,Pologne,RZESZOW,,4772,Commerce de détail de chaussures et d'articles en cuir en magasin spécialisé,Engaged in the wholesale and retail trade of New Balance sports shoes,Wholesale; Retail,,Trade: footwear,"www.nbsklep.pl
nbsklep.pl",1,2,14,17,17,75,YES,NO,NO
108,EVOLUTION S.R.L.,IT,Italie,POLIGNANO A MARE,STRADA COMUNALE QUINTAVALLE,4772,Commerce de détail de chaussures et d'articles en cuir en magasin spécialisé,Engaged in the retail sale of footwear,Retail,COMMERCIO AL DETTAGLIO DI CALZATURE E ACCESSORI,Engaged in the retail sale of footwear [source: Bureau van Dijk],"www.evolutionboutique.it
www.idievolution.it",0,0,1,17,12,15,YES,NO,NO
109,MAGAZZINI BERTON S.R.L.,IT,Italie,BOLZANO VICENTINO,VIA ZUCCOLA 24/C,4771,Commerce de détail d'habillement en magasin spécialisé,"Engaged in the retail distribution of clothing, footwear and accessories",Retail,COMMERCIO AL DETTAGLIO DI CONFEZIONI PER ADULTI,"Engaged in the retail distribution of clothing, footwear and accessories [source: Bureau van Dijk]",www.bertonmagazzini.it,1,0,0,16,13,15,YES,NO,NO
110,"GOFAS, G., & CO P.C. ""GOFAS JEWELRY""",GR,Grèce,ATHENS,,4777,Commerce de détail d'articles d'horlogerie et de bijouterie en magasin spécialisé,Engaged in the operation of jewelry stores,Retail,,"Imports and trade of jewellery, watches, garments, shoes, accessories and costume jewellery",www.gofas.gr,1,0,1,16,8,16,YES,NO,NO
111,TWA RETAIL SP. Z O.O. SP.K.,PL,Pologne,KRAKOW,,4771,Commerce de détail d'habillement en magasin spécialisé,Engaged in the retail trade of clothing apparels,Retail,,Engaged in the retail trade of clothing apparels [source: Bureau van Dijk],www.reporteryoung.pl,1,0,1,16,13,15,YES,NO,NO
112,"NIVEL PRECIOSO, LDA",PT,Portugal,VIZELA,,4777,Commerce de détail d'articles d'horlogerie et de bijouterie en magasin spécialisé,Engaged in the retail trade of a wide range of merchandise,Retail,"Comércio a retalho de artigos de ourivesaria. Comércio por grosso, importação, exportação, representação comercial e transformação de metais ferrosos e não ferrosos e outros produtos similares ou afins.",Engaged in the retail trade of a wide range of merchandise [source: Bureau van Dijk],,0,0,0,16,20,12,YES,NO,NO
113,BELYETAZH,RU,Fédération de Russie,PERM,,4771,Commerce de détail d'habillement en magasin spécialisé,,,,,,0,0,0,16,13,13,YES,YES,
114,LIMITED LIABILITY COMPANY U4 GROUP,RU,Fédération de Russie,KRASNODAR,"UL. STAVROPOLSKAYA D. 133, POMESHCH. 2",4771,Commerce de détail d'habillement en magasin spécialisé,Engaged in wholesaling of miscellaneous non-durable goods,Wholesale,???????? ?????? ? ?????.,Engaged in wholesaling of miscellaneous non-durable goods [source: Bureau van Dijk],"www.u4group.ru
u4group.ru
yufogroup.ru",1,0,0,16,8,10,YES,NO,NO
115,MEGAFORT OU,EE,Estonie,TALLINN,,4777,Commerce de détail d'articles d'horlogerie et de bijouterie en magasin spécialisé,Engaged in the retail trade of watches and jewelry,Retail,,Retail sale of watches and jewellery in specialised stores,www.goldtime.ee,3,2,0,16,13,13,YES,NO,NO
116,HUGO BOSS INTERNATIONAL MARKETS AG S.A. ODDZIAL W POLSCE,PL,Pologne,WARSZAWA,,4771,Commerce de détail d'habillement en magasin spécialisé,Engaged in the retail of luxury fashion items,Retail,,Engaged in the retail of luxury fashion items [source: Bureau van Dijk],"www.hugoboss.pl
www.hugoboss.asia",0,-3,-1,16,11,14,YES,YES,
117,ADRENALINE.PL SP. Z O.O. SP.K.,PL,Pologne,OLSZTYN,,4771,Commerce de détail d'habillement en magasin spécialisé,Engaged in the retail of sportswear,Retail,,Engaged in the retail of sportswear [source: Bureau van Dijk],adrenaline.pl,2,1,2,16,13,18,YES,NO,NO
118,LLC FF STYLE,RU,Fédération de Russie,MOSCOW,"PR-KT PROLETARSKII D. 19, K. 1, PODV. POM.I, KOM 37V",4771,Commerce de détail d'habillement en magasin spécialisé,,,???????? ???????.,Trade in clothes.,www.finn-flare.ru,-8,-2,1,16,16,24,YES,YES,
119,SA TURRI ET FILS,FR,France,PARAY LE MONIAL,,4772,Commerce de détail de chaussures et d'articles en cuir en magasin spécialisé,Engaged in the operation and management of a shoe store,Retail,"Vente de chaussures maroquinerie, articles de sport.",Engaged in the operation and management of a shoe store [source: Bureau van Dijk],www.chaussures.turri.fr,0,0,0,16,13,17,YES,NO,NO
120,CENERE GB SRL,IT,Italie,BASSANO DEL GRAPPA,VIA JACOPO DA PONTE 18/20,4771,Commerce de détail d'habillement en magasin spécialisé,,,COMMERCIO AL DETTAGLIO DI CONFEZIONI PER ADULTI,,www.ceneregb.com,0,1,0,16,12,12,YES,NO,NO
121,NEW YORKER ESTONIA OU,EE,Estonie,TALLINN,,4771,Commerce de détail d'habillement en magasin spécialisé,Operates as a clothing store,Retail,,Retail sale of clothing in specialised stores,"www.newyorker.de
www.kristiine.com/stores/-/shops/Mood/1004402/New-Yorker",4,2,2,15,14,16,YES,NO,NO
122,STELLA SITI RITEIL,RU,Fédération de Russie,MOSCOW,,4771,Commerce de détail d'habillement en magasin spécialisé,Engaged in the retail sale of fashion clothing and accessories for women,Retail,"??????? ??????????? ??????, ????? ? ??????????? (Marella, Iblues)",Engaged in the retail sale of fashion clothing and accessories for women [source: Bureau van Dijk],world.marella.com,2,0,2,15,10,18,YES,NO,NO
123,HYLTON,FR,France,AIX EN PROVENCE,,4772,Commerce de détail de chaussures et d'articles en cuir en magasin spécialisé,Engaged in offering shoes of all styles for men and women,Retail,Vente de chaussures de luxe et de grandes marques et d'articles de maroquinerie.,Engaged in offering shoes of all styles for men and women [source: Bureau van Dijk],www.hylton.fr,1,1,1,15,12,11,YES,NO,NO
124,MYSHOE N. I. MINOGLOU S.A.,GR,Grèce,OINOFYTA,,4772,Commerce de détail de chaussures et d'articles en cuir en magasin spécialisé,Engaged in the wholesale of clothing and footwear products,Wholesale,,"Exclusive imports, imports and trade of shoes, slippers, garments, travelling goods, white linen, tableware, decoratives and small furniture (also via internet: www.myshoe.gr, www.laredoute.gr and www.samsonite.gr)",www.myshoe.gr,0,0,0,15,11,12,YES,NO,NO
125,ROBERT GATWARD JEWELLERS LIMITED,GB,Royaume-Uni,HUNGERFORD,,4777,Commerce de détail d'articles d'horlogerie et de bijouterie en magasin spécialisé,Engaged in the wholesale and retail of jewelry and related services,Wholesale; Retail; Services,,Jewellery retailers.,www.robertgatwardjewellers.co.uk,3,2,2,15,11,14,YES,NO,NO
126,GLOBAL BRANDS DISTRIBUTION OOD,BG,Bulgarie,SOFIA,"KV. ZHILISHTNA GRUPA YUZHEN PARK, UL. KOZYAK 12, BL. 122, VH. A, ET. 1, AP. 1",4771,Commerce de détail d'habillement en magasin spécialisé,Engaged in the retail sale of branded apparel and footwear in specialised stores,Retail,,Engaged in the retail sale of branded apparel and footwear in specialised stores [source: Bureau van Dijk],www.globalbrands.bg,1,1,1,15,12,13,YES,NO,NO
127,MANZONI SRL,IT,Italie,BELLUNO,VIA ROMA 19,4772,Commerce de détail de chaussures et d'articles en cuir en magasin spécialisé,Engaged in the retail sale of footwear products,Retail,COMMERCIO AL DETTAGLIO DI CALZATURE E ACCESSORI,Engaged in the retail sale of footwear products [source: Bureau van Dijk],"www.manzonisrl.it
www.manzonitende.it",1,1,1,15,15,18,YES,NO,NO
128,SICAR,FR,France,NICE,,4771,Commerce de détail d'habillement en magasin spécialisé,Engaged in the retail sale of clothing principally in France,Retail,"Boutique Hermès (ensemblier décorateur, vente d'objets d'arts, cadeaux, liste de mariage, prêt à porter)",Engaged in the retail sale of clothing principally in France [source: Bureau van Dijk],www.hermes.com,4,1,3,15,10,14,YES,NO,NO
129,S. D. KELLS LIMITED,GB,Royaume-Uni,ENNISKILLEN,,4771,Commerce de détail d'habillement en magasin spécialisé,"Engaged in the retail sale of apparel, accessories and other textile products",Retail,,"Ladies, gents and childrens outfitters, together with the sale of household goods.",www.sdkells.co.uk,2,1,1,15,11,15,YES,NO,NO
130,MATTIOLI & STEFANI S.R.L.,IT,Italie,MODENA,VIA SARAGOZZA 130,4777,Commerce de détail d'articles d'horlogerie et de bijouterie en magasin spécialisé,,,COMMERCIO AL DETTAGLIO DI OROLOGI E ARTICOLI DI GIOIELLERIA E ARGE ERIA,,www.watchesforpassion.com/about-us,2,1,1,15,9,8,YES,NO,NO
131,RETAIL SHOES LLC,RU,Fédération de Russie,MOSCOW,,4772,Commerce de détail de chaussures et d'articles en cuir en magasin spécialisé,Engaged in the retail trade of footwear and other related products,Retail,??????? ?????,Engaged in the retail trade of footwear and other related products [source: Bureau van Dijk],respect-shoes.ru,2,1,1,15,11,15,YES,NO,NO
132,PAPINI S.R.L.,IT,Italie,CATANIA,CORSO ITALIA 171,4771,Commerce de détail d'habillement en magasin spécialisé,Operates as the exclusive fashion store of luxury brands with a wide selection of haute-couture clothings of international designers,Retail,COMMERCIO AL DETTAGLIO DI ARTICOLI DI ABBIGLIAMENTO,Operates as the exclusive fashion store of luxury brands with a wide selection of haute-couture clothings of international designers [source: Bureau van Dijk],www.papinistore.com,0,0,0,15,14,15,YES,NO,NO
133,DAVID-ANDERSEN AS,NO,Norvège,OSLO,POSTBOKS 773  SENTRUM,4777,Commerce de détail d'articles d'horlogerie et de bijouterie en magasin spécialisé,Engaged in the retail sale and marketing of gold and silver wares and related fashion accessories as well as in redesigning fashionable items,Retail,"BUTIKKHANDEL MED GULL- OG SØLVVARER, SAMT INVESTERING I ANDRE SELSKAPER.",Engaged in the retail sale and marketing of gold and silver wares and related fashion accessories as well as in redesigning fashionable items [source: Bureau van Dijk],www.david-andersen.no,1,1,0,15,13,12,YES,NO,NO
134,COLELLA GROUP S.R.L.,IT,Italie,NAPOLI,VIA VINCENZO RUIZ ARANGIO 42,4771,Commerce de détail d'habillement en magasin spécialisé,Engaged in the retail sale of clothing in specialised stores,Retail,COMMERCIO AL DETTAGLIO DI CONFEZIONI PER ADULTI,Engaged in the retail sale of clothing in specialised stores [source: Bureau van Dijk],"lnx.spadaroma.com
www.spadaroma.com",1,1,1,15,12,19,YES,NO,NO
135,ROBERTO JOYERO VIGO SL,ES,Espagne,VIGO,,4777,Commerce de détail d'articles d'horlogerie et de bijouterie en magasin spécialisé,"Primarily engaged in the wholesale and retail sale of jewelry, watches, precious stones, and precious metals",Wholesale; Retail,Fabricación y comercialización de artículos de relojería y joyería.,"Primarily engaged in the wholesale and retail sale of jewelry, watches, precious stones, and precious metals [source: Bureau van Dijk]",www.robertojoyero.com,5,3,3,15,9,11,YES,NO,NO
136,GARIBALDINA S.R.L.,IT,Italie,RHO,CORSO GIUSEPPE GARIBALDI 23,4772,Commerce de détail de chaussures et d'articles en cuir en magasin spécialisé,Engaged in the retail trade of footwear and other related leather products,Retail,COMMERCIO AL DETTAGLIO DI CALZATURE E ACCESSORI,Engaged in the retail trade of footwear and other related leather products [source: Bureau van Dijk],www.garibaldinacalzature.it,2,0,1,14,11,14,YES,NO,NO
137,MGCGROUP MEGACALZADO IBERICA SL,ES,Espagne,ORKOIEN,,4772,Commerce de détail de chaussures et d'articles en cuir en magasin spécialisé,Engaged in the retail distribution of footwear and related products,Retail,"Comercio al por menor de calzado de niño, señora, caballero y deportivo.",Engaged in the retail distribution of footwear and related products [source: Bureau van Dijk],www.megacalzado.com,1,1,0,14,13,16,YES,NO,NO
138,CUMINI TRE S.R.L.,IT,Italie,GEMONA DEL FRIULI,VIA SAN DANIELE 3,4771,Commerce de détail d'habillement en magasin spécialisé,Engaged in the sale of clothing and accessories,Retail,COMMERCIO AL DETTAGLIO DI CONFEZIONI PER ADULTI,Engaged in the sale of clothing and accessories [source: Bureau van Dijk],"www.cumini.it
www.cumini.com",0,1,0,14,13,15,YES,NO,NO
139,PRENATAL SINGLE MEMBER S.A.,GR,Grèce,PIRAEUS,,4771,Commerce de détail d'habillement en magasin spécialisé,Engaged in the wholesale distribution of maternity and baby clothes and nursery equipment,Wholesale,,"Exclusive imports and trade of children's wear, white linen, cosmetics and furniture, baby goods, maternity garments and toys (also via internet). Franchising",www.prenatal.gr,-2,-3,-1,14,10,13,YES,YES,
140,ELEGANTKA,RU,Fédération de Russie,MOSCOW,,4771,Commerce de détail d'habillement en magasin spécialisé,Engaged in the retail sale of clothing in specialised stores,Retail,"???????? ???????, ?????? ? ????????????","Sale of clothes, footware and accessories",www.fursk.ru,-1,0,-1,14,12,21,YES,YES,
141,SUIT S.R.L.,IT,Italie,LECCE,VIA 140 REGGIMENTO FANTERIA 12,4771,Commerce de détail d'habillement en magasin spécialisé,,,COMMERCIO AL DETTAGLIO DI ARTICOLI DI ABBIGLIAMENTO,,www.suitnegozi.com,2,1,1,14,12,9,YES,NO,NO
142,M&A EXPORT S.R.L.,IT,Italie,MAZZE,VIA ITALIA 21,4771,Commerce de détail d'habillement en magasin spécialisé,,,COMMERCIO AL DETTAGLIO DI CONFEZIONI PER ADULTI,,maexport.app,2,1,1,14,7,7,YES,NO,NO
143,MANTOVANI S.R.L.,IT,Italie,CARATE BRIANZA,CORSO DELLA LIBERTA' 15,4771,Commerce de détail d'habillement en magasin spécialisé,Engaged in the wholesale distribution of a range of clothing products and accessories,Wholesale,COMMERCIO AL DETTAGLIO DI ARTICOLI DI ABBIGLIAMENTO,Engaged in the wholesale distribution of a range of clothing products and accessories [source: Bureau van Dijk],"mantovanistore.com/it_it
www.mantovanistore.com
www.distilleriemantovani.it",0,-1,1,14,12,14,YES,YES,
144,BIG BRAND SOLE SHAREHOLDER CO. LTD,GR,Grèce,RETHYMNO,,4771,Commerce de détail d'habillement en magasin spécialisé,Operates as an online clothing store that caters to all those who love athletic and casual outfits,Retail,,"Trade of sportswear, sports shoes and sports goods (also sales via internet)",www.heavenofbrands.com,1,0,-1,14,12,12,YES,NO,NO
145,BRENTA,RU,Fédération de Russie,MOSCOW,,4771,Commerce de détail d'habillement en magasin spécialisé,Engaged in the marketing and sale of furniture and home furnishings,Wholesale; Retail,,Engaged in the marketing and sale of furniture and home furnishings [source: Bureau van Dijk],,1,0,1,14,8,11,YES,NO,NO
146,ADAMAKOS BROS S.A.,GR,Grèce,PERISTERI,,4771,Commerce de détail d'habillement en magasin spécialisé,Engaged in the wholesale and retail marketing of men's fashion and clothing items,Wholesale; Retail,,"Imports and trade of men's wear, shoes and accessories (also via internet). Real Estate lessors",www.adamakos.gr,3,1,1,14,9,15,YES,NO,NO
147,GLEN,RU,Fédération de Russie,MOSCOW,"UL. KASATKINA D. 3, ET 4 POM4",4771,Commerce de détail d'habillement en magasin spécialisé,Engaged in the operation of a chain of family clothing store,Retail,"????????? ???????? ??????? (????? Glenfield, Flo&Jo, Braccialini)","Retail sale of clothing (brands Glenfield, Flo&Jo, Braccialini)","www.flo-jo.ru
glenfield.ru",1,1,0,14,10,21,YES,NO,NO
148,PROGETTO MODA S.R.L.,IT,Italie,ALTAMURA,PIAZZA ZANARDELLI N. 11,4771,Commerce de détail d'habillement en magasin spécialisé,Engaged in the retail distribution of clothing and accessories,Retail,COMMERCIO AL DETTAGLIO DI ARTICOLI DI ABBIGLIAMENTO,Engaged in the retail distribution of clothing and accessories [source: Bureau van Dijk],"www.anteprimaextra.com
www.progettomoda.it",1,1,0,14,11,11,YES,NO,NO
149,"UNIFATO - CONFECCOES DO CENTRO, LDA",PT,Portugal,REGUENGO DO FETAL,,4771,Commerce de détail d'habillement en magasin spécialisé,Engaged in the retail sale of clothing,Retail,"Comercialização de artigos de vestuário/ Produção de eletricidade de origem eólica, geotérmica, solar e de origem, n.e.",Engaged in the retail sale of clothing [source: Bureau van Dijk],www.unifato.pt,1,0,1,13,16,28,YES,NO,NO
150,MARC TENSEN,BE,Belgique,ANTWERPEN,,4777,Commerce de détail d'articles d'horlogerie et de bijouterie en magasin spécialisé,Engaged in the operation of jewelry and watch stores,Retail,,Engaged in the operation of jewelry and watch stores [source: Bureau van Dijk],www.tensen.be,2,0,0,13,9,11,YES,NO,NO
151,CAMPARINI S.R.L.,IT,Italie,REGGIO NELL'EMILIA,VIA EMILIA SAN PIETRO 29/C,4777,Commerce de détail d'articles d'horlogerie et de bijouterie en magasin spécialisé,"Engaged in the wholesale of jewelry, watches, precious stones, and precious metals",Wholesale,COMMERCIO AL DETTAGLIO DI OROLOGI E ARTICOLI DI GIOIELLERIA E ARGE ERIA,"Engaged in the wholesale of jewelry, watches, precious stones, and precious metals [source: Bureau van Dijk]",www.camparinigioielli.com,2,1,1,13,11,12,YES,NO,NO
152,NIKOLAOS P. SAKELLARIS S.A.,GR,Grèce,ATHENS,,4772,Commerce de détail de chaussures et d'articles en cuir en magasin spécialisé,,,,"Representation, imports and trade of anatomic shoes (sales also via internet)",www.sakellaris.gr,4,2,3,13,8,11,YES,NO,NO
153,FILNUM S.P.A.,IT,Italie,PARMA,GALLERIA POLIDORO 2/C,4777,Commerce de détail d'articles d'horlogerie et de bijouterie en magasin spécialisé,Engaged in the professional operator in the gold trade,Wholesale,COMMERCIO AL DETTAGLIO DI OROLOGI E ARTICOLI DI GIOIELLERIA E ARGE ERIA,Engaged in the professional operator in the gold trade [source: Bureau van Dijk],www.filnum.it,0,0,0,13,17,16,YES,NO,NO
154,LOSCHI SRL,IT,Italie,TREVISO,VIA MARTIRI DELLA LIBERTA' 10,4771,Commerce de détail d'habillement en magasin spécialisé,Operates as a clothing store,Retail,COMMERCIO AL DETTAGLIO DI ARTICOLI DI ABBIGLIAMENTO,Operates as a clothing store [source: Bureau van Dijk],"loschiboutique.com
www.loschiboutique.com",1,0,0,13,12,12,YES,NO,NO
155,GROUP 88 NUF,NO,Norvège,OSLO,,4772,Commerce de détail de chaussures et d'articles en cuir en magasin spécialisé,,,GROSSIST DETALJIST LÆRVARER.,,group88.dk,1,0,0,13,11,12,YES,NO,NO
156,YAR,RU,Fédération de Russie,KRASNOYARSK,,4771,Commerce de détail d'habillement en magasin spécialisé,Engaged in the retail sale of clothing in specialised stores,Retail,,Engaged in the retail sale of clothing in specialised stores [source: Bureau van Dijk],,2,0,1,13,8,13,YES,NO,NO
157,GLOBUS CONFEZIONI S.P.A.,IT,Italie,BOLZANO,PIAZZA DEL MUNICIPIO 4/A,4771,Commerce de détail d'habillement en magasin spécialisé,Engaged in the retail trade of clothing and related accessories,Retail,COMMERCIO AL DETTAGLIO DI ARTICOLI DI ABBIGLIAMENTO,Engaged in the retail trade of clothing and related accessories [source: Bureau van Dijk],"www.globus-mode.it
www.globus-mode.com",0,-1,0,13,9,15,YES,NO,YES
158,LAATUKORU OY,FI,Finlande,HYVINKAA,,4777,Commerce de détail d'articles d'horlogerie et de bijouterie en magasin spécialisé,Engaged in the retail sale of jewelry products and other valuable goods in Finland,Retail,"Yhtiön toimialana on kello- ja kultasepänalan kauppa ja valmistustoiminta sekä kaikki niihin liittyvä toiminta. Yhtiö voi harjoittaa käytettyjen tavaroiden osto-, myynti- ja välitysliiketoimintaa. Yhtiö voi myös omistaa ja hallita kiinteistöjä sekä vuokrata niissä sijaitsevia huoneistoja ulkopuolisille. Lisäksi yhtiö voi käydä arvopaperikauppaa ja harjoittaa sijoitustoimintaa. Yhtiö voi antaa vakuuksia ja takauksia muiden yhtiöiden ja henkilöiden veloista ja vastuista.","Yhtion toimialana on kello- ja kultasepanalan kauppa ja valmistustoiminta seka kaikki niihin liittyva toiminta. Yhtio voi harjoittaa kaytettyjen tavaroiden osto-, myynti- ja valitysliiketoimintaa. Yhtio voi myos omistaa ja hallita kiinteistoja seka vuokrata niissa sijaitsevia huoneistoja ulkopuolisille. Lisaksi yhtio voi kayda arvopaperikauppaa ja harjoittaa sijoitustoimintaa. Yhtio voi antaa vakuuksia ja takauksia muiden yhtioiden ja henkiloiden veloista ja vastuista.",www.laatukoru.fi,0,0,0,12,10,9,YES,NO,NO
159,"BUDMIL PRODUCTION, TRADE AND SERVICE PRIVATE COMPANY LIMITED BY SHARES",HU,Hongrie,BUDAPEST,,4771,Commerce de détail d'habillement en magasin spécialisé,"Engaged in the wholesale distribution of clothing, footwear, and leather goods for men, women, and children",Wholesale,,"Engaged in the wholesale distribution of clothing, footwear, and leather goods for men, women, and children [source: Bureau van Dijk]","www.budmil.eu
budmil.eu",2,1,1,13,9,10,YES,NO,NO
160,BIKBOK OY,FI,Finlande,HELSINKI,,4771,Commerce de détail d'habillement en magasin spécialisé,Primarily engaged in the retail sale of clothing and fashion items,Retail,Bolaget ska driva handelsrörelse inom konfektion jämte annan därmed förenlig verksamhet.,Bolaget ska driva handelsrorelse inom konfektion jamte annan darmed forenlig verksamhet.,www.bikbok.com,-1,-3,-3,13,11,14,YES,YES,
161,CROSS POLAND SP. Z O.O.,PL,Pologne,ZAKRET,,4771,Commerce de détail d'habillement en magasin spécialisé,"Engaged in the wholesale trade of wearing apparel, accessories and other textile products",Wholesale,,"Engaged in the wholesale trade of wearing apparel, accessories and other textile products [source: Bureau van Dijk]",www.crossjeans.pl,1,0,1,13,12,12,YES,NO,NO
162,LLC BRAND OUTLET,RU,Fédération de Russie,MOSCOW,"UL. MOLODOGVARDEISKAYA D. 2, K. 3, KV. 71",4771,Commerce de détail d'habillement en magasin spécialisé,,,"???????? ???????, ??????, ???????? ??? ????.","Trade in clothing, footwear, household goods.",wossoutlet.com,1,0,0,13,8,12,YES,NO,NO
163,FERNER JACOBSEN AKTIESELSKAP,NO,Norvège,OSLO,,4771,Commerce de détail d'habillement en magasin spécialisé,Engaged in the retail trade of clothing apparels,Retail,"HANDEL SAMT HVA HERMED STÅR I FORBINDELSE, HERUNDER Å DELTA I ANDRE SELSKAP MED ØKONOMISK FORMÅL.",Engaged in the retail trade of clothing apparels [source: Bureau van Dijk],,1,0,1,12,10,11,YES,NO,NO
164,RECMAN SP. Z O.O.,PL,Pologne,SUWALKI,,4771,Commerce de détail d'habillement en magasin spécialisé,Engaged in the wholesale trade of clothing and footwear products,Wholesale,,Engaged in the wholesale trade of clothing and footwear products [source: Bureau van Dijk],www.recman.pl,1,-1,0,12,10,16,YES,NO,NO
165,JS GROUP,RU,Fédération de Russie,MOSCOW,"PR-KT VOLGOGRADSKII D. 42, K. 23",4771,Commerce de détail d'habillement en magasin spécialisé,Engaged in selling pantyhose and underwear,Retail,"?????????, ??????? ????????: ????????, ?????? ?????, ???????-???????? ???????.",Engaged in selling pantyhose and underwear [source: Bureau van Dijk],"js-company.ru
www.js-company.ru",1,1,2,12,12,19,YES,NO,NO
166,SARL MAILLOCHON,FR,France,LIMOGES,,4771,Commerce de détail d'habillement en magasin spécialisé,Engaged in the retail of clothing,Retail,,Engaged in the retail of clothing [source: Bureau van Dijk],www.imajeans.fr,1,0,0,12,9,11,YES,NO,NO
167,MANGO HAUSSMANN,FR,France,PARIS,,4771,Commerce de détail d'habillement en magasin spécialisé,"Engaged in the wholesale and retail trade of apparel, accessories and other textile products",Wholesale; Retail,"Acquisition et gestion de toutes valeurs mobilières , prise de participations ou d'intérêts sous quelque forme que ce soit dans toutes sociétés et généralement toutes opérations quelconques se rapportant, directement ou indirectement, à l'objet précité. Achat, vente en gros, en demi-gros et au détail de tous articles textiles, vêtements confectionnés et articles chaussants, bonneterie, linge de maison, nouveautés, accessoires d'habillement, maroquinerie. Tous articles d'ameublement et de décoration et tous produits d'entretien.","Engaged in the wholesale and retail trade of apparel, accessories and other textile products [source: Bureau van Dijk]",www.mango.com,1,-2,1,12,9,17,YES,NO,YES
168,"VESNA, A.S.",CZ,République tchèque,CEPERKA,,4751,Commerce de détail de textiles en magasin spécialisé,Engaged in the wholesale of textile products. It is a privately held company based in Czech Republic,Wholesale,,Engaged in the wholesale of textile products. It is a privately held company based in Czech Republic [source: Bureau van Dijk],"www.vesna.cz
www.ivesna.cz",0,0,0,12,11,12,YES,NO,NO
169,SMART RETAIL EOOD,BG,Bulgarie,SOFIA,,4771,Commerce de détail d'habillement en magasin spécialisé,Engaged in the operation and management of clothing stores,Retail,,Engaged in the operation and management of clothing stores [source: Bureau van Dijk],"www.orsay-fashion.bg
orsay-fashion.bg",0,1,2,12,11,14,YES,NO,NO
170,RETAIL 2000 S.R.L.,IT,Italie,RHO,VIA ACHILLE GRANDI 2,4771,Commerce de détail d'habillement en magasin spécialisé,Engaged in the operation of a chain of family clothing stores,Retail,COMMERCIO AL DETTAGLIO DI ARTICOLI DI ABBIGLIAMENTO,Engaged in the operation of a chain of family clothing stores [source: Bureau van Dijk],www.matiasfashionoutlet.com,3,3,3,12,12,16,YES,NO,NO
171,ROCALE' SRL,IT,Italie,MILANO,VIA BENEDETTO CROCE 9,4772,Commerce de détail de chaussures et d'articles en cuir en magasin spécialisé,Operates as a shoe store,Retail,COMMERCIO AL DETTAGLIO DI CALZATURE E ACCESSORI.,Operates as a shoe store [source: Bureau van Dijk],www.rocalecalzature.it,0,0,0,12,9,12,YES,NO,NO
172,3F AZZARO S.R.L.,IT,Italie,MOLFETTA,VIA ADRIANO OLIVETTI 8/A,4771,Commerce de détail d'habillement en magasin spécialisé,,,COMMERCIO AL DETTAGLIO DI CONFEZIONI PER BAMBINI E NEONATI,,www.fratelliazzaro.it,0,0,0,12,10,8,YES,NO,NO
173,RABINO MARIO & C. S.R.L.,IT,Italie,CUNEO,CORSO NIZZA 10,4777,Commerce de détail d'articles d'horlogerie et de bijouterie en magasin spécialisé,,,COMMERCIO AL DETTAGLIO DI OROLOGI E ARTICOLI DI GIOIELLERIA E ARGE ERIA,,"www.gioielleriarabino.com
www.gioielleriaerredue.com",2,0,0,12,9,9,YES,NO,NO
174,LU.CA S.R.L.,IT,Italie,BRESCIA,CORSO GIUSEPPE ZANARDELLI 15/A,4777,Commerce de détail d'articles d'horlogerie et de bijouterie en magasin spécialisé,,,COMMERCIO AL DETTAGLIO DI OROLOGI E ARTICOLI DI GIOIELLERIA E ARGE ERIA,,www.pasinigioielli.com,1,1,0,12,6,7,YES,NO,NO
175,MONTI - S.R.L.,IT,Italie,CESENA,VIA FANTAGUZZI 13,4772,Commerce de détail de chaussures et d'articles en cuir en magasin spécialisé,"Engaged in the wholesale trade of apparel, accessories and other textile products",Wholesale,COMMERCIO AL DETTAGLIO DI ARTICOLI DI PELLETTERIA E DA VIAGGIO,"Engaged in the wholesale trade of apparel, accessories and other textile products [source: Bureau van Dijk]","www.montiboutique.com
www.omvvicariemonti.it",1,1,1,12,11,12,YES,NO,NO
176,ITEKS,RU,Fédération de Russie,VLADIVOSTOK,,4771,Commerce de détail d'habillement en magasin spécialisé,,,,,,0,0,0,12,9,11,YES,YES,
177,MARASMA S.R.L.,IT,Italie,NOVATE MILANESE,VIA ENRICO FERMI 7,4771,Commerce de détail d'habillement en magasin spécialisé,,,COMMERCIO AL DETTAGLIO DI CONFEZIONI PER BAMBINI E NEONATI,,,0,0,0,12,9,11,YES,NO,NO
178,ARGO RETAIL SOCIETA' A RESPONSABILITA' LIMITATA,IT,Italie,FIRENZE,VIA ALFONSO LAMARMORA 39,4771,Commerce de détail d'habillement en magasin spécialisé,Engaged in the operation and management of clothing stores,Retail,COMMERCIO AL DETTAGLIO DI ARTICOLI DI ABBIGLIAMENTO,Engaged in the operation and management of clothing stores [source: Bureau van Dijk],,0,-1,-2,12,5,11,YES,YES,
179,SOLUX INVEST,BE,Belgique,WAREGEM,,2611,Fabrication de composants électroniques,"Engaged in the development, manufacture and sale of a wide variety of electrical and electronic equipment and components and related products principally in Belgium",Manufacturing; Wholesale,,"Engaged in the development, manufacture and sale of a wide variety of electrical and electronic equipment and components and related products principally in Belgium [source: Bureau van Dijk]",,3,4,4,12,12,11,YES,NO,NO
180,RONCHI - OREFICERIA OROLOGERIA S.R.L.,IT,Italie,MILANO,VIA MAURIZIO GONZAGA 0005,4777,Commerce de détail d'articles d'horlogerie et de bijouterie en magasin spécialisé,Engaged in the retail distribution of a wide range of watches,Retail,COMMERCIO AL DETTAGLIO DI OROLOGI E ARTICOLI DI GIOIELLERIA E ARGE ERIA,Engaged in the retail distribution of a wide range of watches [source: Bureau van Dijk],www.ronchigioielli.com,2,2,2,12,9,13,YES,NO,NO
181,"GEORGOUDAS, ARGYRIOS, - ASTERIOS GEORGOUDAS O.E.",GR,Grèce,THESSALONIKI,,4772,Commerce de détail de chaussures et d'articles en cuir en magasin spécialisé,,,,"Representations, imports and trade of shoes, handbags and belts (also via internet)",www.nak.gr,1,-1,1,12,9,17,YES,NO,YES
182,"VIEIRA & FRANK - IMPORTACAO E REPRESENTACAO DE CALCADO E CONFECCAO, LDA",PT,Portugal,LISBOA,,4772,Commerce de détail de chaussures et d'articles en cuir en magasin spécialisé,Engaged in the retail sale of clothing products and accessories in Portugal,Retail,"Importação, confeção e comercialização de pronto-a-vestir, calçado, malas, marroquinaria e acessórios.",Engaged in the retail sale of clothing products and accessories in Portugal [source: Bureau van Dijk],"www.stivali.pt
stivali.pt",1,1,1,11,9,12,YES,NO,NO
183,GRIFO MODA S.R.L.,IT,Italie,ISCHIA,VIA FASOLARA 49/16,4771,Commerce de détail d'habillement en magasin spécialisé,,,COMMERCIO AL DETTAGLIO DI CONFEZIONI PER ADULTI,,www.grifo210.com/it,0,0,0,11,9,7,YES,NO,NO
184,HEREDEROS DE ANTONIO MOYA BARRIONUEVO SL,ES,Espagne,TORREMOLINOS,,4771,Commerce de détail d'habillement en magasin spécialisé,Engaged in the manufacture and distribution of clothing and other related products,Manufacturing,Venta al por menor de prendas y material deportivos,Engaged in the manufacture and distribution of clothing and other related products [source: Bureau van Dijk],www.basesantagema.es,0,0,0,11,9,11,YES,NO,NO
185,ORA - KESSARIS S.A.,GR,Grèce,ATHENS,,4777,Commerce de détail d'articles d'horlogerie et de bijouterie en magasin spécialisé,Engaged in importing and trading of watches and jewelry,Wholesale,,"Representations, exclusive imports and trade of watches and jewellery (also sales via internet)",www.kessaris.gr,1,0,1,11,6,11,YES,NO,NO
186,"MUNDO DOS FATOS - COMERCIO DE VESTUARIO, LDA",PT,Portugal,SANTA MARTA,,4771,Commerce de détail d'habillement en magasin spécialisé,Engaged in the retail trade of clothing apparels,Retail,"Comércio de todo tipo de artigos de vestuário para homem, mulher e criança, nomeadamente fatos de homem e senhora, importação e exportação dos mesmos, gestão de atividades e áreas comerciais, afins e conexas.",Engaged in the retail trade of clothing apparels [source: Bureau van Dijk],"www.mundodosfatos.com
suitsinc.com/pt",1,0,1,11,5,11,YES,NO,NO
187,GROENHAUG RETAIL AS,NO,Norvège,BERGEN,,4771,Commerce de détail d'habillement en magasin spécialisé,Engaged in the retail sale of family clothing,Retail,"HANDEL, AGENTURVIRKSOMHET OG KONSULENTVIRKSOMHET SAMT VIRKSOMHET SOM ST]R I FORBINDELSE MED DET. SELSKAPET KAN OGS] DELTA I ANDRE SELSKAPER SOM DRIVER SLIK VIRKSOMHET.",Engaged in the retail sale of family clothing [source: Bureau van Dijk],,1,0,0,11,9,12,YES,NO,NO
188,ABATE & C. S.R.L.,IT,Italie,SANREMO,CORSO IMPERATRICE 3,4777,Commerce de détail d'articles d'horlogerie et de bijouterie en magasin spécialisé,Engaged in the operation of jewelry stores,Wholesale; Retail,COMMERCIO AL DETTAGLIO DI OROLOGI E ARTICOLI DI GIOIELLERIA E ARGE ERIA,Engaged in the operation of jewelry stores [source: Bureau van Dijk],"www.abategioielli.it
abate1920.com",2,2,1,11,9,12,YES,NO,NO
189,DENIS SHOES SRL,RO,Roumanie,SUCEAVA,,4772,Commerce de détail de chaussures et d'articles en cuir en magasin spécialisé,Operates as a shoe store engaged in the retail distribution of shoes,Retail,,Operates as a shoe store engaged in the retail distribution of shoes [source: Bureau van Dijk],www.denisshoes.com,1,0,0,11,8,11,YES,NO,NO
190,RAZZIA SL,ES,Espagne,ARAFO,,4771,Commerce de détail d'habillement en magasin spécialisé,Engaged in the retail sale of apparel,Retail,Explotación de tienda de ropa de la franquicia BENETTON.,Engaged in the retail sale of apparel [source: Bureau van Dijk],razzia.es,2,0,1,11,7,13,YES,NO,NO
191,KUBENZ BERNACIAK SP.K.,PL,Pologne,ELK,,4771,Commerce de détail d'habillement en magasin spécialisé,Operates as a clothing store,Retail,,Operates as a clothing store [source: Bureau van Dijk],kubenz.pl,1,0,3,11,9,17,YES,NO,NO
192,"MODARTE, LDA",PT,Portugal,BRAGA,,4772,Commerce de détail de chaussures et d'articles en cuir en magasin spécialisé,Engaged in the wholesale and retail distribution of travel products in Portugal,Wholesale; Retail,"Comércio a retalho de marroquinaria e artigos de viagem, em estabelecimentos especializados",Engaged in the wholesale and retail distribution of travel products in Portugal [source: Bureau van Dijk],www.modarte.pt,0,-1,1,11,9,18,YES,NO,NO
193,MAX FASHION SRL,IT,Italie,MILANO,VIALE SAN GIMIGNANO 4/A,4771,Commerce de détail d'habillement en magasin spécialisé,,,COMMERCIO AL DETTAGLIO DI CONFEZIONI PER ADULTI,,,0,0,0,11,8,9,YES,NO,NO
194,TORELLI SRL,IT,Italie,TREVIGLIO,VIA ROMA 2/4,4777,Commerce de détail d'articles d'horlogerie et de bijouterie en magasin spécialisé,"Involved in the retail distribution of a range of jewelry and other related products; and provision of engraving, personalization, and customization services, as well as jewelry repair services",Retail,COMMERCIO AL DETTAGLIO DI OROLOGI E ARTICOLI DI GIOIELLERIA E ARGE ERIA,"Involved in the retail distribution of a range of jewelry and other related products; and provision of engraving, personalization, and customization services, as well as jewelry repair services [source: Bureau van Dijk]",www.gioiellerietorelli.com,0,0,0,11,8,11,YES,NO,NO
195,"ROFINOR - TEXTEIS, LDA",PT,Portugal,CARVALHOSA,,4751,Commerce de détail de textiles en magasin spécialisé,Engaged in the manufacture of workwear fabrics,Manufacturing,"Indústria de embalagens e esterilização de pensos cirúrgicos, importação, exportação, comércio de material de uso clínico e têxteis. Estampagem. Fabricação de tecidos de malha.",Engaged in the manufacture of workwear fabrics [source: Bureau van Dijk],www.rofinor.pt,1,1,0,11,12,10,YES,NO,NO
196,SPORT & MODA D.O.O.,HR,Croatie,ZADAR,,4771,Commerce de détail d'habillement en magasin spécialisé,,,"-maloprodaja sportske odje?e, obu?e i opreme poznatih svjetskih brandova; Nike, Converse, Adidas, Puma, Reebok i 4F. Note COVID-19:;The company's business operations are directly / indirectly affected by the consequences of official measures and recommendations to reduce the risk of corona infections. The Croatian Government proposed a set of measures to mitigate the effects of the special circumstances caused by the coronavirus epidemic. Employment protection measures:;-Croatian Employment Fund (CEF) is providing grants to support job preservation in COVID 19 affected sectors. Tax measures:;-Employers utilizing the grant provided by CEF to support job preservation are exempted from paying contributions on supported net salaries. -Possibility to defer payment of VAT until issued invoices are settled. -Taxpayers whose business activities are during special circumstances banned, disabled or significantly impeded by decisions of the competent authority may be fully or partially exempted from paying their tax obligations. The subject has received: ;- HRK 221.000,00 for 69 employees as support for salaries in March 2020;- HRK 224.000,00 for 56 employees as support for salaries in April 2020;from Croatian Employment Fund (CEF). Further development remains to be seen.","-maloprodaja sportske odjece, obuce i opreme poznatih svjetskih brandova; Nike, Converse, Adidas, Puma, Reebok i 4F. Note COVID-19:;The company's business operations are directly / indirectly affected by the consequences of official measures and recommendations to reduce the risk of corona infections. The Croatian Government proposed a set of measures to mitigate the effects of the special circumstances caused by the coronavirus epidemic. Employment protection measures:;-Croatian Employment Fund (CEF) is providing grants to support job preservation in COVID 19 affected sectors. Tax measures:;-Employers utilizing the grant provided by CEF to support job preservation are exempted from paying contributions on supported net salaries. -Possibility to defer payment of VAT until issued invoices are settled. -Taxpayers whose business activities are during special circumstances banned, disabled or significantly impeded by decisions of the competent authority may be fully or partially exempted from paying their tax obligations. The subject has received: ;- HRK 221.000,00 for 69 employees as support for salaries in March 2020;- HRK 224.000,00 for 56 employees as support for salaries in April 2020;from Croatian Employment Fund (CEF). Further development remains to be seen.",www.sport-moda.hr,2,1,0,11,7,7,YES,NO,NO
197,LARIO SPORT SL,ES,Espagne,VALENCIA,,4772,Commerce de détail de chaussures et d'articles en cuir en magasin spécialisé,Engaged in the manufacture and sale of leather and allied products,Manufacturing,Comercio al por menor de calzados de señora y caballero.,Engaged in the manufacture and sale of leather and allied products [source: Bureau van Dijk],www.yacare.es,1,-1,1,11,8,13,YES,NO,NO
198,"IZLATO, S.R.O.",SK,Slovaquie,BRATISLAVA,,4777,Commerce de détail d'articles d'horlogerie et de bijouterie en magasin spécialisé,,,,,izlato.sk,2,1,1,11,7,5,YES,NO,NO
199,MALI' S.R.L.,IT,Italie,RENDE,VIA GUGLIELMO MARCONI 38,4771,Commerce de détail d'habillement en magasin spécialisé,,,COMMERCIO AL DETTAGLIO DI ARTICOLI DI ABBIGLIAMENTO,,"www.maliziashop.it
www.maligestione.it",0,0,0,11,6,7,YES,NO,NO
200,ANNUNZIATA GROUP S.R.L.,IT,Italie,GIOIA TAURO,VIA NAZIONALE 111 294,4771,Commerce de détail d'habillement en magasin spécialisé,Engaged in the retail distribution of clothing and other related products,Retail,COMMERCIO AL DETTAGLIO DI ABBIGLIAMENTO,Engaged in the retail distribution of clothing and other related products [source: Bureau van Dijk],www.annunziatastore.it,0,-1,0,10,8,11,YES,YES,
201,CUSI MONTENAPOLEONE S.R.L.,IT,Italie,MILANO,VIA MONTE NAPOLEONE 21/A,4777,Commerce de détail d'articles d'horlogerie et de bijouterie en magasin spécialisé,Engaged in the sale of jewelries,Retail,COMMERCIO AL DETTAGLIO DI OROLOGI E ARTICOLI DI GIOIELLERIA E ARGE ERIA,Engaged in the sale of jewelries [source: Bureau van Dijk],www.cusimontenapoleone.com,1,0,1,10,6,10,YES,NO,NO
202,"MALALAN DRUZBA ZA PROIZVODNJO IN TRGOVINO Z ZLATOM IN DRAGIMI KAMNI, URARSTVO, OPTIKA, STARINARNICA, D.O.O., LJUBLJANA",SI,Slovénie,LJUBLJANA,,4777,Commerce de détail d'articles d'horlogerie et de bijouterie en magasin spécialisé,,,,,"malalan.si
malalan.eu/si",2,1,1,10,7,8,YES,NO,NO
203,M & G SRL UNIPERSONALE,IT,Italie,ROMA,CIRCONVALLAZIONE CORNELIA 113,4777,Commerce de détail d'articles d'horlogerie et de bijouterie en magasin spécialisé,,,COMMERCIO AL DETTAGLIO DI OROLOGI E ARTICOLI DI GIOIELLERIA E ARGE ERIA,,www.mgservice.biz,0,0,0,10,7,5,YES,NO,NO
204,NITTIS OU,EE,Estonie,"PEETRI ALEVIK, RAE VALD",,4772,Commerce de détail de chaussures et d'articles en cuir en magasin spécialisé,Engaged in the retail trade of footwear and other related products,Retail,,Retail sale of footwear and leather goods in specialised stores,ee.nsking.eu,1,-3,0,10,11,14,YES,NO,YES
205,PUNTO BLU S.P.A. L'INSEGNA RAPPRESENTATIVA DELLA DITTA E' PUNTO BLU,IT,Italie,LEGNAGO,VIALE EUROPA 38,4751,Commerce de détail de textiles en magasin spécialisé,Engaged in the retail sale of textiles and related products in Italy,Retail,"COMMERCIO AL DETTAGLIO DI TESSUTI PER L'ABBIGLIAMENTO, L'ARREDAMEN E DI BIANCHERIA PER LA CASA",Engaged in the retail sale of textiles and related products in Italy [source: Bureau van Dijk],"puntoblu.com
www.puntoblu.com",0,0,0,10,8,11,YES,NO,NO
206,DOCKYARD ISLANDS KERESKEDELMI ES SZOLGALTATO KORLATOLT FELELOSSEGU TARSASAG,HU,Hongrie,BUDAPEST,,4771,Commerce de détail d'habillement en magasin spécialisé,"Engaged in the retail sale of apparel, accessories and other textile products",Retail,,"Engaged in the retail sale of apparel, accessories and other textile products [source: Bureau van Dijk]","www.dcy.hu
www.dockyard.hu",0,1,0,10,9,10,YES,NO,NO
207,"EL CORTE INGLES, S.A. - SUCURSAL EM PORTUGAL",PT,Portugal,LISBOA,,4771,Commerce de détail d'habillement en magasin spécialisé,Engaged in the wholesale distribution of durable and nondurable goods,Wholesale,"Comércio a retalho de vestuário para adultos, em estabelecimentos especializados",Engaged in the wholesale distribution of durable and nondurable goods [source: Bureau van Dijk],www.sfera.com,0,-6,0,10,8,16,YES,NO,YES
208,CENTURIOR S.R.L.,IT,Italie,MILANO,CORSO VENEZIA 17,4771,Commerce de détail d'habillement en magasin spécialisé,Engaged in the retail distribution of general merchandise,Retail,COMMERCIO AL DETTAGLIO DI CONFEZIONI PER ADULTI,Engaged in the retail distribution of general merchandise [source: Bureau van Dijk],www.farfetch.com,0,-5,0,10,8,13,YES,NO,YES
209,"SANTOS & JUNIORES, S.A.",PT,Portugal,LISBOA,,4772,Commerce de détail de chaussures et d'articles en cuir en magasin spécialisé,Engaged in the retail sale of footwear and leather goods,Retail,Retalhista de calçado - 100%,Engaged in the retail sale of footwear and leather goods [source: Bureau van Dijk],"www.profonlinestore.com
www.prof.com.pt",1,0,1,10,8,10,YES,NO,NO
210,LINEA S.A.,GR,Grèce,ATHENS,,4771,Commerce de détail d'habillement en magasin spécialisé,Engaged in the retail sale of women's clothing and accessories in Greece,Retail,,Exclusive imports and trade of women's wear and accessories,www.lineapiu.gr,4,0,3,10,6,12,YES,NO,NO
211,MENICHINI MARIO E RENATO - S.P.A.,IT,Italie,ROMA,PIAZZA DI SPAGNA 1,4777,Commerce de détail d'articles d'horlogerie et de bijouterie en magasin spécialisé,Engaged in the retail distribution of jewellery,Retail,COMMERCIO AL DETTAGLIO DI OROLOGI E ARTICOLI DI GIOIELLERIA E ARGE ERIA,Engaged in the retail distribution of jewellery [source: Bureau van Dijk],www.menichinigioiellieri.it,1,1,0,10,9,6,YES,NO,NO
212,TEODOR OOD,BG,Bulgarie,SOFIA,"ZH.K. STORGOZIA, DO BL. 15",4771,Commerce de détail d'habillement en magasin spécialisé,Engaged in the retail distribution of men's clothing and accessories,Retail,,Engaged in the retail distribution of men's clothing and accessories [source: Bureau van Dijk],www.teodor.bg,2,0,1,10,7,9,YES,NO,NO
213,US FASHION STORE S.R.L.,IT,Italie,ROGNO,VIA SANTA RITA DA CASCIA 5,4771,Commerce de détail d'habillement en magasin spécialisé,,,COMMERCIO AL DETTAGLIO DI ARTICOLI DI ABBIGLIAMENTO,,www.usfashionstore.it,1,0,0,10,7,10,YES,NO,NO
214,MORETTO ABBIGLIAMENTO DI MORETTO GRAZIANO - S.R.L.,IT,Italie,CESSALTO,VIA MAGGIORE 193,4771,Commerce de détail d'habillement en magasin spécialisé,Engaged in the retail trade of clothing apparels,Retail,COMMERCIO AL DETTAGLIO DI CONFEZIONI PER ADULTI,Engaged in the retail trade of clothing apparels [source: Bureau van Dijk],"www.morettoabbigliamento.com
morettoshop.com",0,0,0,10,8,10,YES,NO,NO
215,MDL EOOD,BG,Bulgarie,SOFIA,,4771,Commerce de détail d'habillement en magasin spécialisé,Engaged in the retail sale and marketing of clothing and fashion apparel items,Retail,,Engaged in the retail sale and marketing of clothing and fashion apparel items [source: Bureau van Dijk],www.mdl.bg,0,0,0,10,8,12,YES,NO,NO
216,MAIKL I KO,RU,Fédération de Russie,SAINT-PETERSBURG,,4771,Commerce de détail d'habillement en magasin spécialisé,Engaged in wholesaling of miscellaneous non-durable goods,Wholesale,???????? ??????? ??????? ? ????????,"Sale of children clothes, footwear and toys",www.juniorshop.ru,1,0,1,10,7,14,YES,NO,NO
217,JACOBER,FR,France,LYON,,4777,Commerce de détail d'articles d'horlogerie et de bijouterie en magasin spécialisé,"Engaged in the retail sale of jewelry, watches, precious stones, and precious metals",Retail,"Toutes opérations commerciales, industrielles, achat, vente en gros, demi-gros, détail, importation, commission, courtage de tous produits et plus généralement exploitation de commerce d'horlogerie, bijouterie, joaillerie, orfèvrerie et petit électronique.","Engaged in the retail sale of jewelry, watches, precious stones, and precious metals [source: Bureau van Dijk]",www.silvana-jacober.ch,1,2,1,10,9,8,YES,NO,NO
218,GIOIELLERIA DUCA - SOCIETA' A RESPONSABILITA' LIMITATA,IT,Italie,ROMA,VIA DI VIGNA STELLUTI 151,4777,Commerce de détail d'articles d'horlogerie et de bijouterie en magasin spécialisé,,,COMMERCIO AL DETTAGLIO DI OROLOGI E ARTICOLI DI GIOIELLERIA E ARGE ERIA,,"ducagioielli.com
www.duca1962.com",0,0,0,10,11,12,YES,NO,NO
219,BEKLEIDUNGSFABRIK BESSMANN BREITENWORBIS GMBH & CO.KG,DE,Allemagne,BREITENWORBIS,,4771,Commerce de détail d'habillement en magasin spécialisé,Industrial company engaged in the operation and management of a chain of family clothing and accessories stores principally in Germany,Retail,"Eingetragener Gegenstand:
Handel mit Einzelhandelsgütern, insbesondere mit Bekleidungs-, Sport- und Schuhartikeln",Industrial company engaged in the operation and management of a chain of family clothing and accessories stores principally in Germany [source: Bureau van Dijk],www.bessmann.de,n.d.,n.d.,n.d.,9,11,14,NO,NO,#DIV/0!
220,G & G SPORT S.R.L.,IT,Italie,NAPOLI,VIA COLONNELLO CARLO LAHALLE 24/A,4771,Commerce de détail d'habillement en magasin spécialisé,,,COMMERCIO AL DETTAGLIO DI CONFEZIONI PER ADULTI,,www.ggteamwear.com,0,1,1,10,9,8,YES,NO,NO
221,ONIBROX S.R.L.,IT,Italie,NOLA,"PRESSO IL CIS,ISOLA 1,TORRE 1",4771,Commerce de détail d'habillement en magasin spécialisé,,,COMMERCIO AL DETTAGLIO DI ARTICOLI DI ABBIGLIAMENTO,,,2,0,2,10,6,10,YES,NO,NO
222,CASA FRUMOASA STORES SRL,RO,Roumanie,BUCURESTI SECTORUL 1,,4771,Commerce de détail d'habillement en magasin spécialisé,,,,,"casafrumoasa.ro
www.casafrumoasa.ro",0,1,0,10,7,7,YES,NO,NO
223,VENDRAMINI ABBIGLIAMENTO S.R.L.,IT,Italie,CASTELFRANCO VENETO,GALLERIA EUROPA 25,4771,Commerce de détail d'habillement en magasin spécialisé,Engaged in the retail sale of men's and boys ready-to-wear clothing and accessories,Retail,COMMERCIO AL DETTAGLIO DI ARTICOLI DI ABBIGLIAMENTO,Engaged in the retail sale of men's and boys ready-to-wear clothing and accessories [source: Bureau van Dijk],"vendraminiabbigliamento.it
www.vendraminiabbigliamento.it",2,1,2,10,8,11,YES,NO,NO
224,MIA MARA DOO,RS,Serbie,BEOGRAD (VRACAR),,4771,Commerce de détail d'habillement en magasin spécialisé,,,,Retail sale of clothing in specialised stores,miamara.rs,0,0,0,10,8,9,YES,NO,NO
225,PICK & CHOOSE AKTIEBOLAG,SE,Suède,MOLNDAL,,4771,Commerce de détail d'habillement en magasin spécialisé,Engaged in the retail sale of clothing and accessories,Retail,"Bolaget skall bedriva handel med och konsultuppdrg i konfektion,skor och textilier och därmed förenlig verksamhet.","Bolaget skall bedriva handel med och konsultuppdrg i konfektion,skor och textilier och darmed forenlig verksamhet.",www.pickchoose.se,0,0,0,10,8,8,YES,YES,
226,"SPORTINO, LDA",PT,Portugal,BOMBARRAL,,4772,Commerce de détail de chaussures et d'articles en cuir en magasin spécialisé,Engaged in the retail of shoes,Retail,"Comércio de artigos de desporto, pronto-a-vestir, sapataria, produtos eletrónicos, óculos e relógios e nas atividades de arrendamento e exploração de bens imobiliários (próprios ou arrendados), nomeadamente, edifícios residenciais e não residenciais (inclui espaços e instalações industriais, comerciais, etc.) e de terrenos",Engaged in the retail of shoes [source: Bureau van Dijk],www.sportino.pt,1,0,1,10,9,11,YES,NO,NO
227,LUISA,BE,Belgique,BRUXELLES,LOUIZALAAN 75,4771,Commerce de détail d'habillement en magasin spécialisé,Engaged in the retail trade of fashion accessories and related products,Retail,,Engaged in the retail trade of fashion accessories and related products [source: Bureau van Dijk],www.luisa.be,0,0,0,10,8,11,YES,YES,
228,DIARIO SRL,IT,Italie,VICENZA,CONTRA' PORTI 3,4771,Commerce de détail d'habillement en magasin spécialisé,,,COMMERCIO AL DETTAGLIO DI ARTICOLI DI ABBIGLIAMENTO,,"www.diariosrl.it
www.ilnuovodiario.com",0,0,0,10,8,9,YES,NO,NO
229,ROSSINI 1882 S.P.A.,IT,Italie,ROMA,VIA DI VILLA EMILIANI 48,4777,Commerce de détail d'articles d'horlogerie et de bijouterie en magasin spécialisé,"Engaged in the retail sale of jewelry, watches, precious stones, and precious metals",Retail,COMMERCIO AL DETTAGLIO DI OROLOGI E ARTICOLI DI GIOIELLERIA E ARGE ERIA,"Engaged in the retail sale of jewelry, watches, precious stones, and precious metals [source: Bureau van Dijk]",www.rossini-spa.it,1,0,1,10,7,8,YES,NO,NO
230,ROMA SERVICES,BE,Belgique,GRACE-BERLEUR,,4772,Commerce de détail de chaussures et d'articles en cuir en magasin spécialisé,Engaged in the retail trade of footwear and other related products,Retail,,Engaged in the retail trade of footwear and other related products [source: Bureau van Dijk],"www.romatransport.net.au
www.germainecollard.com/fr",0,0,0,10,8,10,YES,YES,
231,TIC S.R.L.,IT,Italie,FOLLONICA,VIA BICOCCHI 12,4771,Commerce de détail d'habillement en magasin spécialisé,,,"COMMERCIO AL DETTAGLIO DI BIANCHERIA PERSONALE, MAGLIERIA, CAMICIE",,www.tictac.it,0,0,0,10,7,8,YES,NO,NO
232,KAMEX II MLEK I KANIA SP.J.,PL,Pologne,CZESTOCHOWA,,4771,Commerce de détail d'habillement en magasin spécialisé,,,,,www.leecooper.pl,1,0,1,9,7,11,YES,NO,NO
233,VANBRUUN AB,SE,Suède,BORAS,SANDWALLS PLATS 13,4777,Commerce de détail d'articles d'horlogerie et de bijouterie en magasin spécialisé,,,"Företaget ska bedriva handel med ädelstenar och ädelmetaller.bolaget ska även bedriva tillverkning, omarbetning ochreparationer av ädelstenar och metaller samt därmed förenligverksamhet.","Foretaget ska bedriva handel med adelstenar och adelmetaller.bolaget ska aven bedriva tillverkning, omarbetning ochreparationer av adelstenar och metaller samt darmed forenligverksamhet.",vanbruun.com,1,1,0,9,6,5,YES,NO,NO
234,ELIS GROUP IMPEX SRL,RO,Roumanie,BUCURESTI SECTORUL 4,,4771,Commerce de détail d'habillement en magasin spécialisé,,,,,,2,1,1,9,7,5,YES,NO,NO
235,PACIFICO DISTRIBUZIONE S.R.L.,IT,Italie,NAPOLI,CIS DI NOLA ISOLA 2 LOTTO 234/235,4771,Commerce de détail d'habillement en magasin spécialisé,,,COMMERCIO AL DETTAGLIO DI ARTICOLI DI ABBIGLIAMENTO,,studiopacifico.com,1,0,1,9,6,10,YES,NO,NO
236,NITTIS SIA,LV,Lettonie,ROPAZU NOV.,BRIVIBAS GATVE 372,4772,Commerce de détail de chaussures et d'articles en cuir en magasin spécialisé,Engaged in the retail distribution of footwear,Retail,,Retail trade of footwear.,lv.nsking.eu,1,0,0,9,8,9,YES,NO,NO
237,"BEONTIME - COMERCIO DE RELOGIOS E ACESSORIOS, S.A.",PT,Portugal,LISBOA,,4777,Commerce de détail d'articles d'horlogerie et de bijouterie en magasin spécialisé,,,"Comércio, importação e exportação de relógios e acessórios, artigos de ourivesaria e joalharia/ fabricação e comercialização de bijutarias/ representação, distribuição e venda de marcas por grosso e a retalho/ prestação de serviços de consultoria de gestão e em negócios/ publicidade e marketing/ atividades de representação nos meios de comunicação, nacional, internacional e digital",,www.beontime.pt,1,0,0,9,6,8,YES,NO,NO
238,MAESTRO,FR,France,LYON,,4777,Commerce de détail d'articles d'horlogerie et de bijouterie en magasin spécialisé,,,"Création et fabrication d'articles de joaillerie et bijouterie, toutes opérations commerciales, industrielles, achat, vente en gros, demi-gros, détail, importation, commission, courtage, exploitation d'un fonds de commerce d'horlogerie bijouterie joaillerie orfèvrerie.",,"www.correodelmaestro.com
www.maestro-immobilier.com",1,1,0,9,7,8,YES,NO,NO
239,J F JOHANSSON SKOR AKTIEBOLAG,SE,Suède,VASTRA FROLUNDA,,4772,Commerce de détail de chaussures et d'articles en cuir en magasin spécialisé,Engaged in the retail sale and marketing of footwear products and leather goods,Retail,Bolaget ska driva skohandelsrörelse jämte därmed förenligverksamhet.,Bolaget ska driva skohandelsrorelse jamte darmed forenligverksamhet.,"johanssons.se
www.johanssons.se",0,-1,0,9,8,11,YES,YES,
240,CITOREL SL.,ES,Espagne,MADRID,,4777,Commerce de détail d'articles d'horlogerie et de bijouterie en magasin spécialisé,,,LA COMERCIALIZACION DE PRODUCTOS ROLEX CON CUMPLIMIENTO DEL CONTRATO DE DISTRIBUCION SELECTIVA ROLEX EN LOS CENTROS COMERCIALES DE EL CORTE INGLES SA,,citorel.pymes.com,2,1,2,9,5,11,YES,NO,NO
241,MATRANGA S.R.L.,IT,Italie,PALERMO,VIA RUGGIERO SETTIMO 56/56 A,4777,Commerce de détail d'articles d'horlogerie et de bijouterie en magasin spécialisé,"Engaged in the retail sale of jewelry, watches, precious stones, and precious metals",Retail,COMMERCIO AL DETTAGLIO DI OROLOGI E ARTICOLI DI GIOIELLERIA E ARGE ERIA,"Engaged in the retail sale of jewelry, watches, precious stones, and precious metals [source: Bureau van Dijk]",www.matranga.it,1,1,0,9,9,9,YES,NO,NO
242,SKOINVEST ALP AS,NO,Norvège,STJOERDAL,,4772,Commerce de détail de chaussures et d'articles en cuir en magasin spécialisé,Engaged in the sale of leather products in Nord-Trøndelag,Wholesale,HANDEL.,Engaged in the sale of leather products in Nord-Troendelag [source: Bureau van Dijk],,0,0,0,9,8,9,YES,NO,NO
243,DAL BEN ABBIGLIAMENTO S.P.A.,IT,Italie,MONASTIER DI TREVISO,VIA DON ORIONE 2,4771,Commerce de détail d'habillement en magasin spécialisé,,,COMMERCIO AL DETTAGLIO DI ARTICOLI DI ABBIGLIAMENTO,,www.dalben.it,0,0,0,9,6,8,YES,NO,NO
244,KETER BANCO METALLI - SOCIETA' A RESPONSABILITA' LIMITATA,IT,Italie,ROMA,VIA MERULANA 7,4777,Commerce de détail d'articles d'horlogerie et de bijouterie en magasin spécialisé,,,COMMERCIO AL DETTAGLIO DI OROLOGI E ARTICOLI DI GIOIELLERIA E ARGE ERIA,,www.ketercomprooro.it,0,0,0,9,11,8,YES,NO,NO
245,VERONESI GIULIO S.R.L.,IT,Italie,BOLOGNA,PIAZZA ENZO RE 1/H,4777,Commerce de détail d'articles d'horlogerie et de bijouterie en magasin spécialisé,Engaged in the manufacture and retail distribution of jewelry,Manufacturing; Retail,COMMERCIO AL DETTAGLIO DI OROLOGI E ARTICOLI DI GIOIELLERIA E ARGE ERIA,Engaged in the manufacture and retail distribution of jewelry [source: Bureau van Dijk],www.giulioveronesi.it,1,0,1,9,7,8,YES,NO,NO
246,FERDINANDO VERONESI & FIGLI - S.R.L.,IT,Italie,BOLOGNA,PIAZZA MAGGIORE 4/A,4777,Commerce de détail d'articles d'horlogerie et de bijouterie en magasin spécialisé,Engaged in the retail distribution of jewellery,Retail,COMMERCIO AL DETTAGLIO DI OROLOGI E ARTICOLI DI GIOIELLERIA E ARGE ERIA,Engaged in the retail distribution of jewellery [source: Bureau van Dijk],"ferdinandoveronesi.com
www.ferdinandoveronesi.com",2,1,2,9,6,7,YES,NO,NO
247,BECHA - B EOOD,BG,Bulgarie,SOFIA,,4777,Commerce de détail d'articles d'horlogerie et de bijouterie en magasin spécialisé,,,,,,1,1,1,9,7,7,YES,NO,NO
248,PALLAGROSI SHOES S.R.L.,IT,Italie,ROMA,VIA FONTANA DELL'OSTE 78/C,4772,Commerce de détail de chaussures et d'articles en cuir en magasin spécialisé,"Engaged in the retail of high quality, fashionable footwear for men, women and kids",Retail,COMMERCIO AL DETTAGLIO DI CALZATURE E ACCESSORI,"Engaged in the retail of high quality, fashionable footwear for men, women and kids [source: Bureau van Dijk]",www.gullivermoda.com,1,0,1,9,7,9,YES,NO,NO
249,LO SCRIGNO S.R.L.,IT,Italie,OSTUNI,VIALE POLA 32,4777,Commerce de détail d'articles d'horlogerie et de bijouterie en magasin spécialisé,Engaged in the management and operation of jewelry stores,Retail,COMMERCIO AL DETTAGLIO DI OROLOGI E ARTICOLI DI GIOIELLERIA E ARGE ERIA,Engaged in the management and operation of jewelry stores [source: Bureau van Dijk],"www.gioiellerialoscrigno.it
www.loscrignodelbuongustaio.it",1,1,1,9,8,9,YES,NO,NO
250,GIOIELLERIA ANGELINI S.R.L.,IT,Italie,SARONNO,PIAZZA LIBERTA' 10,4777,Commerce de détail d'articles d'horlogerie et de bijouterie en magasin spécialisé,,,COMMERCIO AL DETTAGLIO DI OROLOGI E ARTICOLI DI GIOIELLERIA E ARGE ERIA,,www.gioielleria-angelini.com,0,0,0,9,8,9,YES,NO,NO
251,DELIBERTI G.2 S.R.L.,IT,Italie,NAPOLI,VIA JOHN FITZGERALD KENNEDY 5,4772,Commerce de détail de chaussures et d'articles en cuir en magasin spécialisé,Engaged in the retail trade and marketing of shoes and footwear products as well as leather items,Retail,COMMERCIO AL DETTAGLIO DI CALZATURE E ACCESSORI,Engaged in the retail trade and marketing of shoes and footwear products as well as leather items [source: Bureau van Dijk],"www.deliberti.it
deliberti.it",0,0,0,9,6,7,YES,NO,NO
252,GALERIAS WEHBE SL,ES,Espagne,SAN CRISTOBAL DE LA LAGUNA,,4771,Commerce de détail d'habillement en magasin spécialisé,"Operates as a clothing store engaged in the retail distribution of a general line of new clothing for men, women, and children",Retail,"Comercio al por menor de prendas de vestir y calzados de todo tipo, señora, caballero, y niño.","Operates as a clothing store engaged in the retail distribution of a general line of new clothing for men, women, and children [source: Bureau van Dijk]",www.wehbeonline.com,-1,-3,-3,9,8,16,YES,YES,
253,BRANDO KIDS AS,NO,Norvège,TRONDHEIM,POSTBOKS 4074 BAKKLANDET,4771,Commerce de détail d'habillement en magasin spécialisé,"Engaged in the retail distribution of knitted and crocheted apparel for men, women, and children",Retail,BUTIKKHANDEL MED TEKSTIL.,"Engaged in the retail distribution of knitted and crocheted apparel for men, women, and children [source: Bureau van Dijk]",brandokids.com.au,0,0,0,9,8,10,YES,NO,NO
254,BENICOM S.R.L.,IT,Italie,ERBA,VIALE PREALPI 20,4772,Commerce de détail de chaussures et d'articles en cuir en magasin spécialisé,Engaged in the retail sale of apparel products,Retail,COMMERCIO AL DETTAGLIO DI CALZATURE E ACCESSORI,Engaged in the retail sale of apparel products [source: Bureau van Dijk],www.taurussport.com,2,1,0,9,6,8,YES,NO,NO
255,GUCAMASI SA,ES,Espagne,PONTEVEDRA,,4771,Commerce de détail d'habillement en magasin spécialisé,"Operates as a clothing store engaged in the retail distribution of a general line of new clothing and a range of accessories for men, women, and children",Retail,Comercio al por menor de tejidos textiles para prendas de vestir.,"Operates as a clothing store engaged in the retail distribution of a general line of new clothing and a range of accessories for men, women, and children [source: Bureau van Dijk]",,1,0,1,9,8,13,YES,NO,NO
256,VEGAS S.R.L.,IT,Italie,TERRICCIOLA,VIA SALAIOLA 35/37,4771,Commerce de détail d'habillement en magasin spécialisé,Engaged in the retail distribution of knitted and crocheted apparel,Retail,COMMERCIO AL DETTAGLIO DI ARTICOLI DI ABBIGLIAMENTO,Engaged in the retail distribution of knitted and crocheted apparel [source: Bureau van Dijk],"www.manginimagazzini.it
shop.manginimagazzini.it",0,0,0,9,6,7,YES,NO,NO
257,SA ROUMEGOUX & GILLES,FR,France,GRADIGNAN,,4771,Commerce de détail d'habillement en magasin spécialisé,Engaged in the wholesale of clothing and footwear,Wholesale,"Confection, bonneterie, tissus, chapellerie, mercerie, chaussures, vente de mobilier de puericulture : articles de sport, maroquinerie, linge de maison, gadgets, bibelots, jouets, cadeaux, articles de bazar, articles pour la maison, a titre sedentaire et ambulant",Engaged in the wholesale of clothing and footwear [source: Bureau van Dijk],www.roumegouxetgilles.com,1,0,0,9,7,9,YES,NO,NO
258,FORTE S.R.L.,IT,Italie,TREVIGLIO,VIALE CESARE BATTISTI 29,4772,Commerce de détail de chaussures et d'articles en cuir en magasin spécialisé,,,COMMERCIO AL DETTAGLIO DI CALZATURE E ACCESSORI,,"www.pozzilei.it
fortesrl.it",1,0,0,8,8,9,YES,NO,NO
259,UAB BALTIJOS ARSENALAS,LT,Lituanie,KAUNO M.,,4771,Commerce de détail d'habillement en magasin spécialisé,,,,,www.aic.lt,1,0,0,8,7,7,YES,NO,NO
260,COMERCIO Y DISTRIBUCION DE TEJIDOS DEL MEDITERRANEO SL,ES,Espagne,ONTINYENT,,4751,Commerce de détail de textiles en magasin spécialisé,,,Comercio menor de ropa de hogar.,,www.cndfabrics.com,0,0,0,8,6,6,YES,NO,NO
261,RUBINO KIDS S.R.L.,IT,Italie,AVERSA,PIAZZA VITTORIO EMANUELE 61,4771,Commerce de détail d'habillement en magasin spécialisé,,,COMMERCIO AL DETTAGLIO DI CONFEZIONI PER BAMBINI E NEONATI,,"www.rubinobimbi.it
www.rubinokids.it",1,0,0,8,8,5,YES,NO,NO
262,PIKE SRL,IT,Italie,POGLIANO MILANESE,VIA SAN GIOVANNI BOSCO 24,4771,Commerce de détail d'habillement en magasin spécialisé,,,COMMERCIO AL DETTAGLIO DI ARTICOLI DI ABBIGLIAMENTO,,www.hangar107.it,0,0,0,8,6,8,YES,NO,NO
263,LE NOIR S.R.L.,IT,Italie,CONEGLIANO,VIA CAMILLO BENSO CONTE DI CAVOUR 4/C,4771,Commerce de détail d'habillement en magasin spécialisé,Engaged in the retail distribution of knitted and crocheted apparel,Retail,COMMERCIO AL DETTAGLIO DI ARTICOLI DI ABBIGLIAMENTO,Engaged in the retail distribution of knitted and crocheted apparel [source: Bureau van Dijk],www.lenoirboutique.it,0,0,0,8,7,8,YES,NO,YES
264,GUCCI BELGIUM,BE,Belgique,BRUSSEL,BOULEVARD DE WATERLOO 49,4771,Commerce de détail d'habillement en magasin spécialisé,,,,,www.daelenberghutte.be,0,0,0,8,8,10,YES,NO,NO
265,ERRANI S.R.L.,IT,Italie,FAENZA,VIA EVANGELISTA TORRICELLI 25,4777,Commerce de détail d'articles d'horlogerie et de bijouterie en magasin spécialisé,Engaged in the retail distribution of watches and jewelry,Retail,COMMERCIO AL DETTAGLIO DI OROLOGI E ARTICOLI DI GIOIELLERIA E ARGE ERIA,Engaged in the retail distribution of watches and jewelry [source: Bureau van Dijk],"www.gioielleriaerrani.it
www.erranijobs.com",3,1,0,8,7,4,YES,NO,NO
266,MANGANARO RAFFAELE & C. - S.R.L.,IT,Italie,CATANIA,VIALE VITTORIO VENETO 287,4771,Commerce de détail d'habillement en magasin spécialisé,Engaged in the sale of motorcycle and motorcycle parts and supplies,Retail; Services,COMMERCIO AL DETTAGLIO DI ARTICOLI DI ABBIGLIAMENTO,Engaged in the sale of motorcycle and motorcycle parts and supplies [source: Bureau van Dijk],www.manganaro.it,0,0,0,8,5,6,YES,NO,NO
267,FRANCESCO ESPOSITO GIOIELLERIE S.R.L.,IT,Italie,NAPOLI,PIAZZA VANVITELLI 5,4777,Commerce de détail d'articles d'horlogerie et de bijouterie en magasin spécialisé,,,COMMERCIO AL DETTAGLIO DI OROLOGI E ARTICOLI DI GIOIELLERIA E ARGE ERIA,,,0,0,0,8,5,8,YES,NO,NO
268,GONZATO S.R.L.,IT,Italie,COLOGNOLA AI COLLI,VIA STRA' 166,4772,Commerce de détail de chaussures et d'articles en cuir en magasin spécialisé,Engaged in the retail sale and marketing of footwear and clothing,Retail,COMMERCIO AL DETTAGLIO DI CALZATURE E ACCESSORI,Engaged in the retail sale and marketing of footwear and clothing [source: Bureau van Dijk],"www.gonzatostyle.it
gonzatostyle.it",1,0,1,8,7,8,YES,NO,NO
269,"COMERCIO TEXTIL ATLANTIC SUD, LDA",PT,Portugal,RIO COVO (SANTA EULALIA),,4771,Commerce de détail d'habillement en magasin spécialisé,,,"Organização, criação, produção e comércio de vestuário têxtil desportivo, acessórios e souvenirs turísticos. Comércio a retalho de bebidas (águas, refrigerantes e licores) e enlatados (sardinhas, atum e todo o tipo de conservas). Comércio a retalho de perfumes, artigos de cosmética e preservativos. Comércio a retalho de utensílios eletrónicos (carregadores, adaptadores e todo o tipo de periféricos)",,www.forcaportugal.com,0,-1,1,8,4,10,YES,NO,NO
270,EMPORIO COM SRL,RO,Roumanie,CONSTANTA,,4771,Commerce de détail d'habillement en magasin spécialisé,Engaged in the retail sale of clothing products,Retail,,Engaged in the retail sale of clothing products [source: Bureau van Dijk],,0,0,0,8,7,16,YES,NO,NO
271,"PIRES & IRMAO, LDA",PT,Portugal,BRAGA,,4777,Commerce de détail d'articles d'horlogerie et de bijouterie en magasin spécialisé,"Engaged in the wholesale distribution of the watches, clocks and electronic items for upscale consumer market and promotion market",Wholesale,Retalhista de artigos de ourivesaria e relojoaria - 100%,"Engaged in the wholesale distribution of the watches, clocks and electronic items for upscale consumer market and promotion market [source: Bureau van Dijk]","www.piresjoalheiros.pt
piresjoalheiros.pt",1,1,1,8,8,11,YES,NO,NO
272,RAMIKA PRO OY,FI,Finlande,VANTAA,,4771,Commerce de détail d'habillement en magasin spécialisé,,,"Yhtiön toimiala on Lastentarvikkeiden vähittäiskauppa-, vuokraus-, tuonti-, vienti sekä agentuuritoiminta. Yhtiö harjoittaa myös arvopaperikauppaa- ja kiinteistöjen omistusta, vuokrausta, välitystä ja kauppaa.","Yhtion toimiala on Lastentarvikkeiden vahittaiskauppa-, vuokraus-, tuonti-, vienti seka agentuuritoiminta. Yhtio harjoittaa myos arvopaperikauppaa- ja kiinteistojen omistusta, vuokrausta, valitysta ja kauppaa.",www.lastenturva.fi,1,1,0,8,6,5,YES,NO,NO
273,TAMAR Y ARIMA S.L.,ES,Espagne,SANTANDER,,4771,Commerce de détail d'habillement en magasin spécialisé,,,Venta de prendas de vestir y complementos para bebes.,,www.donacarmen.es,1,0,0,8,6,6,YES,NO,NO
274,P. BASTIANI S.R.L.,IT,Italie,TRIESTE,VIA SAN NICOLO' 19,4777,Commerce de détail d'articles d'horlogerie et de bijouterie en magasin spécialisé,,,COMMERCIO AL DETTAGLIO DI OROLOGI E ARTICOLI DI GIOIELLERIA E ARGE ERIA,,www.orologeriabastiani.com,1,0,0,8,6,7,YES,NO,NO
275,JARL SANDIN & SONER GULD OCH SILVER AKTIEBOLAG,SE,Suède,GOTEBORG,,4777,Commerce de détail d'articles d'horlogerie et de bijouterie en magasin spécialisé,Engaged in the retail sale of jewelry and related articles,Retail,Bolaget skall bedriva detaljhandel med ädelmetaller och därmedförenlig verksamhet.,Bolaget skall bedriva detaljhandel med adelmetaller och darmedforenlig verksamhet.,www.jarlsandin.se,0,0,0,8,6,7,YES,NO,NO
276,GIOIELLERIE VERONELLI S.R.L.,IT,Italie,LURAGO D'ERBA,VIA ROMA 64,4777,Commerce de détail d'articles d'horlogerie et de bijouterie en magasin spécialisé,,,COMMERCIO AL DETTAGLIO DI OROLOGI E ARTICOLI DI GIOIELLERIA E ARGE ERIA,,www.veronelligioielli.it,2,2,2,8,6,7,YES,NO,NO
277,MINIPRIX SRL,RO,Roumanie,ORAS OTOPENI,,4771,Commerce de détail d'habillement en magasin spécialisé,Engaged in the retail distribution of ready-made clothing,Retail,,Engaged in the retail distribution of ready-made clothing [source: Bureau van Dijk],www.miniprix.ro,1,0,0,8,7,12,YES,NO,NO
278,"BOM CALCADO, S.A.",PT,Portugal,LEIRIA,,4772,Commerce de détail de chaussures et d'articles en cuir en magasin spécialisé,Engaged in the retail sale of footwear,Retail,"Comércio a retalho de calçado, em estabelecimentos especializados",Engaged in the retail sale of footwear [source: Bureau van Dijk],"www.stara.pt
stara.pt",0,-1,-1,8,8,12,YES,YES,
279,SWAP S.R.L.,IT,Italie,NAPOLI,PIAZZA DEI MARTIRI 58,4777,Commerce de détail d'articles d'horlogerie et de bijouterie en magasin spécialisé,,,COMMERCIO AL DETTAGLIO DI OROLOGI E ARTICOLI DI GIOIELLERIA E ARGE ERIA,,en.swapparty.com,1,0,0,8,6,7,YES,NO,NO
280,MAP PRESTIGIACOMO MODE - S.R.L.,IT,Italie,TRAPANI,VIA ANTONINO TURRETTA 3,4771,Commerce de détail d'habillement en magasin spécialisé,Engaged in the retail of clothing products and accessories,Retail,COMMERCIO AL DETTAGLIO DI ARTICOLI DI ABBIGLIAMENTO,Engaged in the retail of clothing products and accessories [source: Bureau van Dijk],"www.idressmap.com
www.prestigiacomomode.it
www.idressmap.it",0,-4,0,8,7,10,YES,NO,YES
281,ARYA SRL,IT,Italie,PESCHIERA BORROMEO,VIA DELLA LIBERAZIONE 43,4771,Commerce de détail d'habillement en magasin spécialisé,,,"COMMERCIO AL DETTAGLIO DI BIANCHERIA PERSONALE, MAGLIERIA, CAMICIE",,www.aryasrl.it,0,0,0,8,6,8,YES,NO,NO
282,GIOIELLI DI MENICHELLI FRANCO & C. SRL,IT,Italie,VITERBO,PIAZZA GIUSEPPE VERDI 22,4777,Commerce de détail d'articles d'horlogerie et de bijouterie en magasin spécialisé,Engaged in the sale of jewelry or precious stones,Retail,COMMERCIO AL DETTAGLIO DI OROLOGI E ARTICOLI DI GIOIELLERIA E ARGE ERIA,Engaged in the sale of jewelry or precious stones [source: Bureau van Dijk],www.menichelli1912.it,1,1,1,8,6,7,YES,NO,NO
283,DANIEL MOSKOU,RU,Fédération de Russie,MOSCOW,,4751,Commerce de détail de textiles en magasin spécialisé,Engaged in the retail trade and marketing of textile products,Retail,,Engaged in the retail trade and marketing of textile products [source: Bureau van Dijk],,0,0,0,8,6,9,YES,NO,NO
284,E-SPACE S.R.L.,IT,Italie,UDINE,VIALE TRICESIMO 187,4771,Commerce de détail d'habillement en magasin spécialisé,Engaged in the retail sale of clothing in specialised stores,Retail,COMMERCIO AL DETTAGLIO DI ARTICOLI DI ABBIGLIAMENTO,Engaged in the retail sale of clothing in specialised stores [source: Bureau van Dijk],"www.e-space.it
www.espacesrl.com",1,-1,0,8,5,8,YES,NO,NO
285,PEPPA S.R.L.,IT,Italie,CASORATE PRIMO,VIA S. PROTASO 7,4771,Commerce de détail d'habillement en magasin spécialisé,,,COMMERCIO AL DETTAGLIO DI ARTICOLI DI ABBIGLIAMENTO,,www.reclamesc.com,1,0,0,8,6,5,YES,NO,NO
286,WUNDERWEAR A/S,DK,Danemark,KGSLYNGBY,,4771,Commerce de détail d'habillement en magasin spécialisé,Engaged in the retail sale of clothing in specialized stores,Retail,,Engaged in the retail sale of clothing in specialized stores [source: Bureau van Dijk],www.wunderwear.dk,1,0,0,8,6,9,YES,NO,NO
287,"PASSO, A.S.",SK,Slovaquie,BRATISLAVA,,4777,Commerce de détail d'articles d'horlogerie et de bijouterie en magasin spécialisé,"Retail sale of jewelry, watches, precious stones, and precious metals",Retail,,"Retail sale of jewelry, watches, precious stones, and precious metals [source: Bureau van Dijk]",www.sheron.sk,2,1,1,8,7,7,YES,NO,NO
288,DEPORTES IRABIA SL,ES,Espagne,PAMPLONA/IRUNA,,4771,Commerce de détail d'habillement en magasin spécialisé,Engaged in the wholesale trade of clothing and accessories,Wholesale,Comercio mayor de todo tipo de artículos deportivos,Engaged in the wholesale trade of clothing and accessories [source: Bureau van Dijk],"www.intersport.es
deportes-irabia.com",0,0,0,8,7,8,YES,NO,YES
289,ABATEX A,BE,Belgique,SART-LEZ-SPA,,4764,Commerce de détail d'articles de sport en magasin spécialisé,,,,,abatex.be,0,0,1,8,5,6,YES,NO,NO
290,GIACOBAZZI GIOIELLI S.R.L.,IT,Italie,BOLOGNA,VIA SAN FELICE 14/A,4777,Commerce de détail d'articles d'horlogerie et de bijouterie en magasin spécialisé,,,COMMERCIO AL DETTAGLIO DI OROLOGI E ARTICOLI DI GIOIELLERIA E ARGE ERIA,,www.giacobazzigioielli.it,0,0,0,8,5,5,YES,NO,NO
291,P M C,FR,France,BERCK,CENTRE COMMERCIAL CARREFOUR,4771,Commerce de détail d'habillement en magasin spécialisé,,,Commerce et réparation de tous articles et matériels de sports et de loisirs.,,"www.magasin-abyss.com
fiaf.org",1,0,0,8,7,8,YES,NO,NO
292,SCOPAGIOIELLI S.R.L.,IT,Italie,ROVIGO,PIAZZA VITTORIO EMANUELE II 19,4777,Commerce de détail d'articles d'horlogerie et de bijouterie en magasin spécialisé,"Engaged in the retail distribution of a range of jewelry and other related products; and provision of engraving, personalization, and customization services, as well as jewelry repair services",Retail; Services,COMMERCIO AL DETTAGLIO DI OROLOGI E ARTICOLI DI GIOIELLERIA E ARGE ERIA,"Engaged in the retail distribution of a range of jewelry and other related products; and provision of engraving, personalization, and customization services, as well as jewelry repair services [source: Bureau van Dijk]","www.scopagioielli.com
scopagioielli.com",1,0,0,8,5,5,YES,NO,NO
293,PASQUALI DOMENICI SOCIETA' A RESPONSABILITA' LIMITATA,IT,Italie,VIAREGGIO,VIA CESARE BATTISTI 159/161,4777,Commerce de détail d'articles d'horlogerie et de bijouterie en magasin spécialisé,,,COMMERCIO AL DETTAGLIO DI OROLOGI E ARTICOLI DI GIOIELLERIA E ARGE ERIA,,www.pasqualidomenici.it,0,0,0,8,7,5,YES,NO,NO
294,8 MARZO S.R.L.,IT,Italie,CASIER,VIA ENRICO BARONE 1 C-D,4771,Commerce de détail d'habillement en magasin spécialisé,,,COMMERCIO AL DETTAGLIO DI ARTICOLI DI ABBIGLIAMENTO,,www.nanaitalianheart.com,0,0,0,8,6,9,YES,NO,NO
295,MONTRES & BIJOUX S.R.L.,IT,Italie,GENOVA,PIAZZA RAFFAELE DE FERRARI 3/R,4777,Commerce de détail d'articles d'horlogerie et de bijouterie en magasin spécialisé,Engaged in the organization of worldwide trade fairs,Services,"DETTAGLIO DI OREFICERIA, OROLOGERIA E ARTICOLI DA REGALO",Engaged in the organization of worldwide trade fairs [source: Bureau van Dijk],"www.montresbijoux.com
montresbijoux.com",2,1,1,8,5,6,YES,NO,NO
296,JOYERIA CALVO MACIAS A CORUNA SL,ES,Espagne,A CORUNA,,4777,Commerce de détail d'articles d'horlogerie et de bijouterie en magasin spécialisé,,,Comercio al por menor de artículos de relojería y joyería.,,www.joyeriacalvo.com,0,0,0,8,6,6,YES,NO,NO
297,OLD ENGLAND S.R.L.,IT,Italie,MIRANO,VIA GUGLIELMO MARCONI 21,4771,Commerce de détail d'habillement en magasin spécialisé,Engaged in the retail sale of apparel,Retail,COMMERCIO AL DETTAGLIO DI ARTICOLI DI ABBIGLIAMENTO,Engaged in the retail sale of apparel [source: Bureau van Dijk],www.xetraitalia.it,0,0,0,8,6,11,YES,NO,YES
298,"MASALVES - CALCADO UNIPESSOAL, LDA",PT,Portugal,FELGUEIRAS,,4772,Commerce de détail de chaussures et d'articles en cuir en magasin spécialisé,Engaged in the wholesale distribution of men's and boys' clothing and furnishings,Wholesale,"Comércio a retalho de calçado, em estabelecimentos especializados/ Comércio por grosso de calçado/ Comércio a retalho de marroquinaria e artigos de viagem, em estabelecimentos especializados",Engaged in the wholesale distribution of men's and boys' clothing and furnishings [source: Bureau van Dijk],"www.manuelalves.pt
manuelalves.pt",0,0,0,8,7,10,YES,NO,NO
299,AMO DIZAJN JJ D.O.O.,HR,Croatie,ZAGREB,,4771,Commerce de détail d'habillement en magasin spécialisé,,,,,,0,-1,0,8,6,9,YES,YES,
300,DAD & SONS S.R.L.,IT,Italie,NAPOLI,VIA TOLEDO 418,4771,Commerce de détail d'habillement en magasin spécialisé,,,COMMERCIO AL DETTAGLIO DI CONFEZIONI PER ADULTI,,,1,0,0,8,5,9,YES,NO,NO
301,MARTA SRL,IT,Italie,MONTICELLO CONTE OTTO,VIA VENEZIA 5,4771,Commerce de détail d'habillement en magasin spécialisé,An Italy based enterprise engaged in the manufacture and distribution of clothing and other related products,Manufacturing; Wholesale,"COMMERCIO AL DETTAGLIO DI BIANCHERIA PERSONALE, MAGLIERIA, CAMICIE",An Italy based enterprise engaged in the manufacture and distribution of clothing and other related products [source: Bureau van Dijk],www.martait.it,1,1,0,7,6,7,YES,NO,NO
302,CONAN REY SA,ES,Espagne,MADRID,,4771,Commerce de détail d'habillement en magasin spécialisé,"Engaged in the wholesale distribution of clothing, footwear, and leather goods",Wholesale,Comercio al por menor de prendas de vestir de marcas de lujo y gestión de tienda física y on line.,"Engaged in the wholesale distribution of clothing, footwear, and leather goods [source: Bureau van Dijk]",www.ekseption.com,0,0,0,7,7,7,YES,YES,
303,BB NEW LOOK D.O.O. MOSTAR,BA,Bosnie-Herzégovine,MOSTAR,,4771,Commerce de détail d'habillement en magasin spécialisé,,,,"Retail sale of footwear;Retail sale of men's and women's assemblies;Trade in household goods;Importer and distributor of fashion brands for clothing and footwear: Bugatti, Fynch Hatton, Gant, Lacoste, MAC, Pepe Jeans, Pierre Cardin, Ralph Lauren, Esprit, s.Oliver, Marco Tozzi, Skechers, U.S. Polo Assn, Jack & Jones etc.",www.retrohome.ba,0,0,1,7,6,8,YES,NO,NO
304,MAT - STAR BG EOOD,BG,Bulgarie,MIROVYANE,,4772,Commerce de détail de chaussures et d'articles en cuir en magasin spécialisé,Engaged in the retail sale of footwear,Retail,,Engaged in the retail sale of footwear [source: Bureau van Dijk],www.matstar.bg,2,1,1,7,6,8,YES,NO,NO
305,EUROFESHN TREJD UV IZ SKOPJE DOO,MK,Macédoine du Nord,SKOPJE,,4771,Commerce de détail d'habillement en magasin spécialisé,,,,trade in clothes,,1,0,0,7,6,6,YES,NO,NO
306,G&G.PL SP. Z O.O. SP.K.,PL,Pologne,WARSZAWA,,4771,Commerce de détail d'habillement en magasin spécialisé,Primarily engaged in the wholesale of clothing and footwear products,Wholesale,,"Trade: outwear, footwear",www.terranova-on-line.com,1,0,1,7,7,19,YES,NO,NO
307,GIOIELLERIA WARGAS SISTI DEI F.LLI MELANI S.R.L.,IT,Italie,ANCONA,CORSO GIUSEPPE GARIBALDI 39,4777,Commerce de détail d'articles d'horlogerie et de bijouterie en magasin spécialisé,"Engaged in the manufacture, repair and retail sale of jewelry products",Manufacturing,COMMERCIO AL DETTAGLIO DI OROLOGI E ARTICOLI DI GIOIELLERIA E ARGE ERIA,"Engaged in the manufacture, repair and retail sale of jewelry products [source: Bureau van Dijk]","wargasisti.com
gioielleriawargasisti.com",0,0,0,7,6,6,YES,NO,NO
308,SKLEP JUBILERSKI SEZAM BOGDAN BUCZEK,PL,Pologne,STARY SACZ,,4777,Commerce de détail d'articles d'horlogerie et de bijouterie en magasin spécialisé,,,,,www.jubilersezam.pl,1,1,1,7,6,7,YES,NO,NO
309,GLN S.R.L.,IT,Italie,TARANTO,VIA PRINCIPE AMEDEO 54,4771,Commerce de détail d'habillement en magasin spécialisé,,,COMMERCIO AL DETTAGLIO DI ARTICOLI DI ABBIGLIAMENTO,,,0,0,0,7,6,6,YES,NO,NO
310,MALALAN D.O.O.,HR,Croatie,ZAGREB,,4777,Commerce de détail d'articles d'horlogerie et de bijouterie en magasin spécialisé,,,,,malalan.si,2,1,1,7,5,5,YES,NO,NO
311,SHOE HOUSE OY,FI,Finlande,PIRKKALA,,4772,Commerce de détail de chaussures et d'articles en cuir en magasin spécialisé,,,"Yhtiön toimialana on sijoitus-, kehitys- ja rahoitusyhtiönä toimiminen, toimisto- ja hallinnollisten palveluiden tuottaminen, vuokraus, välitys ja kauppa sekä liikkeenjohdon, sijoitustoiminnan, hallinnon ja markkinoinnin koulutus ja konsultointi, kiinteistöjen, asunto-, kiinteistö-, loma- ja peliosakkeiden, osuuksien ja oikeuksien omistaminen, hallinnointi, osto, myynti ja vuokraus, arvopaperikauppa, isännöintitoiminta, kiinteistö- ja siivouspalvelutoiminta, päivittäistavaroiden kauppa, vienti ja tuonti, tilitoimistotoiminta, kuljetuspalvelut, vaatteiden ja tekstiilien, kodin käyttötavaroiden, tietotekniikan, oheislaitteiden, ohjelmistojen ja tarvikkeiden osto, myynti, vuokraus, maahantuonti ja vienti sekä alaan kuuluva konsultointi, mietojen alkoholijuomien ja oluiden maahantuonti ja vienti sekä kauppa, ravintolatoiminta, vapaa-ajan tavaroiden vienti, tuonti, vuokraus, osto ja myynti, autojen osto, myynti, vuokraus, tuonti ja vienti. Lisäksi yhtiön toimialaan kuuluu kenkä- ja vaatetavaroiden maahantuonti, tukku- ja vähittäismyynti, huolinta sekä tavaramerkkien rakentaminen, kenkä- ja vaatealan sekä muiden alojen franchising-toiminnan ja ketjukonseptien kehittäminen, tuotteistaminen, myyminen sekä liiketoiminnan käynnistäminen ja toiminnan ylläpitäminen. Toimialana on lisäksi franchising- sekä ketjutoiminnan ja vähittäiskaupan alan konsultointi ja koulutustoiminta.","Yhtion toimialana on sijoitus-, kehitys- ja rahoitusyhtiona toimiminen, toimisto- ja hallinnollisten palveluiden tuottaminen, vuokraus, valitys ja kauppa seka liikkeenjohdon, sijoitustoiminnan, hallinnon ja markkinoinnin koulutus ja konsultointi, kiinteistojen, asunto-, kiinteisto-, loma- ja peliosakkeiden, osuuksien ja oikeuksien omistaminen, hallinnointi, osto, myynti ja vuokraus, arvopaperikauppa, isannointitoiminta, kiinteisto- ja siivouspalvelutoiminta, paivittaistavaroiden kauppa, vienti ja tuonti, tilitoimistotoiminta, kuljetuspalvelut, vaatteiden ja tekstiilien, kodin kayttotavaroiden, tietotekniikan, oheislaitteiden, ohjelmistojen ja tarvikkeiden osto, myynti, vuokraus, maahantuonti ja vienti seka alaan kuuluva konsultointi, mietojen alkoholijuomien ja oluiden maahantuonti ja vienti seka kauppa, ravintolatoiminta, vapaa-ajan tavaroiden vienti, tuonti, vuokraus, osto ja myynti, autojen osto, myynti, vuokraus, tuonti ja vienti. Lisaksi yhtion toimialaan kuuluu kenka- ja vaatetavaroiden maahantuonti, tukku- ja vahittaismyynti, huolinta seka tavaramerkkien rakentaminen, kenka- ja vaatealan seka muiden alojen franchising-toiminnan ja ketjukonseptien kehittaminen, tuotteistaminen, myyminen seka liiketoiminnan kaynnistaminen ja toiminnan yllapitaminen. Toimialana on lisaksi franchising- seka ketjutoiminnan ja vahittaiskaupan alan konsultointi ja koulutustoiminta.","www.clickshoes.fi
veska.fi",1,0,0,7,5,6,YES,NO,NO
312,PASS COMPANY S.R.L. (CON SIGLA: PASS S.R.L. ),IT,Italie,MONTAGNANA,VIA DELL'INDUSTRIA 1/2,4771,Commerce de détail d'habillement en magasin spécialisé,Engaged in the operation and management of a family clothing store,Retail,COMMERCIO AL DETTAGLIO DI ARTICOLI DI ABBIGLIAMENTO,Engaged in the operation and management of a family clothing store [source: Bureau van Dijk],www.galantemontagnana.it,0,0,0,7,6,7,YES,NO,YES
313,LUIGI VERGA OROLOGI & C. SRL,IT,Italie,MILANO,LARGO SETTIMIO SEVERO 2,4777,Commerce de détail d'articles d'horlogerie et de bijouterie en magasin spécialisé,Engaged in providing repair and maintenance of watches and other personal goods,Services,COMMERCIO AL DETTAGLIO DI OROLOGI E ARTICOLI DI GIOIELLERIA E ARGE ERIA,Engaged in providing repair and maintenance of watches and other personal goods [source: Bureau van Dijk],www.vergaorologi.it,1,0,0,7,5,7,YES,NO,NO
314,PICCINI UGO E FIGLIO - S.P.A.,IT,Italie,FIRENZE,VIA POR SANTA MARIA 9 R-11 R,4777,Commerce de détail d'articles d'horlogerie et de bijouterie en magasin spécialisé,,,COMMERCIO AL DETTAGLIO DI OROLOGI E ARTICOLI DI GIOIELLERIA E ARGE ERIA,,www.ugopiccini.it,1,0,0,7,6,5,YES,NO,NO
315,UNO-NK,ME,Monténégro,NIKSIC,,4772,Commerce de détail de chaussures et d'articles en cuir en magasin spécialisé,"Engaged in the operation of a chain of shoe stores; Involved in the retail trade of footwear for men, women and children",Retail,,Retail sale of footwear and leather goods in specialised stores,,1,0,0,7,7,9,YES,NO,NO
316,MARDI SAS,FR,France,ANDREZIEUX BOUTHEON,,4772,Commerce de détail de chaussures et d'articles en cuir en magasin spécialisé,,,Vente au détail de maroquinerie et accessoires.,,www.dalery.com,0,0,0,7,6,8,YES,NO,NO
317,TIGER STORES SPAIN 5 SL.,ES,Espagne,BILBAO,,4751,Commerce de détail de textiles en magasin spécialisé,,,"COMERCIALIZACION EN SU MAS AMPLIA ACEPCION DE LOS SIGUIENTES PRODUCTOS: COMERCIO AL POR MAYOR Y POR MENOR DE PRODUCTOS PARA EL EQUIPAMIENTO, MANTENIMIENTO Y FUNCIONAMIENTO DEL HOGAR, PORCELANA, CRISTALERIA, ETC",,www.tiger-stores.es,1,1,1,7,7,8,YES,NO,NO
318,NORON EHF.,IS,Islande,REYKJAVIK,,4771,Commerce de détail d'habillement en magasin spécialisé,,,"Tilgangur félagsins er rekstur á fataverslun á Íslandi, lánastarfsemi, rekstur fasteigna og skyldur atvinnurekstur.",Retail sale of clothing (execpt children's clothing) in specialised stores.,,0,0,0,7,5,5,YES,YES,
319,SALAMANDER HUNGARIA KERESKEDELMI KORLATOLT FELELOSSEGU TARSASAG,HU,Hongrie,BUDAPEST,,4772,Commerce de détail de chaussures et d'articles en cuir en magasin spécialisé,Engaged in the wholesale distribution of clothing and footwear products,Wholesale,,Engaged in the wholesale distribution of clothing and footwear products [source: Bureau van Dijk],www.salamander.hu,-1,-1,0,7,6,10,YES,YES,
320,OTTODISANPIETRO SA,ES,Espagne,A CORUNA,,4771,Commerce de détail d'habillement en magasin spécialisé,Engaged in the retail sale of clothing and accessories in Spain,Retail,"Comercio al por menor de prendas de vestir,complementos y calzado de señora y caballero.",Engaged in the retail sale of clothing and accessories in Spain [source: Bureau van Dijk],www.ottodisanpietro.com,1,1,0,7,7,7,YES,NO,NO
321,GULBA TEKSTIL INSAAT MADEN TURIZM GIDA REKLAM SANAYI VE TICARET ANONIM SIRKETI,TR,Turquie,MERKEZ,,4771,Commerce de détail d'habillement en magasin spécialisé,Engaged in the retail sale of outerwear and other related products,Retail,,Subject is involved in retail trade of outerwear.,www.kasaba.com.tr,0,0,0,7,8,14,YES,NO,NO
322,SOCIETE NANTAISE DE BIJOUTERIE,FR,France,NANTES,BP 1231,4777,Commerce de détail d'articles d'horlogerie et de bijouterie en magasin spécialisé,"Primarily engaged in the retail sale of jewelry, watches, precious stones, and precious metals",Retail,"Fabrication, vente au detail d'horlogerie, bijouterie, joaillerie, orfevrerie, cadeaux","Primarily engaged in the retail sale of jewelry, watches, precious stones, and precious metals [source: Bureau van Dijk]",,1,0,0,7,6,6,YES,NO,NO
323,MOVEM & CO,RS,Serbie,BEOGRAD (NOVI BEOGRAD),,4771,Commerce de détail d'habillement en magasin spécialisé,Engaged in the retail distribution of clothing for men and women,Retail,,Retail sale of clothing in specialised stores,www.movem.rs,1,0,0,7,5,5,YES,NO,NO
324,L'ANGOLO DELLE ORE S.R.L.,IT,Italie,MEDE,CORSO CAMILLO BENSO DI CAVOUR 1,4777,Commerce de détail d'articles d'horlogerie et de bijouterie en magasin spécialisé,,,COMMERCIO AL DETTAGLIO DI OROLOGI E ARTICOLI DI GIOIELLERIA E ARGE ERIA,,www.angolodelleore.com,1,1,0,7,6,7,YES,NO,NO
325,ESPANSIONE SOCIETA' A RESPONSABILITA' LIMITATA,IT,Italie,BARI,VIA PASQUALE FIORE 34,4772,Commerce de détail de chaussures et d'articles en cuir en magasin spécialisé,,,COMMERCIO AL DETTAGLIO DI CALZATURE E ACCESSORI,,,0,0,0,7,5,6,YES,NO,NO
326,S.C.A.R.ING.I. S.R.L.,IT,Italie,MISTERBIANCO,VIA CARLO MARX 174,4771,Commerce de détail d'habillement en magasin spécialisé,Engaged in the operation and management of clothing stores,Retail,COMMERCIO AL DETTAGLIO DI CONFEZIONI PER ADULTI,Engaged in the operation and management of clothing stores [source: Bureau van Dijk],www.scaringi.it,0,0,0,7,6,9,YES,NO,NO
327,ARIDON MOLDOVA SRL,RO,Roumanie,BUCURESTI SECTORUL 1,,4771,Commerce de détail d'habillement en magasin spécialisé,,,,,,1,-1,0,7,5,7,YES,NO,NO
328,PROJECT DISTRIBUTION,BE,Belgique,BRUXELLES,BOLLINCKXSTRAAT 254 B.1,4771,Commerce de détail d'habillement en magasin spécialisé,Engaged in the wholesale distribution of the finest skateboarding products,Wholesale,,Engaged in the wholesale distribution of the finest skateboarding products [source: Bureau van Dijk],www.projectdistribution.com,1,0,0,7,5,5,YES,NO,NO
329,TORGOVYI DOM ORBI,RU,Fédération de Russie,KOSTROMA,,4771,Commerce de détail d'habillement en magasin spécialisé,"Engaged in the wholesale of clothing, including underwear, and footwear",Wholesale,,"Engaged in the wholesale of clothing, including underwear, and footwear [source: Bureau van Dijk]",orby.ru,0,0,0,7,6,9,YES,NO,NO
330,VIKTORIYA,RU,Fédération de Russie,MOSCOW,"PROEZD KHLEBOZAVODSKII D. 7, STR. 9, E/POM/K/OF 8/XV/10A/10",4771,Commerce de détail d'habillement en magasin spécialisé,"Engaged in the retail of clothing products and accessories, specialising in fur products",Retail,"??????? ??????? ??????, ???? ? ??????????? ????? ???? ????????? «????»","Engaged in the retail of clothing products and accessories, specialising in fur products [source: Bureau van Dijk]",alefmex.ru,0,0,0,7,6,13,YES,NO,NO
331,PARABITA S.A.,GR,Grèce,ATHENS,,4771,Commerce de détail d'habillement en magasin spécialisé,,,,"Imports and trade of women's wear, accessories, swimming suits, underwear and cosmetics (sales mainly via internet). Operation of a furnished villa",www.parabita.com,0,0,0,7,5,7,YES,NO,NO
332,PAPRIKA FRANCE,FR,France,DOUAI,,4771,Commerce de détail d'habillement en magasin spécialisé,,,"La vente au détail de tous produits textiles, vêtements et chaussures, bijoux de fantaisie, tous articles de maroquinerie.",,www.cassis.be,0,-1,0,7,8,10,YES,YES,
333,ANDROMEDA SRL,IT,Italie,PONTEDERA,PIAZZA MARTIRI DELLA LIBERTA' 1,4777,Commerce de détail d'articles d'horlogerie et de bijouterie en magasin spécialisé,,,COMMERCIO AL DETTAGLIO DI OROLOGI E ARTICOLI DI GIOIELLERIA E ARGE ERIA,,www.casacapone.com,1,0,1,7,5,5,YES,NO,NO
334,AMBROSIO OLBIA FLY SHOP S.R.L.,IT,Italie,OLBIA,CORSO UMBERTO I 175,4771,Commerce de détail d'habillement en magasin spécialisé,,,COMMERCIO AL DETTAGLIO DI ARTICOLI DI ABBIGLIAMENTO,,www.ambrosiolacorte.it,0,0,0,7,4,9,YES,NO,NO
335,ASKELAND AS,NO,Norvège,STAVANGER,,4777,Commerce de détail d'articles d'horlogerie et de bijouterie en magasin spécialisé,Engaged in the manufacture and sale of watches,Manufacturing; Retail; Services,SALG AV UR OG SMYKKER.,Engaged in the manufacture and sale of watches [source: Bureau van Dijk],www.askeland.no,1,0,0,7,6,6,YES,NO,NO
336,KL MOBERG SKOTOEYFORRETNING AS,NO,Norvège,PARADIS,POSTBOKS 6083,4772,Commerce de détail de chaussures et d'articles en cuir en magasin spécialisé,"Engaged in the operation of a chain of shoe stores; Involved in the retail trade of footwear for men, women and children",Retail,OMSETNING AV SKOTØY OG HVA DERMED STÅR I FOR- BINDELSE.,"Engaged in the operation of a chain of shoe stores; Involved in the retail trade of footwear for men, women and children [source: Bureau van Dijk]",,1,0,0,7,5,7,YES,NO,NO
337,NAHKAPAIKKA OY TOIVONEN,FI,Finlande,TUURI,,4772,Commerce de détail de chaussures et d'articles en cuir en magasin spécialisé,Engaged in the retail distribution of footwear and leather goods,Retail,"Yhtiön toimialana on nahka-alan tuotteiden ja tarvikkeiden, laukkujen ja kenkien, sekä pukeutumisen vähittäis- ja tukkukauppa, sekä maahantuonti. Yhtiö voi omistaa arvopapereita, osakkeita ja kiinteistöjä, sekä käydä niillä kauppaa.","Yhtion toimialana on nahka-alan tuotteiden ja tarvikkeiden, laukkujen ja kenkien, seka pukeutumisen vahittais- ja tukkukauppa, seka maahantuonti. Yhtio voi omistaa arvopapereita, osakkeita ja kiinteistoja, seka kayda niilla kauppaa.",www.nahkapaikka.fi,1,1,1,7,7,9,YES,NO,NO
338,VESCHETTI GIOIELLI DUE S.R.L.,IT,Italie,BRESCIA,CORSO PALESTRO 10/A,4777,Commerce de détail d'articles d'horlogerie et de bijouterie en magasin spécialisé,,,COMMERCIO AL DETTAGLIO DI OROLOGI E ARTICOLI DI GIOIELLERIA E ARGE ERIA,,www.veschetti.com,1,1,0,7,5,6,YES,NO,NO
339,SAJLILA KUNDLANI SL,ES,Espagne,SAN BARTOLOME DE TIRAJANA,,4771,Commerce de détail d'habillement en magasin spécialisé,"Engaged in the retail sale of apparel, accessories and other textile products",Retail,"Comercio al por menor de prendas de vestir de señora , caballero y niño","Engaged in the retail sale of apparel, accessories and other textile products [source: Bureau van Dijk]",www.mosfashion.es,1,0,1,7,4,9,YES,NO,NO
340,BIAGINI 1863 - S.P.A.,IT,Italie,PERUGIA,VIA GUGLIELMO CALDERINI 13,4777,Commerce de détail d'articles d'horlogerie et de bijouterie en magasin spécialisé,,,COMMERCIO AL DETTAGLIO DI OROLOGI E ARTICOLI DI GIOIELLERIA E ARGE ERIA,,"www.biagini1863.it
biagini1863.com",1,1,1,7,5,6,YES,NO,NO
341,AKCAN TOPTAN VE PERAKENDE EV TEKSTILI TUHAFIYE YUN IPLIK ITHALAT IHRACAT SANAYI VE TICARET,TR,Turquie,MAMAK,,4771,Commerce de détail d'habillement en magasin spécialisé,Engaged in the retail trade of clothing apparels,Retail,,"Subject is involved in wholesale and retail trade of home textile and haberdashery products such as wool & yarn, duvet cover sets, blankets, sleeping sets, quilts, pillow, socks, underwear, bathrobes, pyjamas, buttons, etc.",www.akcan.com.tr,1,1,1,7,8,11,YES,NO,NO
342,DEDICATED SWEDEN AB,SE,Suède,STOCKHOLM,ALSTAVIKSVAGEN 3,4771,Commerce de détail d'habillement en magasin spécialisé,,,"Föremålet för bolagets verksamhet är handel med kläder,bijouterier, sportartiklar och liknande varor, förvaltning av ochhandel med värdepapper och därmed förenlig verksamhet.","Foremalet for bolagets verksamhet ar handel med klader,bijouterier, sportartiklar och liknande varor, forvaltning av ochhandel med vardepapper och darmed forenlig verksamhet.",www.tshirtstoreonline.com/sv/start,0,0,0,7,5,4,YES,NO,NO
343,EMPORIO GIGLIO CALZATURE ED ABBIGLIAMENTO SOCIETA' A RESPONSABIL TA' LIMITATA S.R.L. IN SIGLA EMPORIO GIGLIO S.R.L.,IT,Italie,COSENZA,PIAZZA PRIMO MAGGIO 11/12,4772,Commerce de détail de chaussures et d'articles en cuir en magasin spécialisé,Engaged in the operation and management of shoe stores,Retail,COMMERCIO AL DETTAGLIO E ONLINE DI CALZATURE E ACCESSORI,Engaged in the operation and management of shoe stores [source: Bureau van Dijk],www.giglioluxury.com,0,0,0,7,6,7,YES,NO,NO
344,"PETIT PIED - COMERCIO DE CALCADO, VESTUARIO E ACESSORIOS, LDA",PT,Portugal,BARREIRO,,4772,Commerce de détail de chaussures et d'articles en cuir en magasin spécialisé,,,"Comércio a retalho, importação e exportação de calçado e outros artigos de couro, vestuário para criança e adulto e outros acessórios de uso pessoal. Representação de marcas de calçado, vestuário e acessórios. Atividades de arrendamento e exploração de bens imobiliários. Exploração turística de unidades de alojamento",,www.petitpied.pt,0,0,0,7,6,9,YES,NO,NO
345,VESCHETTI GIOIELLI S.R.L.,IT,Italie,BRESCIA,CORSO MAGENTA 27/E,4777,Commerce de détail d'articles d'horlogerie et de bijouterie en magasin spécialisé,,,COMMERCIO AL DETTAGLIO DI OROLOGI E ARTICOLI DI GIOIELLERIA E ARGE ERIA,,"www.veschetti.it
www.veschetti.com",1,0,0,7,5,6,YES,NO,NO
346,ZHAKKARD,RU,Fédération de Russie,MOSCOW,,4751,Commerce de détail de textiles en magasin spécialisé,Engaged in the retail distribution of ready-made clothing,Retail,,Engaged in the retail distribution of ready-made clothing [source: Bureau van Dijk],www.gakkard.ru,0,0,0,7,5,8,YES,NO,NO
347,PUNTO SCARPE S.R.L.,IT,Italie,SONA,VIA DEL COMMERCIO 1,4772,Commerce de détail de chaussures et d'articles en cuir en magasin spécialisé,Engaged in the retail distribution of footwear products and accessories,Retail,COMMERCIO AL DETTAGLIO DI CALZATURE E ACCESSORI,Engaged in the retail distribution of footwear products and accessories [source: Bureau van Dijk],www.puntoscarperovato.com,1,1,1,7,5,6,YES,NO,NO
348,VENDRELL JOYERO SL,ES,Espagne,BARCELONA,,4777,Commerce de détail d'articles d'horlogerie et de bijouterie en magasin spécialisé,"Engaged in the buying, selling and distribution of all kinds of jewelry and watches",Retail,Explotación y gestión de joyería.,"Engaged in the buying, selling and distribution of all kinds of jewelry and watches [source: Bureau van Dijk]",www.unionsuiza.com,1,0,0,7,6,7,YES,NO,NO
349,BOSIO FASHION SRL,IT,Italie,SOVERE,VIA PAPA GIOVANNI PAOLO I 9,4771,Commerce de détail d'habillement en magasin spécialisé,,,COMMERCIO AL DETTAGLIO DI ARTICOLI DI ABBIGLIAMENTO,,"www.bosioabbigliamento.it
www.bosiofashion.it",0,0,0,7,4,6,YES,NO,NO
350,VESTIRE RAMONDA S.R.L.,IT,Italie,SAN DONA DI PIAVE,VIA EZIO VANONI 8,4771,Commerce de détail d'habillement en magasin spécialisé,Industrial company engaged in the operation and management of a chain of family clothing and accessories stores principally in Italy,Retail,COMMERCIO AL DETTAGLIO DI ARTICOLI DI ABBIGLIAMENTO,Industrial company engaged in the operation and management of a chain of family clothing and accessories stores principally in Italy [source: Bureau van Dijk],www.sorelleramonda.com,0,0,0,7,5,7,YES,NO,YES
351,COPPO GIAN PIERO S.R.L.,IT,Italie,MILANO,VIA DANTE ALIGHIERI 69,4777,Commerce de détail d'articles d'horlogerie et de bijouterie en magasin spécialisé,,,COMMERCIO AL DETTAGLIO DI OROLOGI E ARTICOLI DI GIOIELLERIA E ARGE ERIA,,www.coppogioielli.it,1,0,0,6,5,4,YES,NO,NO
352,META SP. Z O.O. SP.K.,PL,Pologne,OLSZANY,,4772,Commerce de détail de chaussures et d'articles en cuir en magasin spécialisé,Engaged in the retail sale of footwear and leather goods,Retail,,Engaged in the retail sale of footwear and leather goods [source: Bureau van Dijk],www.meta.com.pl,0,0,0,6,6,8,YES,NO,NO
353,SCHUHHAUS ROBERS GMBH & CO. KG,DE,Allemagne,STADTLOHN,,4772,Commerce de détail de chaussures et d'articles en cuir en magasin spécialisé,,,"Eingetragener Gegenstand:
Handel mit Schuhen sowie Schuhpflegeartikeln, Accessoires wie Taschen, Gürtel oder Socken.
Tatsächlicher Gegenstand:
Laut Eigenangaben wird der Geschäftsbetrieb zum 31.12.2022 eingestellt. Die Filialen wurden zum 01.07.2022 an die Pettrup GmbH & Co. KG, Schusterstr. 11, Olfen verkauft.",,www.robers-schuhe.de,n.d.,n.d.,n.d.,6,7,8,NO,NO,#DIV/0!
354,MICHAEL SANDSTROM AKTIEBOLAG,SE,Suède,VIMMERBY,STORA TORGET 4,4771,Commerce de détail d'habillement en magasin spécialisé,Engaged in the retail trade of clothing apparels,Retail,Bolaget skall bedriva herr- och damkonfektionsrörelse jämtedärmed förenlig verksamhet.,Bolaget skall bedriva herr- och damkonfektionsrorelse jamtedarmed forenlig verksamhet.,www.michaelsandstrom.se,0,0,0,6,7,10,YES,NO,NO
355,MATTY SRL,IT,Italie,MODICA,CORSO SANDRO PERTINI 32,4772,Commerce de détail de chaussures et d'articles en cuir en magasin spécialisé,,,COMMERCIO AL DETTAGLIO DI CALZATURE E ACCESSORI,,viaggidamatty.com,0,0,0,6,4,5,YES,NO,NO
356,FATTORI EUR SRL,IT,Italie,ROMA,VIALE EUROPA 83,4777,Commerce de détail d'articles d'horlogerie et de bijouterie en magasin spécialisé,"Engaged in the retail distribution of a range of jewelry and other related products; and provision of engraving, personalization, and customization services, as well as jewelry repair services",Retail; Services,COMMERCIO AL DETTAGLIO DI OROLOGI E ARTICOLI DI GIOIELLERIA E ARGE ERIA,"Engaged in the retail distribution of a range of jewelry and other related products; and provision of engraving, personalization, and customization services, as well as jewelry repair services [source: Bureau van Dijk]",www.fattorieur.it,0,0,0,6,5,9,YES,NO,NO
357,L.A. RETAIL SOCIETA' A RESPONSABILITA' LIMITATA,IT,Italie,VIAREGGIO,VIA ANTONIO FRATTI 250,4771,Commerce de détail d'habillement en magasin spécialisé,Engaged in the retail sale of a range of clothing and footwear products,Retail,COMMERCIO AL DETTAGLIO DI ARTICOLI DI ABBIGLIAMENTO,Engaged in the retail sale of a range of clothing and footwear products [source: Bureau van Dijk],"mail.talamoni.net
www.talamoni.net",0,0,0,6,5,7,YES,NO,NO
358,BIDON S.R.L.,IT,Italie,FOSSALTA DI PORTOGRUARO,VIA ENRICO FERMI,4772,Commerce de détail de chaussures et d'articles en cuir en magasin spécialisé,"Engaged in the retail of all types of footwear, accessories and leather goods",Retail,COMMERCIO AL DETTAGLIO DI CALZATURE E ACCESSORI,"Engaged in the retail of all types of footwear, accessories and leather goods [source: Bureau van Dijk]","eng.bidon1938.com
bidon1938.com",0,-1,0,6,6,8,YES,YES,
359,PL-CC SP. Z O.O.,PL,Pologne,GOSPODARZ,,4771,Commerce de détail d'habillement en magasin spécialisé,,,,,www.pakolorente.eu,1,0,0,6,5,8,YES,NO,NO
360,TRITON,RU,Fédération de Russie,YAKUTSK,UL. LERMONTOVA D. 25,4777,Commerce de détail d'articles d'horlogerie et de bijouterie en magasin spécialisé,Operates as other miscellaneous store retailer,Retail,,Operates as other miscellaneous store retailer [source: Bureau van Dijk],www.triton.ru,1,1,1,6,6,8,YES,NO,NO
361,VALENTI MULTISTORE S.R.L.,IT,Italie,ROGNO,VIA SANTA RITA DA CASCIA 5,4771,Commerce de détail d'habillement en magasin spécialisé,"Engaged in the wholesale and retail distribution of a general line of new clothing for men, women, and children",Wholesale; Retail,COMMERCIO AL DETTAGLIO DI CONFEZIONI PER ADULTI,"Engaged in the wholesale and retail distribution of a general line of new clothing for men, women, and children [source: Bureau van Dijk]",www.tankfashion.com,1,0,0,6,4,6,YES,NO,NO
362,JOYERIA AURELIO MARCOS SL,ES,Espagne,MALAGA,,4777,Commerce de détail d'articles d'horlogerie et de bijouterie en magasin spécialisé,,,Venta al detalle de artículos de joyería y relojería.,,www.joyeriamarcos.com,1,1,1,6,5,5,YES,NO,NO
363,TEBRO SRL,IT,Italie,ROMA,VIA DEI PREFETTI 46,4771,Commerce de détail d'habillement en magasin spécialisé,Engaged in retail trade of articles of knitwear for men and women and household linen,Retail,"COMMERCIO AL DETTAGLIO DI BIANCHERIA PERSONALE, MAGLIERIA, CAMICIE",Engaged in retail trade of articles of knitwear for men and women and household linen [source: Bureau van Dijk],"www.tebro.it
tebro.it",0,0,0,6,5,6,YES,NO,NO
364,"ANTONIO RODRIGUES MOTA & FILHOS, LDA",PT,Portugal,PONTA DELGADA,,4751,Commerce de détail de textiles en magasin spécialisé,Operates as a drug store engaged in the retail sale of pharmaceutical goods,Retail,"Comércio a retalho de têxteis, em estabelecimentos especializados",Operates as a drug store engaged in the retail sale of pharmaceutical goods [source: Bureau van Dijk],www.euromotas.com,0,0,0,6,6,7,YES,NO,NO
365,PRZEDSIEBIORSTWO PRODUKCYJNO-HANDLOWE ELWIX SP. Z O.O.,PL,Pologne,LUBLIN,,4771,Commerce de détail d'habillement en magasin spécialisé,,,,,www.elwix.pl,1,0,0,6,5,7,YES,NO,NO
366,MULLBECK AB,SE,Suède,GOTEBORG,,4771,Commerce de détail d'habillement en magasin spécialisé,Engaged in the retail distribution of knitted and crocheted apparel,Retail,"Bolaget skall bedriva försäljning av kläder, väskor och stövlarävensom idka därmed förenlig verksamhet.","Bolaget skall bedriva forsaljning av klader, vaskor och stovlaravensom idka darmed forenlig verksamhet.",www.mullbeck.se,0,-1,0,6,7,8,YES,YES,
367,FCR FRANCONVILLE,FR,France,FRANCONVILLE,,4771,Commerce de détail d'habillement en magasin spécialisé,,,"Achat, vente de tout article se rapportant -directement ou indirectement- au secteur de l'habillement, la participation de la société -par tous moyens- directement ou indirectement, dans toutes opérations pouvant se rattacher à son objet par voie de création de sociétés nouvelles, d'apport, de souscription ou achat de titres ou droits sociaux, de fusion ou autrement, de création, d'acquisition, de location, de prise en location-gérance de tous fonds de commerce ou d'établissements. la prise, l'acquisition, l'exploitation ou la cession de tous procédés et brevets concernant Ces activités.",,,1,0,1,6,6,7,YES,NO,NO
368,OLIMPINVEST,RU,Fédération de Russie,SOCHI,,4771,Commerce de détail d'habillement en magasin spécialisé,,,,,,1,0,0,6,5,8,YES,NO,NO
369,SAVVA,RU,Fédération de Russie,SAINT-PETERSBURG,,4772,Commerce de détail de chaussures et d'articles en cuir en magasin spécialisé,,,,,fondsavva.ru,0,0,1,6,4,8,YES,NO,NO
370,PIRETTI ANTICHITA' S.R.L.,IT,Italie,BOLOGNA,GALLERIA CAMILLO BENSO CONTE DI CAVOUR 7/F,4777,Commerce de détail d'articles d'horlogerie et de bijouterie en magasin spécialisé,,,COMMERCIO AL DETTAGLIO DI OROLOGI E ARTICOLI DI GIOIELLERIA E ARGE ERIA,,www.piretti.it,0,0,0,6,6,7,YES,NO,NO
371,UNION MAGAZZINI MODA - S.R.L.,IT,Italie,TERRANUOVA BRACCIOLINI,VIA POGGILUPI 420,4771,Commerce de détail d'habillement en magasin spécialisé,Engaged in the operation of a chain of family clothing stores,Retail,COMMERCIO AL DETTAGLIO DI ARTICOLI DI ABBIGLIAMENTO,Engaged in the operation of a chain of family clothing stores [source: Bureau van Dijk],www.porcellottimoda.com,0,0,0,6,4,7,YES,NO,NO
372,OESTFOLD MOTE AS,NO,Norvège,TOENSBERG,SJOEVEIEN 6,4771,Commerce de détail d'habillement en magasin spécialisé,Operates as a clothing and apparel store,Retail,"HANDEL, SAMT ALL ANNEN VERDISKAPENDE VIRKSOMHET.",Operates as a clothing and apparel store [source: Bureau van Dijk],,1,1,1,6,5,5,YES,NO,NO
373,VITAPUR D.O.O.,HR,Croatie,ZAGREB,,4751,Commerce de détail de textiles en magasin spécialisé,,,,,"www.vitapur.hr
vitapur.hr",0,0,0,6,5,5,YES,YES,
374,ANTINASU & RATSULA OY,FI,Finlande,PORI,,4771,Commerce de détail d'habillement en magasin spécialisé,"Operates as a clothing store engaged in the retail distribution of a general line of new clothing for men, women, and children",Retail,"Yhtiön toimialana on tekstiili- ja nahkatuotteiden, kosmetiikan ja jalkineiden sekä lahja- ja sisutustavaroiden tukku- ja vähittäiskauppa, tuonti ja vienti, alan kauppapalvelut, kahvilatoiminta sekä kiinteistöjen, asunto- ja liikehuoneistojen sekä toimialaan liittyvän irtaimen omaisuuden sekä erilaisen kuljetuskaluston kauppa ja vuokraustoiminta sekä arvopaperikauppa.","Yhtion toimialana on tekstiili- ja nahkatuotteiden, kosmetiikan ja jalkineiden seka lahja- ja sisutustavaroiden tukku- ja vahittaiskauppa, tuonti ja vienti, alan kauppapalvelut, kahvilatoiminta seka kiinteistojen, asunto- ja liikehuoneistojen seka toimialaan liittyvan irtaimen omaisuuden seka erilaisen kuljetuskaluston kauppa ja vuokraustoiminta seka arvopaperikauppa.",www.ratsula.fi,0,0,-1,6,6,8,YES,NO,YES
375,TIMMERMANS,BE,Belgique,BELSELE,,4772,Commerce de détail de chaussures et d'articles en cuir en magasin spécialisé,Engaged in the retail sale of footwear and leather goods,Retail,,Engaged in the retail sale of footwear and leather goods [source: Bureau van Dijk],www.timmermans.be,0,-1,-1,6,5,7,YES,YES,
376,MAMIC 1970 D.O.O.,HR,Croatie,ZAGREB,,4777,Commerce de détail d'articles d'horlogerie et de bijouterie en magasin spécialisé,,,,,mamic.hr,1,1,1,6,5,4,YES,NO,NO
377,POLARIS - S.R.L.,IT,Italie,PORTO SAN GIORGIO,VIA ENRICO MEDI 6,4772,Commerce de détail de chaussures et d'articles en cuir en magasin spécialisé,"Engaged in the retail trade of shoes, clothes and jewelry",Retail,COMMERCIO AL DETTAGLIO DI CALZATURE E ACCESSORI,"Engaged in the retail trade of shoes, clothes and jewelry [source: Bureau van Dijk]",,0,-1,0,6,5,8,YES,NO,YES
378,ILIC-TRGOVINA D.O.O.,BA,Bosnie-Herzégovine,ZVORNIK,,4772,Commerce de détail de chaussures et d'articles en cuir en magasin spécialisé,,,,Retail sale of footwear and leather goods in specialised stores,www.solekomerc.co.rs,1,0,0,6,5,6,YES,NO,NO
379,VACCARI GIOIELLI SRL,IT,Italie,REGGIO NELL'EMILIA,VIA EMILIA SAN PIETRO 27/B,4777,Commerce de détail d'articles d'horlogerie et de bijouterie en magasin spécialisé,,,COMMERCIO AL DETTAGLIO DI OROLOGI E ARTICOLI DI GIOIELLERIA E ARGE ERIA,,"www.vaccarigioielli.com
vaccarigioielli.com",1,1,1,6,6,6,YES,NO,NO
380,SPORT CHIC,FR,France,NEUILLY SUR SEINE,,4771,Commerce de détail d'habillement en magasin spécialisé,,,"Vente événementielle en show room. réalisation, organisation de ventes privées sur invitation.",,,1,0,0,6,5,4,YES,NO,NO
381,CHARGET S.R.L.,IT,Italie,SAN GIULIANO TERME,VIA GIOSUE' CARDUCCI 64/A,4771,Commerce de détail d'habillement en magasin spécialisé,Engaged in the operation and management of clothing stores,Retail,COMMERCIO AL DETTAGLIO DI CONFEZIONI PER ADULTI,Engaged in the operation and management of clothing stores [source: Bureau van Dijk],www.charget.it,0,0,0,6,6,12,YES,NO,NO
382,SI ANELLI S.R.L.,IT,Italie,RAVENNA,VIA CAMILLO BENSO CONTE DI CAVOUR 2,4777,Commerce de détail d'articles d'horlogerie et de bijouterie en magasin spécialisé,,,COMMERCIO AL DETTAGLIO DI OROLOGI E ARTICOLI DI GIOIELLERIA E ARGE ERIA,,www.sianelli.it,0,0,0,6,5,8,YES,NO,NO
383,LA VESTI BENE S.R.L.,IT,Italie,SOLESINO,VIA NAZIONALE 1269 INT.2,4771,Commerce de détail d'habillement en magasin spécialisé,"Engaged in the retail distribution of a general line of new clothing for men, women, and children",Retail,COMMERCIO AL DETTAGLIO DI ARTICOLI DI ABBIGLIAMENTO,"Engaged in the retail distribution of a general line of new clothing for men, women, and children [source: Bureau van Dijk]",www.lavestibene.it,0,0,0,6,4,7,YES,NO,NO
384,SQUALO S.R.L.,IT,Italie,MILANO,VIA ALFREDO CAPPELLINI 23,4771,Commerce de détail d'habillement en magasin spécialisé,Engaged in the retail distribution of men's and women's clothing and furnishings,Retail,COMMERCIO AL DETTAGLIO DI ARTICOLI DI ABBIGLIAMENTO,Engaged in the retail distribution of men's and women's clothing and furnishings [source: Bureau van Dijk],www.furla.com,0,0,1,6,5,6,YES,NO,NO
385,BLU SRL,IT,Italie,CARPI,VIA LAGO SCAFFAIOLO 29,4771,Commerce de détail d'habillement en magasin spécialisé,,,"COMMERCIO AL DETTAGLIO DI BIANCHERIA PERSONALE, MAGLIERIA, CAMICIE",Clothing retailer [source: Bureau van Dijk],"www.blusrl.eu
www.bluitaliasrl.com",0,0,0,6,5,7,YES,NO,NO
386,LACHU E HIJOS SOCIEDAD LIMITADA,ES,Espagne,LAS PALMAS DE GRAN CANARIA,,4771,Commerce de détail d'habillement en magasin spécialisé,,,Venta al menor de moda y complementos.,,www.yogijeans.com,1,1,1,6,5,6,YES,NO,NO
387,LE FOLLIE S.R.L.,IT,Italie,AFFI,VIA PASCOLI 36,4772,Commerce de détail de chaussures et d'articles en cuir en magasin spécialisé,,,COMMERCIO AL DETTAGLIO DI CALZATURE E ACCESSORI,,www.lefollieshop.com,0,0,0,6,5,7,YES,NO,NO
388,JOSE LUIS OLAZABAL OZCARIZ SL,ES,Espagne,DONOSTIA/SAN SEBASTIAN,,4777,Commerce de détail d'articles d'horlogerie et de bijouterie en magasin spécialisé,,,Explotacion joyería.,,www.joyeriaolazabal.com,1,1,1,6,4,4,YES,NO,NO
389,VM S.R.L.,IT,Italie,FOSSALTA DI PORTOGRUARO,VIA IPPOLITO NIEVO 24,4771,Commerce de détail d'habillement en magasin spécialisé,"Operates as a clothing store engaged in the retail distribution of a general line of new clothing for men, women, and children",Retail,COMMERCIO AL DETTAGLIO DI ARTICOLI DI ABBIGLIAMENTO,"Operates as a clothing store engaged in the retail distribution of a general line of new clothing for men, women, and children [source: Bureau van Dijk]","www.magazzinivoltolina.com
www.vm-italia.com",0,0,1,6,5,7,YES,NO,NO
390,FRISCO INTERNATIONAL CLOTHING SA,ES,Espagne,MALAGA,,4771,Commerce de détail d'habillement en magasin spécialisé,Engaged in the retail sale of clothing products in Spain,Retail,"Explotación de tiendas de ropa de hombre, mujer y niño.",Engaged in the retail sale of clothing products in Spain [source: Bureau van Dijk],"www.fcandcompany.com
fcandcompany.com",0,-1,0,6,4,7,YES,YES,
391,"CASA DAS PELES - CONFECCOES, S.A.",PT,Portugal,LISBOA,,4771,Commerce de détail d'habillement en magasin spécialisé,Engaged in the management and operation of family clothing stores,Retail,Grossista e retalhista de confeções em pele e marroquinarias - 100%,Engaged in the management and operation of family clothing stores [source: Bureau van Dijk],www.casadaspeles.pt,0,0,2,6,5,10,YES,NO,NO
392,ARTE S.R.L.,IT,Italie,TREVIGLIO,VICOLO ANTONIO GENDERINI 1,4771,Commerce de détail d'habillement en magasin spécialisé,,,COMMERCIO AL DETTAGLIO DI CONFEZIONI PER ADULTI,,"www.nightmarket.it
www.bertoliniarte.it",0,0,0,6,6,7,YES,NO,NO
393,NNCK ITALIA S.R.L.,IT,Italie,CARPI,,4771,Commerce de détail d'habillement en magasin spécialisé,,,COMMERCIO AL DETTAGLIO DI CONFEZIONI PER ADULTI,,"corporate.nafnaf.it
www.nafnaf.it",0,-1,0,6,4,5,YES,YES,
394,LE RELAIS NORD EST ILE DE FRANCE,FR,France,PLOISY,,4771,Commerce de détail d'habillement en magasin spécialisé,Engaged in the creation of jobs for people in situations of exclusion through the collection and recycling of textiles and paper,Services,Création d'emplois pour les personnes en situation d'exclusion par le biais de la collecte et de la valorisation de textiles et papiers.,Engaged in the creation of jobs for people in situations of exclusion through the collection and recycling of textiles and paper [source: Bureau van Dijk],"www.lerelais.org
www.lerelais-soissons.org",0,-1,0,6,4,5,YES,NO,YES
395,LIMITED LIABILITY COMPANY SUNSHINE,RU,Fédération de Russie,MOSCOW,,4771,Commerce de détail d'habillement en magasin spécialisé,,,,,suns.ru,1,0,0,6,4,6,YES,NO,NO
396,GIOIELLERIA SALVINI - S.R.L.,IT,Italie,MASSA,VIALE EUGENIO CHIESA 7,4777,Commerce de détail d'articles d'horlogerie et de bijouterie en magasin spécialisé,,,GIOIELLERIA,,"gioielleriesalvini.it
www.gioielleriasalvini.it",1,0,0,6,4,6,YES,NO,NO
397,LAHDEN KELLOKESKUS OY,FI,Finlande,LAHTI,PL 222,4777,Commerce de détail d'articles d'horlogerie et de bijouterie en magasin spécialisé,"Engaged in the retail sale of jewelry, watches, precious stones, and precious metals",Retail,"Yhtiön toimialana on kello- ja kulta-alaan kuuluvien tuotteiden tukku- ja vähittäiskauppa sekä alan huolto- ja korjaustoiminta. Edelleen yhtiön toimialana on koti- ja ulkomaisten kiinteistöjen, asunto-, kiinteistö-, loma- ja arvopaperiosakkeiden, osuuksien ja oikeuksien omistaminen, hallinnointi, osto, myynti ja vuokraus.","Yhtion toimialana on kello- ja kulta-alaan kuuluvien tuotteiden tukku- ja vahittaiskauppa seka alan huolto- ja korjaustoiminta. Edelleen yhtion toimialana on koti- ja ulkomaisten kiinteistojen, asunto-, kiinteisto-, loma- ja arvopaperiosakkeiden, osuuksien ja oikeuksien omistaminen, hallinnointi, osto, myynti ja vuokraus.","www.timanttiset.fi
www.kalevalashop.com",0,0,0,6,5,4,YES,NO,NO
398,TIFOTEX SP. Z O.O.,PL,Pologne,ANDRYCHOW,,4771,Commerce de détail d'habillement en magasin spécialisé,,,,,www.tifo.com.pl,0,0,0,6,6,10,YES,YES,
399,PROIEZIONE SRL,IT,Italie,MILANO,VIA ALESSANDRO MANZONI 44,4771,Commerce de détail d'habillement en magasin spécialisé,Engaged in the retail sale of specialized lines of apparel and accessories,Retail,COMMERCIO AL DETTAGLIO DI ARTICOLI DI ABBIGLIAMENTO,Engaged in the retail sale of specialized lines of apparel and accessories [source: Bureau van Dijk],"www.dmagazine.it
www.dmag.eu",0,0,0,6,4,8,YES,NO,NO
400,JOSE SANGIL SL,ES,Espagne,GANDIA,,4777,Commerce de détail d'articles d'horlogerie et de bijouterie en magasin spécialisé,,,"Explotación de joyería, relojería",,www.prjoyeros.com,1,1,0,6,5,6,YES,NO,NO
401,NOSSA S.R.L.,IT,Italie,VARESE,VIALE BELFORTE 315,4771,Commerce de détail d'habillement en magasin spécialisé,,,"COMMERCIO AL DETTAGLIO DI BIANCHERIA PERSONALE, MAGLIERIA, CAMICIE",,,0,0,0,6,4,6,YES,NO,NO
402,ZANABONI S.R.L.,IT,Italie,ARONA,VIA CAMILLO BENSO CONTE DI CAVOUR 97,4777,Commerce de détail d'articles d'horlogerie et de bijouterie en magasin spécialisé,,,COMMERCIO AL DETTAGLIO DI OROLOGI E ARTICOLI DI GIOIELLERIA E ARGE ERIA,,www.zanabonigioielli.it,1,1,1,6,5,5,YES,NO,NO
403,SMART TRADING LTDOOD EOOD,BG,Bulgarie,SOFIA,"BUL. VITOSHA 38, MAGAZIN ROYAL HOUSE",4777,Commerce de détail d'articles d'horlogerie et de bijouterie en magasin spécialisé,,,"???????? ? ???????? ?????????, ??????????????, ?????? ? ??.","Trade in watches, jewellery and miscellaneous other present articles",,0,0,0,6,5,8,YES,NO,NO
404,DANI GROUP SRL,IT,Italie,FONTANIVA,VIA DEL LAVORO 23,4771,Commerce de détail d'habillement en magasin spécialisé,,,COMMERCIO AL DETTAGLIO DI ARTICOLI DI ABBIGLIAMENTO,,www.danishoppingonline.com,0,0,0,6,4,7,YES,NO,NO
405,NITTA GIOIELLI S.R.L.,IT,Italie,UDINE,VIA RIALTO 19,4777,Commerce de détail d'articles d'horlogerie et de bijouterie en magasin spécialisé,Engaged in the operation of department stores,Retail,COMMERCIO AL DETTAGLIO DI OROLOGI E ARTICOLI DI GIOIELLERIA E ARGE ERIA,Engaged in the operation of department stores [source: Bureau van Dijk],"nittagioielli.com
www.nittagioielli.com",0,0,0,6,4,5,YES,NO,NO
406,CHRISTIAN LOUBOUTIN ESPANA SA,ES,Espagne,MADRID,,4772,Commerce de détail de chaussures et d'articles en cuir en magasin spécialisé,,,Explotación y gestión de boutique oficial de Cristian Louboutin.,,eu.christianlouboutin.com/es_en,0,0,0,5,5,7,YES,YES,
407,VIA PARADISO,ME,Monténégro,PODGORICA,,4771,Commerce de détail d'habillement en magasin spécialisé,,,,Retail sale of clothing in specialised stores,www.viaparadiso.me,0,0,1,6,6,8,YES,NO,NO
408,UAB TOMAS GOLD,LT,Lituanie,KLAIPEDOS M.,,4777,Commerce de détail d'articles d'horlogerie et de bijouterie en magasin spécialisé,,,,,www.tomasgold.lt,1,1,0,6,5,5,YES,NO,NO
409,LIFESTYLE S.R.L.,IT,Italie,ROMA,VIA MONTE NIBBIO 25/G-H,4771,Commerce de détail d'habillement en magasin spécialisé,,,COMMERCIO AL DETTAGLIO DI ARTICOLI DI ABBIGLIAMENTO,,www.lifestyle-bugatti.com,0,0,0,6,4,5,YES,NO,NO
410,F.G. FECAROTTA GIOIELLI S.R.L.,IT,Italie,PALERMO,VIA RUGGIERO SETTIMO 68,4777,Commerce de détail d'articles d'horlogerie et de bijouterie en magasin spécialisé,Engaged in the retail trade of colored gemstones and studded jewelry,Retail,COMMERCIO AL DETTAGLIO DI OROLOGI E ARTICOLI DI GIOIELLERIA E ARGE ERIA,Engaged in the retail trade of colored gemstones and studded jewelry [source: Bureau van Dijk],"www.fecarotta.com
www.fecarotta.it",1,0,0,6,5,5,YES,NO,NO
411,EMILIO LOPEZ ALVARINO SL,ES,Espagne,LUGO,,4771,Commerce de détail d'habillement en magasin spécialisé,,,"Venta al por menor de ropa,principlamente ropa juvenil y complementos.",,www.korner.es,1,0,1,6,5,7,YES,NO,NO
412,BLONDI GIOIELLI S.P.A.,IT,Italie,MODENA,VIA EMILIA 88,4777,Commerce de détail d'articles d'horlogerie et de bijouterie en magasin spécialisé,"An Italy based enterprise engaged in the wholesale of jewelry, watches, precious stones, and precious metals",Wholesale; Services,COMMERCIO AL DETTAGLIO DI OROLOGI E ARTICOLI DI GIOIELLERIA E ARGE ERIA,"An Italy based enterprise engaged in the wholesale of jewelry, watches, precious stones, and precious metals [source: Bureau van Dijk]","www.blondi.it
blondi.it",0,0,0,6,4,7,YES,NO,NO
413,E. CANALI SRL,IT,Italie,MONZA,VIA ITALIA 44,4777,Commerce de détail d'articles d'horlogerie et de bijouterie en magasin spécialisé,,,COMMERCIO AL DETTAGLIO DI OGGETTI PREZIOSI,,www.gioielleriacanali.it,1,1,1,6,6,7,YES,NO,NO
414,MININ S.R.L.,IT,Italie,PORPETTO,VIA UDINE 107,4771,Commerce de détail d'habillement en magasin spécialisé,Engaged in the retail of clothing and accessories and other related products,Retail,COMMERCIO AL DETTAGLIO DI CONFEZIONI PER ADULTI,Engaged in the retail of clothing and accessories and other related products [source: Bureau van Dijk],www.minin.it,0,0,0,5,4,6,YES,NO,YES
415,"TRGOS, PODJETJE ZA PROIZVODNJO, RACUNOVODSKE STORITVE, TRGOVINO, GOSTINSTVO IN TURIZEM, D.O.O., BLED",SI,Slovénie,BLED,,4771,Commerce de détail d'habillement en magasin spécialisé,,,,,www.trgos.si,1,1,0,5,6,4,YES,NO,NO
416,TORREGROSSA SOCIETA' A RESPONSABILITA' LIMITATA,IT,Italie,PALERMO,VIA DELLA LIBERTA' 3/5,4771,Commerce de détail d'habillement en magasin spécialisé,Engaged in the management and operation of clothing stores,Retail,COMMERCIO AL DETTAGLIO DI ARTICOLI DI ABBIGLIAMENTO,Engaged in the management and operation of clothing stores [source: Bureau van Dijk],"www.torregrossaboutique.com
www.bizweek.it/index.php/it/ads/57d6be589313b/Abbigliamento/Torregrossa",1,0,0,5,5,5,YES,NO,NO
417,SANDVIK SKO AS,NO,Norvège,GAUPNE,,4772,Commerce de détail de chaussures et d'articles en cuir en magasin spécialisé,Engaged in the management and operation of shoe stores,Retail,"SALG AV SKOTØY MED NATURLIG TILBEHØR, SAMT ALT HVA HERMED STÅR I FORBINDELSE, HERUNDER Å DELTA I ANDRE SELSKAP.",Engaged in the management and operation of shoe stores [source: Bureau van Dijk],,0,0,0,5,4,5,YES,NO,NO
418,KARI AUKIA OY,FI,Finlande,VAASA,,4771,Commerce de détail d'habillement en magasin spécialisé,Engaged in the retail sale of clothing,Retail,"Yhtiön toimialana on vaatteiden ja tekstiilien vähittäiskauppa. Yhtiö voi myös ostaa, myydä, vuokrata ja hallita kiinteistöjä ja osakehuoneistoja sekä harjoittaa arvopaperikauppaa.","Yhtion toimialana on vaatteiden ja tekstiilien vahittaiskauppa. Yhtio voi myos ostaa, myyda, vuokrata ja hallita kiinteistoja ja osakehuoneistoja seka harjoittaa arvopaperikauppaa.",www.aukia.fi,0,0,0,6,5,8,YES,NO,YES
419,STAR ALLIANCE EOOD,BG,Bulgarie,SOFIA,UL. VLADAYSKA REKA 8,4772,Commerce de détail de chaussures et d'articles en cuir en magasin spécialisé,,,,,www.tendenzstore.com,1,0,0,5,6,7,YES,NO,NO
420,"FATIMA MENDES, S.A.",PT,Portugal,GUIMARAES,,4771,Commerce de détail d'habillement en magasin spécialisé,Operates as a family clothing store,Retail,"Importação e venda de artigos de vestuário, calçado, acessórios, bijuterias, bolsas, bagagem, marroquinaria de senhora, homem e criança, bem como artigos de decoração",Operates as a family clothing store [source: Bureau van Dijk],www.fatimamendes.com,0,0,0,5,5,5,YES,NO,NO
421,BRAVI S.P.A.,IT,Italie,CONEGLIANO,VIA ALESSANDRO VOLTA 16,4771,Commerce de détail d'habillement en magasin spécialisé,Engaged in the retail trade of garments for adults in Italy,Retail,COMMERCIO AL DETTAGLIO DI CONFEZIONI PER ADULTI,Engaged in the retail trade of garments for adults in Italy [source: Bureau van Dijk],"www.bravispa.it
braviconegliano.it",0,0,0,5,4,6,YES,NO,NO
422,FALETTI MULTISTORE S.R.L.,IT,Italie,DARFO BOARIO TERME,CORSO ROBERTO ENEA LEPETIT 15,4771,Commerce de détail d'habillement en magasin spécialisé,Engaged in the retail trade of clothing apparels,Retail,"COMMERCIO AL DETTAGLIO DI BIANCHERIA PERSONALE, MAGLIERIA, CAMICIE",Engaged in the retail trade of clothing apparels [source: Bureau van Dijk],www.falettimultistore.it,0,0,0,5,4,5,YES,NO,YES
423,GINEVRA CALZATURE S.R.L.,IT,Italie,ACQUALAGNA,VIA CASE NUOVE 25/D,4772,Commerce de détail de chaussures et d'articles en cuir en magasin spécialisé,,,COMMERCIO AL DETTAGLIO DI CALZATURE E ACCESSORI,,"www.calzatureginevra.com
calzatureginevra.it",0,0,0,5,5,5,YES,NO,NO
424,TRADIZIONE MODA S.R.L.,IT,Italie,PAESE,VIA GIUSEPPE DI VITTORIO 2,4771,Commerce de détail d'habillement en magasin spécialisé,Engaged in the manufacture and distribution of clothing and other related products,Manufacturing; Wholesale,COMMERCIO AL DETTAGLIO DI ARTICOLI DI ABBIGLIAMENTO,Engaged in the manufacture and distribution of clothing and other related products [source: Bureau van Dijk],,0,0,1,5,4,6,YES,NO,NO
425,MAZZUCCHELLI CALZATURE SRL,IT,Italie,BESNATE,VIA TOMASETTO 2,4772,Commerce de détail de chaussures et d'articles en cuir en magasin spécialisé,Engaged in the retail sale of footwear products,Retail,COMMERCIO AL DETTAGLIO DI CALZATURE E ACCESSORI,Engaged in the retail sale of footwear products [source: Bureau van Dijk],www.mazzucchellicalzature.it,0,0,0,5,5,7,YES,YES,
426,IDEME,FR,France,THOUARS,,4771,Commerce de détail d'habillement en magasin spécialisé,"Engaged in the wholesale trade of apparel, accessories and other textile products",Wholesale,Le fonds de commerce de vente de prêt-à-porter féminin,"Engaged in the wholesale trade of apparel, accessories and other textile products [source: Bureau van Dijk]",www.patrice-breal.fr,0,0,0,5,5,6,YES,YES,
427,DOF,RU,Fédération de Russie,BUINAKSK,,4771,Commerce de détail d'habillement en magasin spécialisé,,,,,,0,1,2,5,5,7,YES,NO,NO
428,PAWO - MEN SP. Z O.O. SP.K.,PL,Pologne,PABIANICE,,4771,Commerce de détail d'habillement en magasin spécialisé,Engaged in the manufacture of men's and boys' trousers and slacks; men's and boys' suits,Manufacturing,,Engaged in the manufacture of men's and boys' trousers and slacks; men's and boys' suits [source: Bureau van Dijk],www.pawo.pl,0,-1,0,5,5,9,YES,YES,
429,SG GIUGLIANO S.R.L.,IT,Italie,NOLA,CORSO TOMMASO VITALE 169/171,4771,Commerce de détail d'habillement en magasin spécialisé,,,COMMERCIO AL DETTAGLIO DI CONFEZIONI PER ADULTI,,www.giuglianouomo.it,0,0,0,5,5,5,YES,NO,NO
430,JG STORES S.R.O.,SK,Slovaquie,SPISSKA NOVA VES,,4772,Commerce de détail de chaussures et d'articles en cuir en magasin spécialisé,,,,,,0,0,0,5,6,9,YES,NO,YES
431,WHITEHORSE HANDELSGMBH,AT,Autriche,ST. AEGIDI,,4771,Commerce de détail d'habillement en magasin spécialisé,Engaged in the retail sale of Jack Wolfskin clothing and footwear,Retail,Eingetragener Gegenstand: Ein- und Verkauf von Produkten des JACK WOLFSKIN Produktsortimentes. Weiters seit Ende März 2013 Werbeagentur.,Engaged in the retail sale of Jack Wolfskin clothing and footwear [source: Bureau van Dijk],www.jack-wolfskin.at,n.d.,n.d.,n.d.,5,7,8,NO,NO,#DIV/0!
432,QUATTRO STAGIONI - SOCIETA' A RESPONSABILITA' LIMITATA,IT,Italie,CESENA,VIA LUCIANO LAMA 51,4771,Commerce de détail d'habillement en magasin spécialisé,"Retail trade of personal linen, knitwear and hosiery",Retail,COMMERCIO AL DETTAGLIO DI ARTICOLI DI ABBIGLIAMENTO,"Retail trade of personal linen, knitwear and hosiery [source: Bureau van Dijk]",www.quattrostagioniabbigliamento.it,0,0,0,5,5,5,YES,NO,NO
433,ROSSOTOSCANA SOCIETA' A RESPONSABILITA' LIMITATA,IT,Italie,CRESPINA LORENZANA,VIA GALILEO GALILEI 9/11,4772,Commerce de détail de chaussures et d'articles en cuir en magasin spécialisé,,,COMMERCIO AL DETTAGLIO DI ARTICOLI DI PELLETTERIA E DA VIAGGIO,,www.tuscanyleather.it,1,0,0,5,5,5,YES,NO,NO
434,BRUXELLES ACHATS D OR,BE,Belgique,BRUXELLES,CHARLEROISE STEENWEG 63,4615,"Intermédiaires du commerce en meubles, articles de ménage et quincaillerie",,,,,www.sellgold.be,0,0,0,5,6,6,YES,NO,NO
435,HT SKIT POLAND SP. Z O.O.,PL,Pologne,BIERUN,,4771,Commerce de détail d'habillement en magasin spécialisé,,,,,www.htskitpoland.com.pl,0,0,0,5,4,5,YES,YES,
436,SEVDA IMPEX SRL,RO,Roumanie,CONSTANTA,,4777,Commerce de détail d'articles d'horlogerie et de bijouterie en magasin spécialisé,Engaged in the wholesale distribution of furniture and home furnishings,Wholesale,,Engaged in the wholesale distribution of furniture and home furnishings [source: Bureau van Dijk],www.sevda.ro,0,0,1,5,5,6,YES,NO,NO
437,FASHION PEOPLE SL,ES,Espagne,MARBELLA,,4771,Commerce de détail d'habillement en magasin spécialisé,,,"Venta al menor de prendas de vestir y complementos de firma, de señora y caballero.",,missslorganization.net,0,0,0,5,4,4,YES,NO,NO
438,SPY STAFF S.R.L.,IT,Italie,POZZUOLI,CORSO GIUSEPPE GARIBALDI 40/44,4771,Commerce de détail d'habillement en magasin spécialisé,,,COMMERCIO AL DETTAGLIO DI CONFEZIONI PER BAMBINI E NEONATI,,,0,0,0,5,4,5,YES,NO,NO
439,AKTSIONERNOE OBSHCHESTVO TORGOVYI DOM ALMAZ-KHOLDING,RU,Fédération de Russie,MOSCOW,,4777,Commerce de détail d'articles d'horlogerie et de bijouterie en magasin spécialisé,,,,,almazholding.ru,1,1,1,5,4,6,YES,NO,NO
440,MEGACALZADO PAMPLONA SL,ES,Espagne,ORKOIEN,,4772,Commerce de détail de chaussures et d'articles en cuir en magasin spécialisé,Engaged in the wholesale and retail distribution of footwear for all ages,Wholesale; Retail,Comercio al por menor de calzado de todo tipo.,Engaged in the wholesale and retail distribution of footwear for all ages [source: Bureau van Dijk],www.megacalzado.com,0,0,0,5,4,6,YES,NO,NO
441,BANANA BENZ S.R.L.,IT,Italie,BARI,CORSO CAMILLO BENSO CONTE DI CAVOUR 45,4771,Commerce de détail d'habillement en magasin spécialisé,,,COMMERCIO AL DETTAGLIO DI CONFEZIONI PER ADULTI,,"www.bananabenz.it
hoteloceano.it",0,0,0,5,4,5,YES,NO,YES
442,HIJOS DE FRANCISCO LOPEZ SANTA CRUZ SA,ES,Espagne,LAS PALMAS DE GRAN CANARIA,,4772,Commerce de détail de chaussures et d'articles en cuir en magasin spécialisé,"Engaged in the operation of a chain of shoe stores; Involved in the retail trade of footwear for men, women and children",Retail,"Venta al menor de calzados, complementos y textil.","Engaged in the operation of a chain of shoe stores; Involved in the retail trade of footwear for men, women and children [source: Bureau van Dijk]","www.buylopez.es
www.grupolopez.es",0,-1,0,5,5,10,YES,NO,YES
443,BEABA,FR,France,FLERS,,4771,Commerce de détail d'habillement en magasin spécialisé,,,,,,0,0,0,5,4,4,YES,NO,NO
444,LITTLE KINGS SL,ES,Espagne,ANDUJAR,,4771,Commerce de détail d'habillement en magasin spécialisé,,,Comercio al por menor de ropa de bebé.,,www.littlekings.es,0,0,0,5,5,7,YES,NO,NO
445,VIOSIM IMPEX JUNIOR SRL,RO,Roumanie,IASI,,4771,Commerce de détail d'habillement en magasin spécialisé,,,,,,1,1,0,5,5,4,YES,NO,NO
446,OSMOTEX OY,FI,Finlande,PIEKSAMAKI,,4771,Commerce de détail d'habillement en magasin spécialisé,Engaged in the retail distribution of knitted and crocheted apparel,Retail,"Yhtiön toimialana on tekstiili- ja vaatetavaroiden, jalkineiden, elektroniikka-, lahja-, urheilu- ja tavaratalotuotteiden valmistus, vähittäis- ja tukkukauppa sekä tuonti- ja vientiagentuurien hoitaminen, arvopapereiden, kiinteistöjen, taide-esineiden ostaminen, omistaminen, myyminen ja välittäminen sekä yritysten, autojen ja työkoneiden ja niihin kuuluvien laitteiden osto, saneeraus, omistaminen, myynti ja vuokraus sekä muu laillinen liiketoiminta.","Yhtion toimialana on tekstiili- ja vaatetavaroiden, jalkineiden, elektroniikka-, lahja-, urheilu- ja tavaratalotuotteiden valmistus, vahittais- ja tukkukauppa seka tuonti- ja vientiagentuurien hoitaminen, arvopapereiden, kiinteistojen, taide-esineiden ostaminen, omistaminen, myyminen ja valittaminen seka yritysten, autojen ja tyokoneiden ja niihin kuuluvien laitteiden osto, saneeraus, omistaminen, myynti ja vuokraus seka muu laillinen liiketoiminta.","www.osmotex.com
osmotex.com",0,0,0,5,5,5,YES,YES,
447,JORDANS EOOD,BG,Bulgarie,PLOVDIV,,4772,Commerce de détail de chaussures et d'articles en cuir en magasin spécialisé,Engaged in the retail distribution of footwear,Retail,,Engaged in the retail distribution of footwear [source: Bureau van Dijk],www.paolobotticelli.com,0,0,0,5,4,7,YES,NO,NO
448,MOTORRAD BOEGEL GMBH,DE,Allemagne,IBBENBUEREN,,4771,Commerce de détail d'habillement en magasin spécialisé,,,"Eingetragener Gegenstand:
Einzelhandel mit Motorrädern und sonstigen Zweirädern einschließlich Zubehör, eine Reparaturwerkstatt ist angeschlossen. BMW und Suzuki Motorrad-Vertretung, Zusammenarbeit mit SUZUKI Motorrad und Rollermarken Kymco und Vertragshändler von Benelli und Zero",,www.motorrad-boegel.de,n.d.,n.d.,n.d.,5,5,6,NO,NO,#DIV/0!
449,"MACHADO - JOALHEIRO, S.A.",PT,Portugal,PORTO,,4777,Commerce de détail d'articles d'horlogerie et de bijouterie en magasin spécialisé,"Engaged in the retail sale of jewelry, watches, precious stones, and precious metals",Retail,Retalhista de artigos de ourivesaria - 100%,"Engaged in the retail sale of jewelry, watches, precious stones, and precious metals [source: Bureau van Dijk]",www.machadojoalheiro.com,0,0,0,5,5,8,YES,NO,NO
450,DEPURTAT SRL,RO,Roumanie,BUCURESTI SECTORUL 3,,4772,Commerce de détail de chaussures et d'articles en cuir en magasin spécialisé,,,,,www.depurtat.ro,0,0,0,5,4,4,YES,NO,NO
451,MODEHAUS COHAUSZ GMBH,DE,Allemagne,BORKEN,,4771,Commerce de détail d'habillement en magasin spécialisé,,,"Eingetragener Gegenstand:
Handel mit Textilien u. Wäsche aller Art. Verkaufsfläche ca. 2.000 qm.",,www.mode-cohausz.de,n.d.,n.d.,n.d.,5,4,5,NO,NO,#DIV/0!
452,FERRACIN S.R.L.,IT,Italie,REFRONTOLO,VIA CREVADA 15,4751,Commerce de détail de textiles en magasin spécialisé,Engaged in the retail trade of clothing apparels,Retail,"COMMERCIO AL DETTAGLIO DI TESSUTI PER L'ABBIGLIAMENTO, L'ARREDAMEN E DI BIANCHERIA PER LA CASA",Engaged in the retail trade of clothing apparels [source: Bureau van Dijk],www.ferracinabbigliamento.it,0,0,0,5,4,6,YES,NO,NO
453,IDRISI UOMO SL,ES,Espagne,BILBAO,,4771,Commerce de détail d'habillement en magasin spécialisé,,,"Venta al por menor de ropa, accesorios y zapatos de hombre y mujer.",,,0,0,0,5,4,4,YES,NO,NO
454,SAVANNAH EMILIA AB,SE,Suède,STOCKHOLM,BIRGER JARLSGATAN 1  BV,4772,Commerce de détail de chaussures et d'articles en cuir en magasin spécialisé,,,Bolaget skall bedriva försäljning av skor och väskor samt därmedförenlig verksamhet.,Bolaget skall bedriva forsaljning av skor och vaskor samt darmedforenlig verksamhet.,eu.savannahs.com,0,0,0,5,4,4,YES,NO,NO
455,MODA'S SRL,IT,Italie,POSSAGNO,VIA SCHIAVONESCA MAROSTICANA 14,4772,Commerce de détail de chaussures et d'articles en cuir en magasin spécialisé,Engaged in the sale of apparel for men and women,Retail,COMMERCIO AL DETTAGLIO DI CALZATURE E ACCESSORI,Engaged in the sale of apparel for men and women [source: Bureau van Dijk],www.modasboutique.com,0,0,0,5,5,4,YES,NO,NO
456,ROMERO SRL,RO,Roumanie,GALATI,,4777,Commerce de détail d'articles d'horlogerie et de bijouterie en magasin spécialisé,,,,,www.torneriaromero.it,0,0,0,5,4,5,YES,NO,NO
457,"M.J.J.S. - COMERCIO DE VESTUARIO, S.A.",PT,Portugal,PEREIRA,,4771,Commerce de détail d'habillement en magasin spécialisé,Engaged in the retail distribution of a wide range of clothing for women,Retail,Comércio de vestuário de senhora e acessórios de moda - 100%,Engaged in the retail distribution of a wide range of clothing for women [source: Bureau van Dijk],"www.flordamoda.pt
www.temperaturaanasousa.com/pt/ana-sousa_201.html",-1,-1,-1,5,4,8,YES,YES,
458,MARROCU RUDY S.R.L.,IT,Italie,TORINO,VIA VENTI SETTEMBRE 14,4777,Commerce de détail d'articles d'horlogerie et de bijouterie en magasin spécialisé,,,COMMERCIO AL DETTAGLIO DI OROLOGI E ARTICOLI DI GIOIELLERIA E ARGE ERIA,,www.compro-oro-usato.biz,0,0,0,5,7,6,YES,NO,NO
459,LEDER & SCHUH D.O.O.,HR,Croatie,ZAGREB,,4772,Commerce de détail de chaussures et d'articles en cuir en magasin spécialisé,Engaged in the retail sale of footwear and leather goods,Retail,,buying and goods;performance of commercial mediation in domestic and international market purchases and sales of goods;Brands:;Corti;Dominici;Humanic;Jello;Shoe 4 you;The commercial activity started in 2009.,www.lsag.com,0,-1,0,5,5,6,YES,YES,
460,GIOIELLERIA DELFINO S.R.L.,IT,Italie,SAVONA,VIA LUIGI CORSI 7/R,4777,Commerce de détail d'articles d'horlogerie et de bijouterie en magasin spécialisé,,,COMMERCIO AL DETTAGLIO DI OROLOGI E ARTICOLI DI GIOIELLERIA E ARGE ERIA,,"www.delfinogioielli.com
www.gioielleriadelfino.com",0,0,0,5,4,5,YES,NO,NO
461,LERVIK UR AS,NO,Norvège,HAUGESUND,POSTBOKS 209,4777,Commerce de détail d'articles d'horlogerie et de bijouterie en magasin spécialisé,,,"URMAKERFORRETNING OG ANNEN HANDELSVIRKSOMHET, SAMT IMPORT OG EKSPORT.",,www.lervikur.no,0,0,0,5,4,4,YES,NO,NO
462,JAN Y ALEX SL,ES,Espagne,BARCELONA,,4771,Commerce de détail d'habillement en magasin spécialisé,,,Comercio al por menor de toda clase de prendas de vestido y tocado de señora,,www.nkn.es,0,0,0,5,4,6,YES,NO,NO
463,HOBB'S S.R.L.,IT,Italie,VILLA DEL CONTE,VIA ROMA 4,4772,Commerce de détail de chaussures et d'articles en cuir en magasin spécialisé,,,COMMERCIO AL DETTAGLIO DI CALZATURE E ACCESSORI,,"www.hobbsgroup.it
www.h-brands.com",0,0,0,5,4,5,YES,NO,NO
464,AKSIOM,RU,Fédération de Russie,NOVOSIBIRSK,"PR-KT DIMITROVA D. 1, OFFICE 5",4777,Commerce de détail d'articles d'horlogerie et de bijouterie en magasin spécialisé,Engaged in the retail trade of grocery products,Retail,,Engaged in the retail trade of grocery products [source: Bureau van Dijk],www.avsu.ru,1,1,1,5,5,5,YES,NO,NO
465,SOCIETE PARISIENNE SOILAINE,FR,France,PARIS,,4751,Commerce de détail de textiles en magasin spécialisé,Engaged in the retail sale of textiles and fabrics in Paris,Retail,,Engaged in the retail sale of textiles and fabrics in Paris [source: Bureau van Dijk],www.tissus-reine.com,1,0,1,5,5,6,YES,NO,NO
466,CONSORZIO PUNTO SCARPE,IT,Italie,SONA,VIA DON GIOVANNI BOSCO 8,4772,Commerce de détail de chaussures et d'articles en cuir en magasin spécialisé,,,COMMERCIO AL DETTAGLIO DI CALZATURE E ACCESSORI,,www.puntoscarpe.it,0,0,0,5,4,6,YES,NO,NO
467,DEKORUS,RU,Fédération de Russie,MOSCOW,,4751,Commerce de détail de textiles en magasin spécialisé,Engaged in the management and operation of furniture stores,Wholesale; Retail,,Engaged in the management and operation of furniture stores [source: Bureau van Dijk],www.dekorus.waw.pl,0,0,0,5,4,5,YES,NO,NO
468,CARMEN Y LOLI HERMO SL,ES,Espagne,NOIA,,4771,Commerce de détail d'habillement en magasin spécialisé,,,"Comercialización al por menor de prendas de vestir y complementos de señora, infantil y caballero.",,www.lolitamoda.com,0,0,0,5,4,5,YES,NO,NO
469,A. PEZZOLI - SOCIETA' PER AZIONI,IT,Italie,GAZZANIGA,VIA SALICI 61,4751,Commerce de détail de textiles en magasin spécialisé,,,"COMMERCIO AL DETTAGLIO DI TESSUTI PER L'ABBIGLIAMENTO, L'ARREDAMEN E DI BIANCHERIA PER LA CASA",,"www.pezzolishop.com
www.ricamificiopezzoli.it",0,0,0,5,4,4,YES,NO,NO
470,BFC SRL,IT,Italie,GAZZO,VIA CAMPANELLO 61,4771,Commerce de détail d'habillement en magasin spécialisé,Engaged in the sale of clothing and accessories,Wholesale; Services,DETTAGLIO MAGLIERIA,Engaged in the sale of clothing and accessories [source: Bureau van Dijk],"www.ducadisangiusto.it
bfcweb.it",0,0,0,5,4,5,YES,NO,NO
471,FRADE ROPA DE TRABAJO SL,ES,Espagne,ALCORCON,,4771,Commerce de détail d'habillement en magasin spécialisé,,,Comercio al por menor de ropa laboral,,www.fraderopadetrabajo.es,0,0,0,5,4,4,YES,NO,NO
472,30GRADI S.R.L.,IT,Italie,ROMA,VIA DEI MONTI DELLA FARNESINA 79,4771,Commerce de détail d'habillement en magasin spécialisé,Operates as a clothing store,Retail,COMMERCIO AL DETTAGLIO DI ARTICOLI DI ABBIGLIAMENTO,Operates as a clothing store [source: Bureau van Dijk],"www.museumtheoriginal.com
www.italianrugbystyle.it",0,0,1,5,7,6,YES,NO,NO
473,INCATASCIATO GROUP S.R.L.,IT,Italie,MISTERBIANCO,,4771,Commerce de détail d'habillement en magasin spécialisé,Engaged in the operation of a chain of family clothing stores,Retail,COMMERCIO AL DETTAGLIO DI CONFEZIONI PER ADULTI,Engaged in the operation of a chain of family clothing stores [source: Bureau van Dijk],,0,0,0,5,4,8,YES,YES,
474,SMART ORIGINAL OY,FI,Finlande,VANTAA,,4771,Commerce de détail d'habillement en magasin spécialisé,,,"Yhtiön toimialana on pukimien, asusteiden, työvaatteiden, työjalkineiden, työsuojelutarvikkeiden, kankaiden ja laukkujen vähittäis- ja tukkukauppa, tuonti, vienti sekä agentuuritoiminta. Yhtiö voi toimintaansa varten omistaa ja hallita kiinteistöjä ja arvopapereita sekä käydä arvopaperikauppaa.","Yhtion toimialana on pukimien, asusteiden, tyovaatteiden, tyojalkineiden, tyosuojelutarvikkeiden, kankaiden ja laukkujen vahittais- ja tukkukauppa, tuonti, vienti seka agentuuritoiminta. Yhtio voi toimintaansa varten omistaa ja hallita kiinteistoja ja arvopapereita seka kayda arvopaperikauppaa.",www.smartoriginal.fi,0,0,0,5,4,5,YES,YES,
475,RISCHIO S.R.L.,IT,Italie,LATISANA,VIA LOVADINA 49,4771,Commerce de détail d'habillement en magasin spécialisé,Engaged in the retail distribution of ready-made clothing,Retail,COMMERCIO AL DETTAGLIO DI ARTICOLI DI ABBIGLIAMENTO,Engaged in the retail distribution of ready-made clothing [source: Bureau van Dijk],www.risskio.it,0,-1,0,4,4,11,YES,YES,
476,MARMON SPORTS,FR,France,AUBERVILLIERS,,4771,Commerce de détail d'habillement en magasin spécialisé,Engaged in the retail trade of sporting goods and equipment,Retail,Articles de sports et de camping,Engaged in the retail trade of sporting goods and equipment [source: Bureau van Dijk],marmonsports.com,0,0,0,4,5,6,YES,NO,NO
477,STAR SILVER S.R.O.,SK,Slovaquie,BRATISLAVA,,4777,Commerce de détail d'articles d'horlogerie et de bijouterie en magasin spécialisé,,,,,klenotytrend.sk,1,1,1,4,5,6,YES,NO,NO
478,AUZMENDI SA,ES,Espagne,DONOSTIA/SAN SEBASTIAN,,4771,Commerce de détail d'habillement en magasin spécialisé,,,"Comercialización de calzados,complementos y prendas textiles.",Fashion mens' clothing retailer ; Online mens' clothing retailer ; Online womens' clothing retailer ; Fashion women's clothing retailer ; Online fashion clothing accessories retailer ; Fashion clothing accessories retailer [source: Bureau van Dijk],www.auzmendi.com,0,0,0,4,4,5,YES,NO,NO
479,"CARVALHO, NOGUEIRA & BARBOSA, LDA",PT,Portugal,LISBOA,,4777,Commerce de détail d'articles d'horlogerie et de bijouterie en magasin spécialisé,,,Retalhista de artigos de ourivesaria e relojoaria - 100%,,www.ourivesaria-portugal.pt,0,0,1,4,5,6,YES,NO,NO
480,SCUDERI SPORT S.R.L.,IT,Italie,MONTEROTONDO,VIA PALOMBARESE 203/205,4771,Commerce de détail d'habillement en magasin spécialisé,,,DETTAGLIO DI ABBIGLIAMENTO ED ARTICOLI SPORTIVI,,www.scuderistore.com,0,0,0,4,4,4,YES,NO,NO
481,KOTKAN GARDEROBI OY,FI,Finlande,KOTKA,,4771,Commerce de détail d'habillement en magasin spécialisé,,,"Vaatteiden vähittäiskauppa ja konsultointi. Yhtiö voi toimintansa puitteissa omistaa kiinteistöjä, asunto- ja muita osakkeita sekä muita arvopapereita.","Vaatteiden vahittaiskauppa ja konsultointi. Yhtio voi toimintansa puitteissa omistaa kiinteistoja, asunto- ja muita osakkeita seka muita arvopapereita.","www.vila.co
www.trio.fi",0,0,0,4,6,7,YES,NO,NO
482,MODA CENTER S.R.L.,IT,Italie,TREVIGNANO,VIA TREVISO 71,4771,Commerce de détail d'habillement en magasin spécialisé,Engaged in the retail trade of wearing apparel and accessories,Retail,COMMERCIO AL DETTAGLIO DI ARTICOLI DI ABBIGLIAMENTO,Engaged in the retail trade of wearing apparel and accessories [source: Bureau van Dijk],"www.puntoettore.it
www.modacenter.it",-2,-5,0,4,5,8,YES,YES,
483,BIJOUX BOUTIQUE,FR,France,STRASBOURG,,4777,Commerce de détail d'articles d'horlogerie et de bijouterie en magasin spécialisé,Operates as a retailer of miscellaneous shopping goods,Retail,"Achat, vente, commission, courtage, représentation, fabrication portant sur tous articles d'horlogerie, bijouterie, joaillerie, orfèvrerie, cadeau, importation, exportation, commerce intra-communautaire d'ouvrage en métaux précieux.",Operates as a retailer of miscellaneous shopping goods [source: Bureau van Dijk],www.boutiquesobijoux.com,1,1,0,4,5,5,YES,NO,NO
484,PRO RETAIL FINLAND OY,FI,Finlande,ESPOO,C/O KOTKAN TILIPALVELU OY KIRKKOKATU 18,4771,Commerce de détail d'habillement en magasin spécialisé,,,"Yhtiön toimialana on vaatteiden-, jalkineiden-, laukkujen-, muiden muotiin ja pukeutumiseen liittyvien tuotteiden ja oheistuotteiden, sekä sisustus- ja tekstiilituotteiden myynti, maahantuonti, markkinointi ja esittely. Yhtiö voi myös harjoittaa parturi- ja kampaamopalveluiden myyntiä, sekä muuta kauneudenhoito ja kosmetologisten palveluiden tarjoamista, tai alaan liittyvää toimintaa. Yhtiö voi omistaa koti- ja ulkomaisia osakkeita ja kiinteistöosakkeita, osuuksia ja oikeuksia, sekä käydä niillä kauppaa, ja harjoittaa vuokraustoimintaa.","Yhtion toimialana on vaatteiden-, jalkineiden-, laukkujen-, muiden muotiin ja pukeutumiseen liittyvien tuotteiden ja oheistuotteiden, seka sisustus- ja tekstiilituotteiden myynti, maahantuonti, markkinointi ja esittely. Yhtio voi myos harjoittaa parturi- ja kampaamopalveluiden myyntia, seka muuta kauneudenhoito ja kosmetologisten palveluiden tarjoamista, tai alaan liittyvaa toimintaa. Yhtio voi omistaa koti- ja ulkomaisia osakkeita ja kiinteistoosakkeita, osuuksia ja oikeuksia, seka kayda niilla kauppaa, ja harjoittaa vuokraustoimintaa.",www.isoomena.fi,0,0,0,4,4,5,YES,NO,NO
485,BIONDI S.R.L.,IT,Italie,VERCELLI,CORSO LIBERTA' 41,4777,Commerce de détail d'articles d'horlogerie et de bijouterie en magasin spécialisé,"Primarily engaged in the wholesale trade of jewelries, watches, precious stones and precious metals",Wholesale,GIOIELLERIE,"Primarily engaged in the wholesale trade of jewelries, watches, precious stones and precious metals [source: Bureau van Dijk]","www.biondigioielli.com
www.nautica-biondi.it",1,1,1,4,5,6,YES,NO,NO
486,ARI S.R.L.,IT,Italie,VARESE,VIA CAMILLO BENSO CONTE DI CAVOUR 39,4771,Commerce de détail d'habillement en magasin spécialisé,,,COMMERCIO AL DETTAGLIO DI CONFEZIONI PER ADULTI,,,1,1,0,4,6,6,YES,NO,NO
487,KEEPSEA SL.,ES,Espagne,GUARDAMAR DEL SEGURA,,4751,Commerce de détail de textiles en magasin spécialisé,,,Comercio al por menor de cortinas para el hogar,,www.cortinadecor.com,19,2,1,4,8,5,YES,NO,NO
488,ZETEK SRL,IT,Italie,CERVIA,VIALE ROMAGNA 69/71,4771,Commerce de détail d'habillement en magasin spécialisé,Engaged in the manufacture and retail sale of clothing products in Italy,Manufacturing; Retail,COMMERCIO AL DETTAGLIO DI ARTICOLI DI ABBIGLIAMENTO,Engaged in the manufacture and retail sale of clothing products in Italy [source: Bureau van Dijk],"www.tezuk.com
www.zetek.it",0,0,0,4,4,5,YES,NO,NO
489,WADEL S.R.L.,IT,Italie,CAGLIARI,VIA DEL RISORGIMENTO 5,4772,Commerce de détail de chaussures et d'articles en cuir en magasin spécialisé,Primarily engaged in the retail sale of footwear products,Retail,COMMERCIO AL DETTAGLIO DI CALZATURE E ACCESSORI,Primarily engaged in the retail sale of footwear products [source: Bureau van Dijk],www.cralregionesardegna.it/?p=2693,0,0,1,4,6,10,YES,NO,NO
490,MARKTKONTOR GMBH,DE,Allemagne,WARDENBURG,,4771,Commerce de détail d'habillement en magasin spécialisé,,,"Eingetragener Gegenstand:
Konzeptionelle Ausstattung und Beratung rund um Bäckereien, Konditoreien und Cafes
Tatsächlicher Gegenstand:
Berufsbekleidung, Texitlveredelung, Gedeckter Tisch, Gasronomiebedarf, Corporate Design",,www.markt-kontor.de,n.d.,n.d.,n.d.,4,4,5,NO,NO,#DIV/0!
